{
"type": "FeatureCollection",
"name": "R_6lxz5yLok9NdUeS_human_hrt",
"features": [
{ "type": "Feature", "properties": { "id": 1, "hrt": 90, "maxHrt": [ 0 ] }, "geometry": { "type": "LineString", "coordinates": [ [ -89.459928510749577, 43.053840650804474, 0.0 ], [ -89.459939658680526, 43.053787090444501, 0.0 ], [ -89.459944101089107, 43.053770913371778, 0.0 ] ] } },
{ "type": "Feature", "properties": { "id": 2, "hrt": 100, "maxHrt": [ 0 ] }, "geometry": { "type": "LineString", "coordinates": [ [ -89.459944101089107, 43.053770913371778, 0.0 ], [ -89.459824323695685, 43.053737134302814, 0.0 ], [ -89.459691386714596, 43.053733781541624, 0.0 ], [ -89.459663474977717, 43.053725064362538, 0.0 ], [ -89.459667163015027, 43.053721376325228, 0.0 ], [ -89.459688453048557, 43.053712994422263, 0.0 ], [ -89.459644699515067, 43.053717436830837, 0.0 ], [ -89.45962466676697, 43.053725902552834, 0.0 ], [ -89.459626678423689, 43.053717688287925, 0.0 ], [ -89.459626678423689, 43.053717688287925, 0.0 ] ] } },
{ "type": "Feature", "properties": { "id": 3, "hrt": 90, "maxHrt": [ 0 ] }, "geometry": { "type": "LineString", "coordinates": [ [ -89.459626678423689, 43.053717688287925, 0.0 ], [ -89.459470439752351, 43.053721292506204, 0.0 ], [ -89.459372874401794, 43.053719951401725, 0.0 ], [ -89.459358206071599, 43.053723052705827, 0.0 ], [ -89.459251839722924, 43.053739481235645, 0.0 ], [ -89.459191573840585, 43.053736379931543, 0.0 ] ] } },
{ "type": "Feature", "properties": { "id": 4, "hrt": 100, "maxHrt": [ 0 ] }, "geometry": { "type": "LineString", "coordinates": [ [ -89.459191573840585, 43.053736379931543, 0.0 ], [ -89.459125272988103, 43.053740319425941, 0.0 ], [ -89.459077999055353, 43.053730596418497, 0.0 ], [ -89.459003651576026, 43.053726489286042, 0.0 ], [ -89.458997281329772, 43.053723304162915, 0.0 ], [ -89.458994515301796, 43.053715089898006, 0.0 ], [ -89.45897012396415, 43.053706540356977, 0.0 ], [ -89.458932824495946, 43.05372179542038, 0.0 ], [ -89.458698298850877, 43.053706205080857, 0.0 ], [ -89.458688072929263, 43.053707127090185, 0.0 ], [ -89.458670890028174, 43.053696984987596, 0.0 ], [ -89.458669548923694, 43.053690614741335, 0.0 ], [ -89.458669548923694, 43.053660607528712, 0.0 ], [ -89.458676505903171, 43.053643256989567, 0.0 ], [ -89.458675583893836, 43.053630516497051, 0.0 ], [ -89.458685474539337, 43.05349037107942, 0.0 ], [ -89.458689833128886, 43.053459274219406, 0.0 ], [ -89.458681451225914, 43.05345173050673, 0.0 ], [ -89.458685306901288, 43.053444019156004, 0.0 ], [ -89.458683379063601, 43.053423315855667, 0.0 ] ] } },
{ "type": "Feature", "properties": { "id": 5, "hrt": 90, "maxHrt": [ 0 ] }, "geometry": { "type": "LineString", "coordinates": [ [ -89.458683379063601, 43.053423315855667, 0.0 ], [ -89.458679020474051, 43.053305885395076, 0.0 ], [ -89.458676505903171, 43.053251486844815, 0.0 ], [ -89.458677008817347, 43.053209828787061, 0.0 ], [ -89.458685390720305, 43.053184431621062, 0.0 ], [ -89.458688994938584, 43.053179989212488, 0.0 ], [ -89.458691760966573, 43.053172445499818, 0.0 ] ] } },
{ "type": "Feature", "properties": { "id": 6, "hrt": 90, "maxHrt": [ 0 ] }, "geometry": { "type": "LineString", "coordinates": [ [ -89.458691760966573, 43.053172445499818, 0.0 ], [ -89.458695868099028, 43.053157609531567, 0.0 ], [ -89.458695197546788, 43.053139923716301, 0.0 ], [ -89.458696371013204, 43.053119052777909, 0.0 ], [ -89.458696035737077, 43.05310488736189, 0.0 ], [ -89.458693018252006, 43.053096589277956, 0.0 ], [ -89.458690587500158, 43.053058451619449, 0.0 ] ] } },
{ "type": "Feature", "properties": { "id": 7, "hrt": 80, "maxHrt": [ 0 ] }, "geometry": { "type": "LineString", "coordinates": [ [ -89.458690587500158, 43.053058451619449, 0.0 ], [ -89.458677092636378, 43.052956443860317, 0.0 ], [ -89.458679942483386, 43.05289525596865, 0.0 ], [ -89.458677176455396, 43.05286751186982, 0.0 ], [ -89.458663513953567, 43.052811269300904, 0.0 ], [ -89.458663262496472, 43.0527079204373, 0.0 ], [ -89.458652533660668, 43.052654779172478, 0.0 ] ] } },
{ "type": "Feature", "properties": { "id": 8, "hrt": 90, "maxHrt": [ 0 ] }, "geometry": { "type": "LineString", "coordinates": [ [ -89.458652533660668, 43.052654779172478, 0.0 ], [ -89.458658903906937, 43.052562159144678, 0.0 ], [ -89.458658233354697, 43.052550592118578, 0.0 ] ] } },
{ "type": "Feature", "properties": { "id": 9, "hrt": 100, "maxHrt": [ 0 ] }, "geometry": { "type": "LineString", "coordinates": [ [ -89.458658233354697, 43.052550592118578, 0.0 ], [ -89.458659490640144, 43.052512286822015, 0.0 ], [ -89.458654629136419, 43.052438861352009, 0.0 ], [ -89.458653371850971, 43.052422935736367, 0.0 ], [ -89.458652366022619, 43.052282538861647, 0.0 ], [ -89.458650522003964, 43.052253369839313, 0.0 ], [ -89.458647169242781, 43.052253956572521, 0.0 ], [ -89.458637697692424, 43.052250184716186, 0.0 ], [ -89.458636691864058, 43.052196540537189, 0.0 ], [ -89.458631830360346, 43.052178519445803, 0.0 ] ] } },
{ "type": "Feature", "properties": { "id": 10, "hrt": 90, "maxHrt": [ 0 ] }, "geometry": { "type": "LineString", "coordinates": [ [ -89.458631830360346, 43.052178519445803, 0.0 ], [ -89.458632333274522, 43.052064022651251, 0.0 ] ] } },
{ "type": "Feature", "properties": { "id": 11, "hrt": 100, "maxHrt": [ 0 ] }, "geometry": { "type": "LineString", "coordinates": [ [ -89.458632333274522, 43.052064022651251, 0.0 ], [ -89.458601320233541, 43.051933097326888, 0.0 ], [ -89.458609702136499, 43.051927481451898, 0.0 ] ] } },
{ "type": "Feature", "properties": { "id": 12, "hrt": 90, "maxHrt": [ 0 ] }, "geometry": { "type": "LineString", "coordinates": [ [ -89.458609702136499, 43.051927481451898, 0.0 ], [ -89.458606936108524, 43.051854475077043, 0.0 ], [ -89.458602745157037, 43.051786916939115, 0.0 ], [ -89.458603248071213, 43.051781636340245, 0.0 ], [ -89.458558321071308, 43.05175875374514, 0.0 ], [ -89.458530325515397, 43.051732434569814, 0.0 ] ] } },
{ "type": "Feature", "properties": { "id": 13, "hrt": 100, "maxHrt": [ 0 ] }, "geometry": { "type": "LineString", "coordinates": [ [ -89.458530325515397, 43.051732434569814, 0.0 ], [ -89.458458744064046, 43.051654566691241, 0.0 ], [ -89.458417002187261, 43.05153084980342, 0.0 ], [ -89.458381714375761, 43.051468823721457, 0.0 ], [ -89.458366459312359, 43.051410066581646, 0.0 ], [ -89.458350449877685, 43.051373856760819, 0.0 ], [ -89.458337038832937, 43.051306214803866, 0.0 ] ] } },
{ "type": "Feature", "properties": { "id": 14, "hrt": 90, "maxHrt": [ 0 ] }, "geometry": { "type": "LineString", "coordinates": [ [ -89.458337038832937, 43.051306214803866, 0.0 ], [ -89.458336535918761, 43.051308477917665, 0.0 ] ] } },
{ "type": "Feature", "properties": { "id": 15, "hrt": 80, "maxHrt": [ 0 ] }, "geometry": { "type": "LineString", "coordinates": [ [ -89.458336535918761, 43.051308477917665, 0.0 ], [ -89.458336535918761, 43.051311830678856, 0.0 ], [ -89.458335027176219, 43.051311411583704, 0.0 ], [ -89.458320861760214, 43.051263048003577, 0.0 ], [ -89.458294039670704, 43.051177720231358, 0.0 ], [ -89.458282724101707, 43.051139079658675, 0.0 ], [ -89.458269732152104, 43.051112760483349, 0.0 ] ] } },
{ "type": "Feature", "properties": { "id": 16, "hrt": 90, "maxHrt": [ 0 ] }, "geometry": { "type": "LineString", "coordinates": [ [ -89.458269732152104, 43.051112760483349, 0.0 ], [ -89.458238300015964, 43.051029109091722, 0.0 ], [ -89.458164036355669, 43.050995162384702, 0.0 ], [ -89.458032691936154, 43.051025756330539, 0.0 ], [ -89.458014167930585, 43.05103899973723, 0.0 ], [ -89.457871843218186, 43.0511391634777, 0.0 ] ] } },
{ "type": "Feature", "properties": { "id": 17, "hrt": 100, "maxHrt": [ 0 ] }, "geometry": { "type": "LineString", "coordinates": [ [ -89.457871843218186, 43.0511391634777, 0.0 ], [ -89.457666402776425, 43.051234046619307, 0.0 ], [ -89.457602448856775, 43.051264305289024, 0.0 ] ] } },
{ "type": "Feature", "properties": { "id": 18, "hrt": 110, "maxHrt": [ 0 ] }, "geometry": { "type": "LineString", "coordinates": [ [ -89.457602448856775, 43.051264305289024, 0.0 ], [ -89.457531118862505, 43.05127075935431, 0.0 ], [ -89.457475127750683, 43.051277297238627, 0.0 ] ] } },
{ "type": "Feature", "properties": { "id": 19, "hrt": 120, "maxHrt": [ 0 ] }, "geometry": { "type": "LineString", "coordinates": [ [ -89.457475127750683, 43.051277297238627, 0.0 ], [ -89.457376808028854, 43.051262796546489, 0.0 ], [ -89.4572778177548, 43.051246116559582, 0.0 ] ] } },
{ "type": "Feature", "properties": { "id": 20, "hrt": 130, "maxHrt": [ 0 ] }, "geometry": { "type": "LineString", "coordinates": [ [ -89.4572778177548, 43.051246116559582, 0.0 ], [ -89.457217551872461, 43.051250139873005, 0.0 ], [ -89.457186957926623, 43.051254749919636, 0.0 ] ] } },
{ "type": "Feature", "properties": { "id": 21, "hrt": 140, "maxHrt": [ 0 ] }, "geometry": { "type": "LineString", "coordinates": [ [ -89.457186957926623, 43.051254749919636, 0.0 ], [ -89.457134319575971, 43.051254917557699, 0.0 ], [ -89.457039939348547, 43.051257348309562, 0.0 ] ] } },
{ "type": "Feature", "properties": { "id": 22, "hrt": 130, "maxHrt": [ 0 ] }, "geometry": { "type": "LineString", "coordinates": [ [ -89.457039939348547, 43.051257348309562, 0.0 ], [ -89.456941871083814, 43.05124703856891, 0.0 ], [ -89.456939524150982, 43.051244440178991, 0.0 ], [ -89.45691831793647, 43.051246787111822, 0.0 ] ] } },
{ "type": "Feature", "properties": { "id": 23, "hrt": 120, "maxHrt": [ 0 ] }, "geometry": { "type": "LineString", "coordinates": [ [ -89.45691831793647, 43.051246787111822, 0.0 ], [ -89.456711871666357, 43.051219210651048, 0.0 ], [ -89.456566780925968, 43.051247876759206, 0.0 ], [ -89.456512298556675, 43.051250139873005, 0.0 ], [ -89.456474579993326, 43.051256174843147, 0.0 ] ] } },
{ "type": "Feature", "properties": { "id": 24, "hrt": 110, "maxHrt": [ 0 ] }, "geometry": { "type": "LineString", "coordinates": [ [ -89.456474579993326, 43.051256174843147, 0.0 ], [ -89.456375086805082, 43.05124670329279, 0.0 ], [ -89.45629202214667, 43.051252905900988, 0.0 ], [ -89.456239048519905, 43.051279644171458, 0.0 ], [ -89.456205856184141, 43.051281739647195, 0.0 ], [ -89.456206191460268, 43.051281572009138, 0.0 ] ] } },
{ "type": "Feature", "properties": { "id": 25, "hrt": 100, "maxHrt": [ 0 ] }, "geometry": { "type": "LineString", "coordinates": [ [ -89.456206191460268, 43.051281572009138, 0.0 ], [ -89.456192277501344, 43.05124670329279, 0.0 ], [ -89.456178698818533, 43.051082166537519, 0.0 ], [ -89.456176770980846, 43.051031036929409, 0.0 ], [ -89.456168305258842, 43.050938584539665, 0.0 ], [ -89.456200827042366, 43.050833978390614, 0.0 ], [ -89.456202838699085, 43.050814280918637, 0.0 ], [ -89.456192528958425, 43.050793577618307, 0.0 ], [ -89.456177357714054, 43.050774718336626, 0.0 ], [ -89.456176854799878, 43.050764995329182, 0.0 ] ] } },
{ "type": "Feature", "properties": { "id": 26, "hrt": 90, "maxHrt": [ 0 ] }, "geometry": { "type": "LineString", "coordinates": [ [ -89.456176854799878, 43.050764995329182, 0.0 ], [ -89.456176016609575, 43.05075309302697, 0.0 ], [ -89.456175346057336, 43.05075116518929, 0.0 ], [ -89.456170736010705, 43.050729288422538, 0.0 ] ] } },
{ "type": "Feature", "properties": { "id": 27, "hrt": 80, "maxHrt": [ 0 ] }, "geometry": { "type": "LineString", "coordinates": [ [ -89.456170736010705, 43.050729288422538, 0.0 ], [ -89.45616729943049, 43.05065192345814, 0.0 ], [ -89.456163359936099, 43.05063046578654, 0.0 ] ] } },
{ "type": "Feature", "properties": { "id": 28, "hrt": 90, "maxHrt": [ 0 ] }, "geometry": { "type": "LineString", "coordinates": [ [ -89.456163359936099, 43.05063046578654, 0.0 ], [ -89.456157408784989, 43.050478920980865, 0.0 ], [ -89.456164281945419, 43.050411027566824, 0.0 ] ] } },
{ "type": "Feature", "properties": { "id": 29, "hrt": 100, "maxHrt": [ 0 ] }, "geometry": { "type": "LineString", "coordinates": [ [ -89.456164281945419, 43.050411027566824, 0.0 ], [ -89.456123881173113, 43.05030801397934, 0.0 ], [ -89.456163108479004, 43.05022126128361, 0.0 ], [ -89.456159336622676, 43.050183877996375, 0.0 ], [ -89.456153469290598, 43.05006996793503, 0.0 ], [ -89.456164198126388, 43.049999811407183, 0.0 ] ] } },
{ "type": "Feature", "properties": { "id": 30, "hrt": 110, "maxHrt": [ 0 ] }, "geometry": { "type": "LineString", "coordinates": [ [ -89.456164198126388, 43.049999811407183, 0.0 ], [ -89.456127904486536, 43.049935438392382, 0.0 ], [ -89.456108123195534, 43.049932756183438, 0.0 ], [ -89.456089180094821, 43.049930828345751, 0.0 ], [ -89.455954650552172, 43.049914902730109, 0.0 ], [ -89.455853313345287, 43.049901324047305, 0.0 ], [ -89.455848703298656, 43.049899312390593, 0.0 ], [ -89.455843590337849, 43.049899899123801, 0.0 ], [ -89.455780390789457, 43.049913896901757, 0.0 ], [ -89.455760777136518, 43.049915070368172, 0.0 ] ] } },
{ "type": "Feature", "properties": { "id": 31, "hrt": 100, "maxHrt": [ 0 ] }, "geometry": { "type": "LineString", "coordinates": [ [ -89.455760777136518, 43.049915070368172, 0.0 ], [ -89.455657092996788, 43.049928649050983, 0.0 ], [ -89.455609986702115, 43.049930744526719, 0.0 ], [ -89.455442516280797, 43.049927727041656, 0.0 ], [ -89.455338832141081, 43.04992060242413, 0.0 ], [ -89.455322738887375, 43.049919512776746, 0.0 ], [ -89.455207487721566, 43.049908029569679, 0.0 ], [ -89.455099612630349, 43.049898893295442, 0.0 ], [ -89.455085866309489, 43.049904341532368, 0.0 ], [ -89.454982768902966, 43.049896965457762, 0.0 ], [ -89.454826614050674, 43.049814319894487, 0.0 ], [ -89.454775735899645, 43.049691357377938, 0.0 ] ] } },
{ "type": "Feature", "properties": { "id": 32, "hrt": 110, "maxHrt": [ 0 ] }, "geometry": { "type": "LineString", "coordinates": [ [ -89.454775735899645, 43.049691357377938, 0.0 ], [ -89.45476911419631, 43.049655399014206, 0.0 ], [ -89.454776322632853, 43.049607203072135, 0.0 ], [ -89.454788644030216, 43.049553307436049, 0.0 ], [ -89.454777412280237, 43.049487174221625, 0.0 ] ] } },
{ "type": "Feature", "properties": { "id": 33, "hrt": 100, "maxHrt": [ 0 ] }, "geometry": { "type": "LineString", "coordinates": [ [ -89.454777412280237, 43.049487174221625, 0.0 ], [ -89.454770287662726, 43.049401259716198, 0.0 ], [ -89.454778585746652, 43.049349962470032, 0.0 ], [ -89.454779759213068, 43.049262874498183, 0.0 ], [ -89.454826614050674, 43.049164051862185, 0.0 ] ] } },
{ "type": "Feature", "properties": { "id": 34, "hrt": 110, "maxHrt": [ 0 ] }, "geometry": { "type": "LineString", "coordinates": [ [ -89.454826614050674, 43.049164051862185, 0.0 ], [ -89.454908086147526, 43.049071012739233, 0.0 ] ] } },
{ "type": "Feature", "properties": { "id": 35, "hrt": 110, "maxHrt": [ 0 ] }, "geometry": { "type": "LineString", "coordinates": [ [ -89.454908086147526, 43.049071012739233, 0.0 ], [ -89.455003304565238, 43.048974872312186, 0.0 ] ] } },
{ "type": "Feature", "properties": { "id": 36, "hrt": 100, "maxHrt": [ 0 ] }, "geometry": { "type": "LineString", "coordinates": [ [ -89.455003304565238, 43.048974872312186, 0.0 ], [ -89.455146718925036, 43.048888035797432, 0.0 ] ] } },
{ "type": "Feature", "properties": { "id": 37, "hrt": 110, "maxHrt": [ 0 ] }, "geometry": { "type": "LineString", "coordinates": [ [ -89.455146718925036, 43.048888035797432, 0.0 ], [ -89.455150406962346, 43.048862722450465, 0.0 ], [ -89.455126686176939, 43.048787620599867, 0.0 ] ] } },
{ "type": "Feature", "properties": { "id": 38, "hrt": 100, "maxHrt": [ 0 ] }, "geometry": { "type": "LineString", "coordinates": [ [ -89.455126686176939, 43.048787620599867, 0.0 ], [ -89.455126183262763, 43.048706819055248, 0.0 ], [ -89.455125931805682, 43.048589388594664, 0.0 ], [ -89.455103803581835, 43.048558207915619, 0.0 ], [ -89.455089470527767, 43.048546640889519, 0.0 ], [ -89.455086704499777, 43.04854437777572, 0.0 ], [ -89.455086955956872, 43.04854437777572, 0.0 ] ] } },
{ "type": "Feature", "properties": { "id": 39, "hrt": 90, "maxHrt": [ 0 ] }, "geometry": { "type": "LineString", "coordinates": [ [ -89.455086955956872, 43.04854437777572, 0.0 ], [ -89.455057703115514, 43.04848235169375, 0.0 ], [ -89.455045381718151, 43.048461313117301, 0.0 ] ] } },
{ "type": "Feature", "properties": { "id": 40, "hrt": 100, "maxHrt": [ 0 ] }, "geometry": { "type": "LineString", "coordinates": [ [ -89.455045381718151, 43.048461313117301, 0.0 ], [ -89.454963322888091, 43.048355952596985, 0.0 ], [ -89.454837761981622, 43.048275151052366, 0.0 ], [ -89.454815047024567, 43.048258471065459, 0.0 ], [ -89.454756038427675, 43.048219914311808, 0.0 ], [ -89.454676745625591, 43.048161660086173, 0.0 ], [ -89.454602817241408, 43.048107848269119, 0.0 ], [ -89.454555291851577, 43.048064849106886, 0.0 ], [ -89.454553531651953, 43.048060155241224, 0.0 ], [ -89.454479854724852, 43.047996368959637, 0.0 ], [ -89.454412380405955, 43.047858319017742, 0.0 ], [ -89.454392012381746, 43.047786989023479, 0.0 ], [ -89.454388491982499, 43.047781205510432, 0.0 ], [ -89.454362508083292, 43.047697218842686, 0.0 ], [ -89.454366615215747, 43.047585823352236, 0.0 ], [ -89.454377427870583, 43.047545841675074, 0.0 ], [ -89.454372147271712, 43.047525641288921, 0.0 ], [ -89.454352785075855, 43.04746428575919, 0.0 ], [ -89.454353539447126, 43.047350124240758, 0.0 ], [ -89.454336105088942, 43.047323302151256, 0.0 ], [ -89.454301487829682, 43.047279883893879, 0.0 ], [ -89.454303918581545, 43.047255408737215, 0.0 ], [ -89.454298470344611, 43.047132446220665, 0.0 ], [ -89.454304002400576, 43.047126075974404, 0.0 ], [ -89.454307522799823, 43.04712037628039, 0.0 ], [ -89.454301655467745, 43.047087183944633, 0.0 ], [ -89.454307019885647, 43.04706136768349, 0.0 ] ] } },
{ "type": "Feature", "properties": { "id": 41, "hrt": 90, "maxHrt": [ 0 ] }, "geometry": { "type": "LineString", "coordinates": [ [ -89.454307019885647, 43.04706136768349, 0.0 ], [ -89.454304421495721, 43.046992971355266, 0.0 ], [ -89.454311294656165, 43.046960701028837, 0.0 ], [ -89.454317748721451, 43.046911918353558, 0.0 ], [ -89.454330992128135, 43.046862548945072, 0.0 ], [ -89.454331495042311, 43.046861040202543, 0.0 ] ] } },
{ "type": "Feature", "properties": { "id": 42, "hrt": 100, "maxHrt": [ 0 ] }, "geometry": { "type": "LineString", "coordinates": [ [ -89.454331495042311, 43.046861040202543, 0.0 ], [ -89.454330573032991, 43.046812089889201, 0.0 ], [ -89.454373153100065, 43.046693150686082, 0.0 ], [ -89.454368207777321, 43.046588293079942, 0.0 ], [ -89.454370638529184, 43.046462313078322, 0.0 ], [ -89.454368962148578, 43.046395006397489, 0.0 ], [ -89.454362340445243, 43.046335159610294, 0.0 ], [ -89.454369716519849, 43.046334489058054, 0.0 ], [ -89.454346414829601, 43.046314121033838, 0.0 ], [ -89.454311294656165, 43.046259387207456, 0.0 ], [ -89.454301320191632, 43.046254609522762, 0.0 ], [ -89.454292016279325, 43.04625025093322, 0.0 ] ] } },
{ "type": "Feature", "properties": { "id": 43, "hrt": 90, "maxHrt": [ 0 ] }, "geometry": { "type": "LineString", "coordinates": [ [ -89.454292016279325, 43.04625025093322, 0.0 ], [ -89.454242060137645, 43.046193002535944, 0.0 ], [ -89.454176346018372, 43.046120331437209, 0.0 ], [ -89.454150445938197, 43.046090910957787, 0.0 ], [ -89.454105183662165, 43.046037434416846, 0.0 ], [ -89.454058664100685, 43.045948418607324, 0.0 ], [ -89.454043660494378, 43.045916818833128, 0.0 ], [ -89.454047683807801, 43.045907934015986, 0.0 ], [ -89.454030081811567, 43.045886308706322, 0.0 ], [ -89.454020191166066, 43.045859402797795, 0.0 ], [ -89.454019772070907, 43.045848171047815, 0.0 ], [ -89.454015078205245, 43.04581011720834, 0.0 ], [ -89.45401600021458, 43.045811206855724, 0.0 ], [ -89.454008121225783, 43.045806345352005, 0.0 ] ] } },
{ "type": "Feature", "properties": { "id": 44, "hrt": 90, "maxHrt": [ 0 ] }, "geometry": { "type": "LineString", "coordinates": [ [ -89.454008121225783, 43.045806345352005, 0.0 ], [ -89.45405958611002, 43.045659410592968, 0.0 ], [ -89.454063944699556, 43.045622614038933, 0.0 ] ] } },
{ "type": "Feature", "properties": { "id": 45, "hrt": 100, "maxHrt": [ 0 ] }, "geometry": { "type": "LineString", "coordinates": [ [ -89.454063944699556, 43.045622614038933, 0.0 ], [ -89.454097975225608, 43.045504513026103, 0.0 ], [ -89.454092610807706, 43.045470147223938, 0.0 ], [ -89.454096131206953, 43.045398733410643, 0.0 ], [ -89.454109626070732, 43.045371156949876, 0.0 ], [ -89.454133263037107, 43.045374090615915, 0.0 ], [ -89.454137202531498, 43.045372498054348, 0.0 ] ] } },
{ "type": "Feature", "properties": { "id": 46, "hrt": 90, "maxHrt": [ 0 ] }, "geometry": { "type": "LineString", "coordinates": [ [ -89.454137202531498, 43.045372498054348, 0.0 ], [ -89.454136699617322, 43.045369480569285, 0.0 ], [ -89.454131419018452, 43.045353303496555, 0.0 ], [ -89.454115577221842, 43.0453040179071, 0.0 ], [ -89.454148266643415, 43.045209050946461, 0.0 ], [ -89.454153379604236, 43.045181893580846, 0.0 ], [ -89.454147428453126, 43.045170997106986, 0.0 ] ] } },
{ "type": "Feature", "properties": { "id": 47, "hrt": 100, "maxHrt": [ 0 ] }, "geometry": { "type": "LineString", "coordinates": [ [ -89.454147428453126, 43.045170997106986, 0.0 ], [ -89.454117085964384, 43.045121543879475, 0.0 ], [ -89.454108368785285, 43.04511743674702, 0.0 ] ] } },
{ "type": "Feature", "properties": { "id": 48, "hrt": 110, "maxHrt": [ 0 ] }, "geometry": { "type": "LineString", "coordinates": [ [ -89.454108368785285, 43.04511743674702, 0.0 ], [ -89.45409143734129, 43.045110815043671, 0.0 ] ] } },
{ "type": "Feature", "properties": { "id": 49, "hrt": 100, "maxHrt": [ 0 ] }, "geometry": { "type": "LineString", "coordinates": [ [ -89.45409143734129, 43.045110815043671, 0.0 ], [ -89.454034356582085, 43.045104025702265, 0.0 ], [ -89.453970737938548, 43.045139732608916, 0.0 ], [ -89.453942155649429, 43.045153562748808, 0.0 ] ] } },
{ "type": "Feature", "properties": { "id": 50, "hrt": 90, "maxHrt": [ 0 ] }, "geometry": { "type": "LineString", "coordinates": [ [ -89.453942155649429, 43.045153562748808, 0.0 ], [ -89.453793963604937, 43.045215085916603, 0.0 ] ] } },
{ "type": "Feature", "properties": { "id": 51, "hrt": 100, "maxHrt": [ 0 ] }, "geometry": { "type": "LineString", "coordinates": [ [ -89.453793963604937, 43.045215085916603, 0.0 ], [ -89.453684160676048, 43.045248613528479, 0.0 ], [ -89.45361735690939, 43.045301670974268, 0.0 ], [ -89.453593133209807, 43.045305191373515, 0.0 ], [ -89.45352104884428, 43.045336204414497, 0.0 ], [ -89.453483581738013, 43.045350705106635, 0.0 ], [ -89.453463548989916, 43.045353387315579, 0.0 ], [ -89.453441085489956, 43.045362858865936, 0.0 ], [ -89.453412000286662, 43.0453850709088, 0.0 ], [ -89.453372856799803, 43.045394877735276, 0.0 ] ] } },
{ "type": "Feature", "properties": { "id": 52, "hrt": 100, "maxHrt": [ 0 ] }, "geometry": { "type": "LineString", "coordinates": [ [ -89.453372856799803, 43.045394877735276, 0.0 ], [ -89.453080496024256, 43.04551105091042, 0.0 ], [ -89.45299491679495, 43.045550781130494, 0.0 ], [ -89.452957868783827, 43.045567964031576, 0.0 ], [ -89.452899614558191, 43.045586152761018, 0.0 ], [ -89.452823087784083, 43.045632169408314, 0.0 ] ] } },
{ "type": "Feature", "properties": { "id": 53, "hrt": 110, "maxHrt": [ 0 ] }, "geometry": { "type": "LineString", "coordinates": [ [ -89.452823087784083, 43.045632169408314, 0.0 ], [ -89.452180531102513, 43.045889326191393, 0.0 ], [ -89.452134849731337, 43.045910783862993, 0.0 ], [ -89.452120935772413, 43.045916148280895, 0.0 ] ] } },
{ "type": "Feature", "properties": { "id": 54, "hrt": 100, "maxHrt": [ 0 ] }, "geometry": { "type": "LineString", "coordinates": [ [ -89.452120935772413, 43.045916148280895, 0.0 ], [ -89.451930079841816, 43.046006086099744, 0.0 ], [ -89.451809967172281, 43.046046654510114, 0.0 ], [ -89.451779373226444, 43.046064927058588, 0.0 ], [ -89.451716173678065, 43.046103148536119, 0.0 ] ] } },
{ "type": "Feature", "properties": { "id": 55, "hrt": 100, "maxHrt": [ 0 ] }, "geometry": { "type": "LineString", "coordinates": [ [ -89.451716173678065, 43.046103148536119, 0.0 ], [ -89.45172187337208, 43.046206581218755, 0.0 ], [ -89.45172187337208, 43.046206581218755, 0.0 ] ] } },
{ "type": "Feature", "properties": { "id": 56, "hrt": 90, "maxHrt": [ 0 ] }, "geometry": { "type": "LineString", "coordinates": [ [ -89.45172187337208, 43.046206581218755, 0.0 ], [ -89.45172187337208, 43.046206581218755, 0.0 ], [ -89.451760430125731, 43.046232816575042, 0.0 ], [ -89.451771661875711, 43.046241366116071, 0.0 ], [ -89.451884901384815, 43.046349492664369, 0.0 ], [ -89.451926224166456, 43.046391569817267, 0.0 ], [ -89.451955477007814, 43.046418308087738, 0.0 ], [ -89.451991854466698, 43.046434066065324, 0.0 ] ] } },
{ "type": "Feature", "properties": { "id": 57, "hrt": 100, "maxHrt": [ 0 ] }, "geometry": { "type": "LineString", "coordinates": [ [ -89.451991854466698, 43.046434066065324, 0.0 ], [ -89.452058574414323, 43.046428031095182, 0.0 ], [ -89.452152284089507, 43.046446555100744, 0.0 ], [ -89.452209532486791, 43.046470946438383, 0.0 ], [ -89.452251609639688, 43.046498355261093, 0.0 ], [ -89.452315982654497, 43.046528362473715, 0.0 ], [ -89.452320844158209, 43.046529703578194, 0.0 ], [ -89.452340541630193, 43.04651771745695, 0.0 ], [ -89.45239703565619, 43.046499947822653, 0.0 ], [ -89.452465767260534, 43.04648310019769, 0.0 ], [ -89.452449422549748, 43.046466504029809, 0.0 ], [ -89.45247448443962, 43.046462648354442, 0.0 ], [ -89.452617312066209, 43.04643356315114, 0.0 ] ] } },
{ "type": "Feature", "properties": { "id": 58, "hrt": 90, "maxHrt": [ 0 ] }, "geometry": { "type": "LineString", "coordinates": [ [ -89.452617312066209, 43.04643356315114, 0.0 ], [ -89.452666849112759, 43.046412189298572, 0.0 ], [ -89.452835828276605, 43.046369441593434, 0.0 ], [ -89.45290481133803, 43.046337003628942, 0.0 ] ] } },
{ "type": "Feature", "properties": { "id": 59, "hrt": 100, "maxHrt": [ 0 ] }, "geometry": { "type": "LineString", "coordinates": [ [ -89.45290481133803, 43.046337003628942, 0.0 ], [ -89.452998856289341, 43.046304984759608, 0.0 ], [ -89.453045124393725, 43.046276821565634, 0.0 ], [ -89.453125506843193, 43.046251172942547, 0.0 ], [ -89.45318384488786, 43.046236923707497, 0.0 ], [ -89.453353829880058, 43.046224769948196, 0.0 ], [ -89.453436726900421, 43.046224937586253, 0.0 ], [ -89.453465141551476, 43.046239438278391, 0.0 ], [ -89.45360151511278, 43.046333650867759, 0.0 ], [ -89.453615345252672, 43.046339602018868, 0.0 ], [ -89.45361207631052, 43.046332393582311, 0.0 ], [ -89.453654824015658, 43.046300542351034, 0.0 ], [ -89.453754149565839, 43.046278330308162, 0.0 ], [ -89.453802261688878, 43.046256537360449, 0.0 ], [ -89.453815840371689, 43.046243545410846, 0.0 ], [ -89.453888930565569, 43.046211861817625, 0.0 ], [ -89.453951208104627, 43.046196690573254, 0.0 ] ] } },
{ "type": "Feature", "properties": { "id": 60, "hrt": 100, "maxHrt": [ 0 ] }, "geometry": { "type": "LineString", "coordinates": [ [ -89.453951208104627, 43.046196690573254, 0.0 ], [ -89.454133933589347, 43.046197109668398, 0.0 ] ] } },
{ "type": "Feature", "properties": { "id": 61, "hrt": 90, "maxHrt": [ 0 ] }, "geometry": { "type": "LineString", "coordinates": [ [ -89.454133933589347, 43.046197109668398, 0.0 ], [ -89.454197636051902, 43.04621370583628, 0.0 ], [ -89.454242898327934, 43.046205072476219, 0.0 ] ] } },
{ "type": "Feature", "properties": { "id": 62, "hrt": 100, "maxHrt": [ 0 ] }, "geometry": { "type": "LineString", "coordinates": [ [ -89.454242898327934, 43.046205072476219, 0.0 ], [ -89.454301320191632, 43.046232313660866, 0.0 ], [ -89.454326298262473, 43.046257878464921, 0.0 ], [ -89.454358652407933, 43.046330130468512, 0.0 ], [ -89.454365777025458, 43.046339518199837, 0.0 ], [ -89.454372314909776, 43.046343709151323, 0.0 ], [ -89.454381367364974, 43.046346139903179, 0.0 ], [ -89.454381618822069, 43.04635217487332, 0.0 ], [ -89.4544458241988, 43.046356114367711, 0.0 ], [ -89.454503407872195, 43.046349827940489, 0.0 ], [ -89.454543054273245, 43.046349325026306, 0.0 ], [ -89.454620754513755, 43.046407663070973, 0.0 ], [ -89.45468428933826, 43.046545293917717, 0.0 ], [ -89.454688899384891, 43.046552837630387, 0.0 ] ] } },
{ "type": "Feature", "properties": { "id": 63, "hrt": 110, "maxHrt": [ 0 ] }, "geometry": { "type": "LineString", "coordinates": [ [ -89.454688899384891, 43.046552837630387, 0.0 ], [ -89.454732904375476, 43.046619976673163, 0.0 ], [ -89.454768108367944, 43.046669094624562, 0.0 ] ] } },
{ "type": "Feature", "properties": { "id": 64, "hrt": 100, "maxHrt": [ 0 ] }, "geometry": { "type": "LineString", "coordinates": [ [ -89.454768108367944, 43.046669094624562, 0.0 ], [ -89.454813873558152, 43.046750063807238, 0.0 ], [ -89.454813119186895, 43.046753081292302, 0.0 ], [ -89.454815969033902, 43.046751991644918, 0.0 ], [ -89.454821668727917, 43.046761211738186, 0.0 ], [ -89.454873468888266, 43.046832793189537, 0.0 ], [ -89.45490917579491, 43.046894651633444, 0.0 ], [ -89.45491076835647, 43.046895992737916, 0.0 ], [ -89.454918898802347, 43.04691887533302, 0.0 ], [ -89.454918898802347, 43.04691887533302, 0.0 ], [ -89.454918898802347, 43.04691887533302, 0.0 ] ] } },
{ "type": "Feature", "properties": { "id": 65, "hrt": 90, "maxHrt": [ 0 ] }, "geometry": { "type": "LineString", "coordinates": [ [ -89.454918898802347, 43.04691887533302, 0.0 ], [ -89.454957958470189, 43.046987271661244, 0.0 ], [ -89.454994838843248, 43.047074359633093, 0.0 ], [ -89.455030294292811, 43.047144599979966, 0.0 ], [ -89.455041190766664, 43.047175696839979, 0.0 ], [ -89.455048231565158, 43.047198076520907, 0.0 ] ] } },
{ "type": "Feature", "properties": { "id": 66, "hrt": 100, "maxHrt": [ 0 ] }, "geometry": { "type": "LineString", "coordinates": [ [ -89.455048231565158, 43.047198076520907, 0.0 ], [ -89.455069521598702, 43.04724074040702, 0.0 ], [ -89.45507312581698, 43.047267059582339, 0.0 ], [ -89.455080920986731, 43.04728256610283, 0.0 ], [ -89.455103887400867, 43.047321709589696, 0.0 ], [ -89.455166835492165, 43.047489682925182, 0.0 ], [ -89.455164572378365, 43.047510553863575, 0.0 ], [ -89.455126099443731, 43.047594875807441, 0.0 ] ] } },
{ "type": "Feature", "properties": { "id": 67, "hrt": 110, "maxHrt": [ 0 ] }, "geometry": { "type": "LineString", "coordinates": [ [ -89.455126099443731, 43.047594875807441, 0.0 ], [ -89.455045381718151, 43.047731417006794, 0.0 ], [ -89.455027779721917, 43.047745330965725, 0.0 ] ] } },
{ "type": "Feature", "properties": { "id": 68, "hrt": 120, "maxHrt": [ 0 ] }, "geometry": { "type": "LineString", "coordinates": [ [ -89.455027779721917, 43.047745330965725, 0.0 ], [ -89.455004561850686, 43.047788916861158, 0.0 ], [ -89.454995928490632, 43.047808362876047, 0.0 ], [ -89.454974554638056, 43.047885224926269, 0.0 ] ] } },
{ "type": "Feature", "properties": { "id": 69, "hrt": 120, "maxHrt": [ 0 ] }, "geometry": { "type": "LineString", "coordinates": [ [ -89.454974554638056, 43.047885224926269, 0.0 ], [ -89.454870451403195, 43.048032997875609, 0.0 ], [ -89.454874977630794, 43.04813550854891, 0.0 ], [ -89.454857962367768, 43.04820843110474, 0.0 ], [ -89.454873301250203, 43.048316725291095, 0.0 ], [ -89.454884784457263, 43.048323095537349, 0.0 ], [ -89.454972207705225, 43.048369866555916, 0.0 ], [ -89.455015039229394, 43.048392916789076, 0.0 ], [ -89.455027779721917, 43.048399454673394, 0.0 ], [ -89.455094751126637, 43.048460726384093, 0.0 ] ] } },
{ "type": "Feature", "properties": { "id": 70, "hrt": 110, "maxHrt": [ 0 ] }, "geometry": { "type": "LineString", "coordinates": [ [ -89.455094751126637, 43.048460726384093, 0.0 ], [ -89.455139007574303, 43.048559297563003, 0.0 ] ] } },
{ "type": "Feature", "properties": { "id": 71, "hrt": 110, "maxHrt": [ 0 ] }, "geometry": { "type": "LineString", "coordinates": [ [ -89.455139007574303, 43.048559297563003, 0.0 ], [ -89.455167589863436, 43.048791224818146, 0.0 ], [ -89.455162476902615, 43.04880354621551, 0.0 ], [ -89.455116208798231, 43.048848892310566, 0.0 ], [ -89.455114700055702, 43.048852831804965, 0.0 ], [ -89.455098020068789, 43.048846210101615, 0.0 ] ] } },
{ "type": "Feature", "properties": { "id": 72, "hrt": 100, "maxHrt": [ 0 ] }, "geometry": { "type": "LineString", "coordinates": [ [ -89.455098020068789, 43.048846210101615, 0.0 ], [ -89.455035323434586, 43.049052991647855, 0.0 ] ] } },
{ "type": "Feature", "properties": { "id": 73, "hrt": 110, "maxHrt": [ 0 ] }, "geometry": { "type": "LineString", "coordinates": [ [ -89.455035323434586, 43.049052991647855, 0.0 ], [ -89.454904649567311, 43.049205290824794, 0.0 ], [ -89.454880761143841, 43.049232196733321, 0.0 ] ] } },
{ "type": "Feature", "properties": { "id": 74, "hrt": 120, "maxHrt": [ 0 ] }, "geometry": { "type": "LineString", "coordinates": [ [ -89.454880761143841, 43.049232196733321, 0.0 ], [ -89.454830134449921, 43.049312914458909, 0.0 ], [ -89.454812532453687, 43.049371923055809, 0.0 ], [ -89.454804318188778, 43.049400756802022, 0.0 ] ] } },
{ "type": "Feature", "properties": { "id": 75, "hrt": 130, "maxHrt": [ 0 ] }, "geometry": { "type": "LineString", "coordinates": [ [ -89.454804318188778, 43.049400756802022, 0.0 ], [ -89.454791577696255, 43.049513828673064, 0.0 ], [ -89.454783950164554, 43.049567137575949, 0.0 ] ] } },
{ "type": "Feature", "properties": { "id": 76, "hrt": 140, "maxHrt": [ 1 ] }, "geometry": { "type": "LineString", "coordinates": [ [ -89.454783950164554, 43.049567137575949, 0.0 ], [ -89.45479937286602, 43.049706360984253, 0.0 ], [ -89.45479040422984, 43.04980618944861, 0.0 ], [ -89.454789817496632, 43.049831251338482, 0.0 ], [ -89.454769617110486, 43.049934684021117, 0.0 ], [ -89.454768862739215, 43.049941557181555, 0.0 ], [ -89.454773975700022, 43.049953291845711, 0.0 ], [ -89.454779507755987, 43.04996804399493, 0.0 ], [ -89.454784704535825, 43.049999476131063, 0.0 ] ] } },
{ "type": "Feature", "properties": { "id": 77, "hrt": 130, "maxHrt": [ 0 ] }, "geometry": { "type": "LineString", "coordinates": [ [ -89.454784704535825, 43.049999476131063, 0.0 ], [ -89.454788476392167, 43.050055215785804, 0.0 ], [ -89.454794679000358, 43.050085222998433, 0.0 ], [ -89.454791661515287, 43.050151440031883, 0.0 ] ] } },
{ "type": "Feature", "properties": { "id": 78, "hrt": 120, "maxHrt": [ 0 ] }, "geometry": { "type": "LineString", "coordinates": [ [ -89.454791661515287, 43.050151440031883, 0.0 ], [ -89.45480322854138, 43.050265098636139, 0.0 ], [ -89.454812616272704, 43.050307594884188, 0.0 ], [ -89.45481219717756, 43.050336428630402, 0.0 ] ] } },
{ "type": "Feature", "properties": { "id": 79, "hrt": 110, "maxHrt": [ 0 ] }, "geometry": { "type": "LineString", "coordinates": [ [ -89.45481219717756, 43.050336428630402, 0.0 ], [ -89.45482116581374, 43.050624179359311, 0.0 ], [ -89.454831224097305, 43.050768431909404, 0.0 ], [ -89.454830050630889, 43.050848227625664, 0.0 ], [ -89.454826027317466, 43.050901871804662, 0.0 ], [ -89.454837259067432, 43.051018044979806, 0.0 ], [ -89.454801468341756, 43.05116657230041, 0.0 ], [ -89.454794930457453, 43.051181743544781, 0.0 ], [ -89.454782692879107, 43.051250391330093, 0.0 ], [ -89.454781519412691, 43.051357595869064, 0.0 ], [ -89.454790907144016, 43.051443091279346, 0.0 ], [ -89.454800797789531, 43.051499752943407, 0.0 ], [ -89.454810101701824, 43.051626738773386, 0.0 ], [ -89.454804234369746, 43.051694045454219, 0.0 ], [ -89.454796271561918, 43.051750958575376, 0.0 ] ] } },
{ "type": "Feature", "properties": { "id": 80, "hrt": 100, "maxHrt": [ 0 ] }, "geometry": { "type": "LineString", "coordinates": [ [ -89.454796271561918, 43.051750958575376, 0.0 ], [ -89.454795852466773, 43.051756909726485, 0.0 ], [ -89.454796942114157, 43.051758250830964, 0.0 ], [ -89.45479317025783, 43.05179932215551, 0.0 ] ] } },
{ "type": "Feature", "properties": { "id": 81, "hrt": 100, "maxHrt": [ 0 ] }, "geometry": { "type": "LineString", "coordinates": [ [ -89.45479317025783, 43.05179932215551, 0.0 ], [ -89.454779507755987, 43.051993698485347, 0.0 ], [ -89.454774227157117, 43.052006774253982, 0.0 ], [ -89.454783950164554, 43.05206502847961, 0.0 ] ] } },
{ "type": "Feature", "properties": { "id": 82, "hrt": 110, "maxHrt": [ 0 ] }, "geometry": { "type": "LineString", "coordinates": [ [ -89.454783950164554, 43.05206502847961, 0.0 ], [ -89.454787302925752, 43.052113894973921, 0.0 ], [ -89.454823345108508, 43.052299721762729, 0.0 ], [ -89.454816471948078, 43.052359568549925, 0.0 ], [ -89.454811107530176, 43.052397119475224, 0.0 ], [ -89.454809934063761, 43.052456966262419, 0.0 ], [ -89.454795517190661, 43.05247054494523, 0.0 ] ] } },
{ "type": "Feature", "properties": { "id": 83, "hrt": 100, "maxHrt": [ 0 ] }, "geometry": { "type": "LineString", "coordinates": [ [ -89.454795517190661, 43.05247054494523, 0.0 ], [ -89.454791410058206, 43.052486051465721, 0.0 ], [ -89.454803144722362, 43.052517064506709, 0.0 ], [ -89.454805659293243, 43.052533409217496, 0.0 ], [ -89.454844467503989, 43.052661149418739, 0.0 ], [ -89.454849748102859, 43.052743878801039, 0.0 ], [ -89.454835163591696, 43.052781429726338, 0.0 ], [ -89.454816807224191, 43.052797187703916, 0.0 ], [ -89.454815633757775, 43.052810347291576, 0.0 ], [ -89.454810269339873, 43.052895423606707, 0.0 ] ] } },
{ "type": "Feature", "properties": { "id": 84, "hrt": 110, "maxHrt": [ 0 ] }, "geometry": { "type": "LineString", "coordinates": [ [ -89.454810269339873, 43.052895423606707, 0.0 ], [ -89.454805826931306, 43.053039257061648, 0.0 ], [ -89.454804150550714, 43.053093907069005, 0.0 ], [ -89.454797947942509, 43.053152831846873, 0.0 ], [ -89.454805826931306, 43.053170936757283, 0.0 ], [ -89.454812364815623, 43.053211169891533, 0.0 ], [ -89.454803396179443, 43.053263808242178, 0.0 ], [ -89.454794427543263, 43.053302867910013, 0.0 ], [ -89.454794595181326, 43.053371096600173, 0.0 ], [ -89.454784620716794, 43.053435301976911, 0.0 ], [ -89.454780345946276, 43.053441336947053, 0.0 ], [ -89.454781854688818, 43.053427087712002, 0.0 ], [ -89.454782441422026, 43.053427003892978, 0.0 ] ] } },
{ "type": "Feature", "properties": { "id": 85, "hrt": 100, "maxHrt": [ 0 ] }, "geometry": { "type": "LineString", "coordinates": [ [ -89.454782441422026, 43.053427003892978, 0.0 ], [ -89.454806413664514, 43.053460447685822, 0.0 ], [ -89.4548724630599, 43.053488862336884, 0.0 ], [ -89.454913702022509, 43.053495567859258, 0.0 ], [ -89.454973045895528, 43.053506296695055, 0.0 ], [ -89.455076730035245, 43.05350847598983, 0.0 ], [ -89.455113023675111, 43.053510990560717, 0.0 ], [ -89.455184437488398, 43.053517193168915, 0.0 ], [ -89.455323241801551, 43.053519540101746, 0.0 ], [ -89.455466153247173, 43.053525491252856, 0.0 ], [ -89.455519797426163, 43.053529682204342, 0.0 ] ] } },
{ "type": "Feature", "properties": { "id": 86, "hrt": 100, "maxHrt": [ 0 ] }, "geometry": { "type": "LineString", "coordinates": [ [ -89.455519797426163, 43.053529682204342, 0.0 ], [ -89.455629851812148, 43.053539153754691, 0.0 ], [ -89.455642508485624, 43.053534543708061, 0.0 ], [ -89.455684418000473, 43.053531610042022, 0.0 ], [ -89.455683412172121, 43.053545104905801, 0.0 ] ] } },
{ "type": "Feature", "properties": { "id": 87, "hrt": 90, "maxHrt": [ 0 ] }, "geometry": { "type": "LineString", "coordinates": [ [ -89.455683412172121, 43.053545104905801, 0.0 ], [ -89.456106782091055, 43.053520545930105, 0.0 ], [ -89.456256901973219, 43.05352096502525, 0.0 ] ] } },
{ "type": "Feature", "properties": { "id": 88, "hrt": 100, "maxHrt": [ 0 ] }, "geometry": { "type": "LineString", "coordinates": [ [ -89.456256901973219, 43.05352096502525, 0.0 ], [ -89.45630945650484, 43.053517612264066, 0.0 ], [ -89.456389838954308, 43.05351710934989, 0.0 ], [ -89.456430742640791, 43.053518031359211, 0.0 ] ] } },
{ "type": "Feature", "properties": { "id": 89, "hrt": 90, "maxHrt": [ 0 ] }, "geometry": { "type": "LineString", "coordinates": [ [ -89.456430742640791, 43.053518031359211, 0.0 ], [ -89.456515902774953, 43.053509649456245, 0.0 ] ] } },
{ "type": "Feature", "properties": { "id": 90, "hrt": 100, "maxHrt": [ 0 ] }, "geometry": { "type": "LineString", "coordinates": [ [ -89.456515902774953, 43.053509649456245, 0.0 ], [ -89.456822848061663, 43.053490790174564, 0.0 ], [ -89.456889987104447, 43.053492550374187, 0.0 ], [ -89.456892501675327, 43.053492801831275, 0.0 ], [ -89.456895435341366, 43.053492382736131, 0.0 ], [ -89.456976907438232, 43.053491125450684, 0.0 ], [ -89.457081429768238, 43.053493304745459, 0.0 ], [ -89.457185616822144, 43.053485844851814, 0.0 ], [ -89.45737110833484, 43.05347385873057, 0.0 ], [ -89.457584511584415, 43.053477714405936, 0.0 ], [ -89.457669420261496, 43.053474780739897, 0.0 ], [ -89.457730356696075, 43.053474194006689, 0.0 ] ] } },
{ "type": "Feature", "properties": { "id": 91, "hrt": 110, "maxHrt": [ 0 ] }, "geometry": { "type": "LineString", "coordinates": [ [ -89.457730356696075, 43.053474194006689, 0.0 ], [ -89.457849463537258, 43.053481318624215, 0.0 ] ] } },
{ "type": "Feature", "properties": { "id": 92, "hrt": 100, "maxHrt": [ 0 ] }, "geometry": { "type": "LineString", "coordinates": [ [ -89.457849463537258, 43.053481318624215, 0.0 ], [ -89.457911154343108, 43.053486599223085, 0.0 ], [ -89.457940826279611, 43.053489281432029, 0.0 ], [ -89.457983573984748, 43.053493556202547, 0.0 ], [ -89.457992794078024, 43.053493472383515, 0.0 ], [ -89.458038391630168, 43.053496825144705, 0.0 ] ] } },
{ "type": "Feature", "properties": { "id": 93, "hrt": 90, "maxHrt": [ 0 ] }, "geometry": { "type": "LineString", "coordinates": [ [ -89.458038391630168, 43.053496825144705, 0.0 ], [ -89.458214160135412, 43.053503446848048, 0.0 ], [ -89.458375930862715, 43.053511409655869, 0.0 ], [ -89.458497887550905, 43.053508978904006, 0.0 ], [ -89.458503000511712, 43.053508643627886, 0.0 ], [ -89.458543317465001, 43.053496154592466, 0.0 ], [ -89.458624705742821, 43.053505290866703, 0.0 ], [ -89.458792343802187, 43.053511242017812, 0.0 ], [ -89.458815729311468, 43.053511744931988, 0.0 ] ] } },
{ "type": "Feature", "properties": { "id": 94, "hrt": 100, "maxHrt": [ 0 ] }, "geometry": { "type": "LineString", "coordinates": [ [ -89.458815729311468, 43.053511744931988, 0.0 ], [ -89.459033994064768, 43.053520462111074, 0.0 ], [ -89.459197524991694, 43.053508224532742, 0.0 ], [ -89.459266424234087, 43.053500345543952, 0.0 ], [ -89.459403635985694, 43.053499507353656, 0.0 ], [ -89.459455017050885, 43.053503363029016, 0.0 ], [ -89.459655763626984, 43.053515349150267, 0.0 ], [ -89.459782497999868, 43.053568658053145, 0.0 ], [ -89.459812421393465, 43.053595563961672, 0.0 ], [ -89.459939826318589, 43.053678628620091, 0.0 ], [ -89.459983328394998, 43.053713748793527, 0.0 ] ] } },
{ "type": "Feature", "properties": { "id": 95, "hrt": 100, "maxHrt": [ 0 ] }, "geometry": { "type": "LineString", "coordinates": [ [ -89.459983328394998, 43.053713748793527, 0.0 ], [ -89.459999337829672, 43.053962775130728, 0.0 ], [ -89.460012916512468, 43.053978784565395, 0.0 ], [ -89.460062621197082, 43.053991022143734, 0.0 ], [ -89.460106542368635, 43.054023041013068, 0.0 ], [ -89.460103021969388, 43.054052796768609, 0.0 ] ] } },
{ "type": "Feature", "properties": { "id": 96, "hrt": 110, "maxHrt": [ 0 ] }, "geometry": { "type": "LineString", "coordinates": [ [ -89.460103021969388, 43.054052796768609, 0.0 ], [ -89.46010997894885, 43.054127311885999, 0.0 ], [ -89.460145685855494, 43.054158408746012, 0.0 ], [ -89.460159432176368, 43.05415966603146, 0.0 ], [ -89.460250124366482, 43.054166371553833, 0.0 ] ] } }
]
}
