{
"type": "FeatureCollection",
"name": "R_6lxz5yLok9NdUeS_dog_GPX",
"features": [
{ "type": "Feature", "properties": { "name": null, "cmt": null, "desc": null, "src": null, "link1_href": null, "link1_text": null, "link1_type": null, "link2_href": null, "link2_text": null, "link2_type": null, "number": null, "type": null }, "geometry": { "type": "MultiLineString", "coordinates": [ [ [ -89.458674900233746, 43.053449084982276, 316.8 ], [ -89.458668110892177, 43.05343559011817, 316.4 ], [ -89.458670290187001, 43.05342729203403, 316.6 ], [ -89.458679677918553, 43.053401727229357, 316.8 ], [ -89.458684707060456, 43.053319333121181, 316.4 ], [ -89.458693508058786, 43.053235514089465, 316.2 ], [ -89.458692166954279, 43.053189916536212, 315.4 ], [ -89.458708176389337, 43.053170135244727, 314.4 ], [ -89.458719659596682, 43.053164687007666, 313.8 ], [ -89.458724018186331, 43.05309696123004, 313.0 ], [ -89.458716558292508, 43.053031414747238, 313.0 ], [ -89.458707924932241, 43.052930748090148, 313.6 ], [ -89.458682192489505, 43.05279990658164, 314.0 ], [ -89.458678336814046, 43.052721787244081, 313.8 ], [ -89.458671379834414, 43.052686331793666, 314.6 ], [ -89.458684623241425, 43.052624892443419, 315.6 ], [ -89.458684958517551, 43.052596393972635, 315.8 ], [ -89.458682024851441, 43.052568817511201, 315.6 ], [ -89.458697782829404, 43.052405957132578, 312.6 ], [ -89.45869904011488, 43.052392629906535, 312.2 ], [ -89.458707757294178, 43.052344182506204, 309.4 ], [ -89.458690909668803, 43.052322389557958, 308.4 ], [ -89.458686131983995, 43.052286598831415, 309.4 ], [ -89.458694094792008, 43.052194816991687, 308.4 ], [ -89.458690658211708, 43.052065400406718, 306.0 ], [ -89.458684287965298, 43.05205374956131, 306.0 ], [ -89.458669787272811, 43.051995914429426, 306.0 ], [ -89.458658890798688, 43.051987364888191, 306.0 ], [ -89.458657298237085, 43.051979402080178, 306.0 ], [ -89.45866190828383, 43.051954591646791, 306.0 ], [ -89.458677163347602, 43.051858451217413, 307.6 ], [ -89.458664422854781, 43.051838921383023, 307.8 ], [ -89.458550345152617, 43.051742278039455, 308.0 ], [ -89.458470800891519, 43.051642868667841, 310.0 ], [ -89.458447247743607, 43.051565671339631, 312.6 ], [ -89.4584527797997, 43.0515431240201, 313.6 ], [ -89.458449091762304, 43.05152652785182, 313.6 ], [ -89.458422688767314, 43.051463328301907, 313.0 ], [ -89.458409277722239, 43.051414797082543, 312.4 ], [ -89.458388071507215, 43.051361991092563, 311.2 ], [ -89.458384551107883, 43.051365511491895, 309.8 ], [ -89.458343228325248, 43.051306754350662, 309.8 ], [ -89.458282291889191, 43.051115563139319, 311.4 ], [ -89.458213225007057, 43.051013387739658, 311.0 ], [ -89.458089340478182, 43.050997378304601, 309.4 ], [ -89.457998732104897, 43.051007771864533, 308.8 ], [ -89.45797978900373, 43.051023194566369, 308.8 ], [ -89.457852803170681, 43.051132075488567, 309.0 ], [ -89.457638645544648, 43.051234921440482, 310.0 ], [ -89.457603273913264, 43.051244141533971, 310.0 ], [ -89.457373274490237, 43.051244392991066, 310.6 ], [ -89.457173114642501, 43.051241124048829, 312.6 ], [ -89.457133132964373, 43.051241710782051, 313.4 ], [ -89.457124834880233, 43.051239447668195, 313.4 ], [ -89.457051577046514, 43.051233161240816, 314.0 ], [ -89.456937415525317, 43.05124313570559, 316.6 ], [ -89.456919142976403, 43.051248081028461, 317.6 ], [ -89.45686818100512, 43.051225617527962, 318.4 ], [ -89.456833396106958, 43.051224276423454, 318.6 ], [ -89.456719486042857, 43.051221510395408, 316.4 ], [ -89.456549836322665, 43.05122209712863, 313.4 ], [ -89.456426706165075, 43.051224695518613, 312.2 ], [ -89.456200143322349, 43.051205920055509, 313.2 ], [ -89.456188911572099, 43.051207093521953, 314.6 ], [ -89.456172566860914, 43.051209356635809, 315.2 ], [ -89.456169968470931, 43.05118253454566, 315.2 ], [ -89.456179775297642, 43.051031408831477, 315.0 ], [ -89.456199556589127, 43.05095873773098, 313.0 ], [ -89.45619972422719, 43.050927305594087, 312.2 ], [ -89.456271808594465, 43.050842396914959, 310.2 ], [ -89.456257726997137, 43.05083217099309, 309.0 ], [ -89.456257559359074, 43.050809372216463, 308.6 ], [ -89.456258313730359, 43.050809791311622, 308.0 ], [ -89.456254793331027, 43.050750363618135, 308.0 ], [ -89.456250267103314, 43.050571577623487, 305.8 ], [ -89.456238197162747, 43.050449453294277, 304.0 ], [ -89.456229899078608, 43.050406789407134, 303.8 ], [ -89.456233754754066, 43.050292376428843, 303.8 ], [ -89.45622562430799, 43.050147201865911, 304.2 ], [ -89.456220511347055, 43.050019042566419, 304.6 ], [ -89.456190336495638, 43.049969673156738, 304.0 ], [ -89.456158149987459, 43.049955004826188, 303.8 ], [ -89.455918427556753, 43.049916112795472, 302.2 ], [ -89.455851204693317, 43.049909826368093, 302.0 ], [ -89.455797141417861, 43.049905467778444, 302.6 ], [ -89.455621624365449, 43.049897002056241, 302.4 ], [ -89.45542330853641, 43.049885099753737, 302.0 ], [ -89.455212419852614, 43.049874790012836, 304.2 ], [ -89.455117033794522, 43.04986959323287, 304.4 ], [ -89.455100018531084, 43.049870766699314, 304.2 ], [ -89.455022737383842, 43.049877639859915, 303.0 ], [ -89.455015026032925, 43.049873197451234, 302.2 ], [ -89.455003375187516, 43.049870431423187, 302.0 ], [ -89.454882675781846, 43.049858780577779, 301.4 ], [ -89.454792067408562, 43.049804968759418, 301.4 ], [ -89.454759294167161, 43.049671864137053, 301.4 ], [ -89.454755270853639, 43.049592487514019, 301.2 ], [ -89.454774800688028, 43.049564827233553, 301.0 ], [ -89.454787038266659, 43.049561139196157, 300.8 ], [ -89.45479785092175, 43.049563067033887, 300.4 ], [ -89.454819140955806, 43.049506992101669, 300.2 ], [ -89.454799946397543, 43.049418814480305, 302.0 ], [ -89.454793324694037, 43.049266012385488, 301.2 ], [ -89.454854344949126, 43.04917917586863, 299.4 ], [ -89.45491855032742, 43.049114467576146, 298.8 ], [ -89.454934056848288, 43.049105498939753, 298.8 ], [ -89.454951407387853, 43.049085130915046, 298.8 ], [ -89.454974373802543, 43.049072306603193, 298.8 ], [ -89.45500161498785, 43.049054285511374, 299.0 ], [ -89.455003878101707, 43.04904967546463, 299.0 ], [ -89.455018294975162, 43.049025787040591, 300.0 ], [ -89.455106137320399, 43.04899150505662, 300.0 ], [ -89.455182580277324, 43.048933837562799, 298.8 ], [ -89.455176126211882, 43.048904249444604, 297.2 ], [ -89.455197332426906, 43.048847168684006, 298.6 ], [ -89.455184508115053, 43.048725379630923, 299.4 ], [ -89.455184172838926, 43.048687241971493, 299.6 ], [ -89.455189956352115, 43.04866754449904, 299.2 ], [ -89.455172186717391, 43.048644158989191, 298.4 ], [ -89.455082835629582, 43.048466295003891, 299.6 ], [ -89.454996502026916, 43.048378201201558, 301.0 ], [ -89.454916538670659, 43.048313157632947, 301.8 ], [ -89.454908492043614, 43.04830108769238, 302.0 ], [ -89.454833725467324, 43.048265296965837, 302.4 ], [ -89.454806232824922, 43.048240402713418, 302.8 ], [ -89.454709338024259, 43.048170916736126, 303.0 ], [ -89.454616969451308, 43.048085002228618, 303.0 ], [ -89.454620908945799, 43.04807486012578, 303.0 ], [ -89.454596098512411, 43.048051809892058, 302.0 ], [ -89.454515380784869, 43.047991627827287, 302.2 ], [ -89.454436674714088, 43.047843351960182, 305.2 ], [ -89.454437680542469, 43.047790713608265, 305.2 ], [ -89.454437931999564, 43.047776967287064, 303.8 ], [ -89.454427035525441, 43.047767160460353, 304.0 ], [ -89.454419072717428, 43.04773572832346, 304.0 ], [ -89.454418066889048, 43.047597175464034, 300.6 ], [ -89.454409936442971, 43.047456024214625, 300.2 ], [ -89.454385796561837, 43.047389220446348, 299.6 ], [ -89.454360902309418, 43.047329457476735, 299.4 ], [ -89.454362327232957, 43.047326188534498, 299.6 ], [ -89.454361656680703, 43.04732333868742, 299.6 ], [ -89.454358723014593, 43.047312023118138, 299.6 ], [ -89.454361572861671, 43.047295929864049, 299.6 ], [ -89.45436442270875, 43.047257540747523, 299.6 ], [ -89.454341288655996, 43.047181768342853, 298.6 ], [ -89.454344641417265, 43.047169111669064, 298.4 ], [ -89.454356292262673, 43.047153269872069, 299.2 ], [ -89.454365847632289, 43.047155868262053, 299.4 ], [ -89.454370206221938, 43.047142792493105, 299.8 ], [ -89.454363165423274, 43.047056961804628, 299.4 ], [ -89.454348413273692, 43.047008765861392, 299.4 ], [ -89.454360734671354, 43.046988733112812, 299.2 ], [ -89.454361656680703, 43.046995606273413, 299.8 ], [ -89.454366434365511, 43.046979177743196, 300.0 ], [ -89.454365847632289, 43.046923857182264, 300.2 ], [ -89.454364674165845, 43.046884713694453, 300.2 ], [ -89.45436735637486, 43.046885384246707, 300.2 ], [ -89.454370206221938, 43.046866692602634, 299.8 ], [ -89.454370122402906, 43.046817574650049, 299.6 ], [ -89.45440256036818, 43.046729313209653, 299.2 ], [ -89.454417480155826, 43.046610709279776, 299.0 ], [ -89.454412451013923, 43.04652295075357, 299.2 ], [ -89.454420916736126, 43.046428738161922, 298.0 ], [ -89.454424018040299, 43.046408034861088, 297.8 ], [ -89.45443038828671, 43.046383811160922, 297.6 ], [ -89.454424772411585, 43.046381045132875, 297.4 ], [ -89.454411445185542, 43.046374255791306, 297.4 ], [ -89.454397615045309, 43.046325221657753, 297.2 ], [ -89.454376911744475, 43.046299237757921, 297.8 ], [ -89.454288650304079, 43.046201588585973, 298.8 ], [ -89.454223271459341, 43.046131348237395, 299.2 ], [ -89.454222768545151, 43.046129923313856, 299.2 ], [ -89.454220002517104, 43.046129755675793, 299.0 ], [ -89.45418412797153, 43.046103855594993, 298.8 ], [ -89.454140206798911, 43.045995896682143, 297.4 ], [ -89.454121012240648, 43.045973181724548, 297.2 ], [ -89.454119084402919, 43.045964548364282, 297.8 ], [ -89.454106595367193, 43.045955998823047, 298.2 ], [ -89.454087987542152, 43.045892044901848, 298.6 ], [ -89.454086814075708, 43.04588483646512, 298.6 ], [ -89.454084718599916, 43.045871676877141, 296.8 ], [ -89.454080443829298, 43.045867318287492, 296.2 ], [ -89.454076588153839, 43.045862456783652, 296.4 ], [ -89.454060075804591, 43.045805962756276, 297.2 ], [ -89.454079940915108, 43.04574703797698, 298.0 ], [ -89.454082539305091, 43.045747540891171, 298.4 ], [ -89.454082120209932, 43.045717617496848, 298.0 ], [ -89.454116150736809, 43.045607898384333, 294.0 ], [ -89.454131992533803, 43.045502621680498, 294.0 ], [ -89.454160155728459, 43.045423328876495, 294.4 ], [ -89.454163173213601, 43.045424502342939, 294.4 ], [ -89.454160239547491, 43.045424083247781, 294.8 ], [ -89.454158646985888, 43.045424167066813, 295.0 ], [ -89.454166777431965, 43.045414863154292, 295.2 ], [ -89.454166777431965, 43.045312184840441, 295.0 ], [ -89.454179015010595, 43.045244039967656, 296.0 ], [ -89.454143978655338, 43.04517287760973, 297.4 ], [ -89.454083628952503, 43.045136583968997, 299.4 ], [ -89.45407566614449, 43.045131051912904, 300.4 ], [ -89.454036522656679, 43.045118814334273, 300.6 ], [ -89.453995786607265, 43.045128788799047, 300.8 ], [ -89.453966282308102, 43.045143121853471, 301.0 ], [ -89.45390953682363, 43.045169189572334, 300.8 ], [ -89.453832926228642, 43.045188384130597, 300.8 ], [ -89.453802919015288, 43.045203387737274, 300.6 ], [ -89.453693032264709, 43.045268934220076, 299.0 ], [ -89.453590186312795, 43.045321321114898, 296.4 ], [ -89.453342584893107, 43.045409163460135, 294.2 ], [ -89.453198248520494, 43.04546314291656, 294.6 ], [ -89.453026922419667, 43.045508321374655, 297.4 ], [ -89.452902032062411, 43.045574203133583, 296.6 ], [ -89.452752498909831, 43.045639833435416, 296.2 ], [ -89.4525848608464, 43.045713175088167, 298.0 ], [ -89.452452762052417, 43.045773440971971, 295.6 ], [ -89.452267186716199, 43.045853823423386, 294.6 ], [ -89.452095860615373, 43.045915681868792, 294.4 ], [ -89.452060153707862, 43.045929344370961, 294.4 ], [ -89.452021764591336, 43.04593906737864, 294.2 ], [ -89.451989997178316, 43.045957004651427, 294.2 ], [ -89.451949093490839, 43.045978713780642, 294.0 ], [ -89.451886061578989, 43.046005452051759, 294.0 ], [ -89.451735019683838, 43.046093126758933, 295.2 ], [ -89.451717333868146, 43.046163031831384, 296.0 ], [ -89.451717669144273, 43.04616286419332, 296.4 ], [ -89.451721189543605, 43.046165546402335, 296.6 ], [ -89.451753459870815, 43.04619169794023, 295.6 ], [ -89.451751448214054, 43.046187674626708, 295.4 ], [ -89.451799979433417, 43.046232350170612, 295.6 ], [ -89.451880529522896, 43.046344667673111, 296.2 ], [ -89.45188270881772, 43.046357575803995, 296.4 ], [ -89.451883211731911, 43.04636562243104, 296.6 ], [ -89.45188706740737, 43.046365706250072, 296.8 ], [ -89.451906261965632, 43.046379201114178, 297.4 ], [ -89.451918415725231, 43.04638808593154, 297.6 ], [ -89.452030146494508, 43.046425553038716, 298.2 ], [ -89.452143805101514, 43.046433012932539, 298.2 ], [ -89.452153360471129, 43.046436533331871, 298.2 ], [ -89.452226785942912, 43.046483807265759, 297.8 ], [ -89.452277245, 43.046526974067092, 298.2 ], [ -89.45240649394691, 43.046519765630364, 298.2 ], [ -89.452420407906175, 43.046518508344889, 298.2 ], [ -89.452431388199329, 43.046511216089129, 297.4 ], [ -89.452445134520531, 43.046504091471434, 293.4 ], [ -89.452535156160593, 43.046488668769598, 293.0 ], [ -89.452631799504161, 43.046459415927529, 291.6 ], [ -89.452707571908832, 43.046411890536547, 290.0 ], [ -89.45287118665874, 43.046361180022359, 292.0 ], [ -89.452988365665078, 43.046326143667102, 293.0 ], [ -89.453165307641029, 43.046278869733214, 292.4 ], [ -89.453291790559888, 43.046255316585302, 292.0 ], [ -89.45338374003768, 43.046265123412013, 291.4 ], [ -89.453504607081413, 43.046295382082462, 292.4 ], [ -89.453626563772559, 43.046342823654413, 294.4 ], [ -89.45363393984735, 43.046339806169271, 294.6 ], [ -89.453646512702107, 43.04633385501802, 294.8 ], [ -89.453658079728484, 43.046320443972945, 295.2 ], [ -89.453666377812624, 43.046313906088471, 295.4 ], [ -89.453689679503441, 43.046299908310175, 296.0 ], [ -89.453701917082071, 43.046296639367938, 296.4 ], [ -89.453714657574892, 43.046287838369608, 296.6 ], [ -89.453755728900433, 43.046284317970276, 296.2 ], [ -89.453814905136824, 43.046261854469776, 295.2 ], [ -89.453862933441997, 43.046253975480795, 294.8 ], [ -89.453916745260358, 43.046240899711847, 294.4 ], [ -89.454092681407928, 43.046240145340562, 294.8 ], [ -89.454206004738808, 43.046248275786638, 298.0 ], [ -89.454311449080706, 43.046273337677121, 299.2 ], [ -89.454401219263673, 43.046360006555915, 297.6 ], [ -89.454448157921433, 43.046371154487133, 296.0 ], [ -89.454508339986205, 43.046375932171941, 295.4 ], [ -89.454587968066335, 43.046388924121857, 296.6 ], [ -89.454665584489703, 43.046484813094139, 297.8 ], [ -89.454703889787197, 43.046604674309492, 299.4 ], [ -89.454721491783857, 43.046663515269756, 299.2 ], [ -89.454764155671, 43.046696707606316, 299.4 ], [ -89.45481201633811, 43.046764181926847, 299.4 ], [ -89.454816542565823, 43.046767115592957, 299.4 ], [ -89.454878903925419, 43.046854874119163, 300.0 ], [ -89.454905055463314, 43.046894269064069, 299.0 ], [ -89.454926010221243, 43.046922264620662, 299.0 ], [ -89.454962303861976, 43.046985631808639, 298.6 ], [ -89.455048637464643, 43.047149917110801, 299.8 ], [ -89.455118961632252, 43.047285117208958, 301.2 ], [ -89.455127762630582, 43.047298192977905, 300.4 ], [ -89.455167911946774, 43.047407744452357, 300.0 ], [ -89.45520780980587, 43.04749483242631, 300.0 ], [ -89.455212922766805, 43.047496424987912, 300.0 ], [ -89.455212419852614, 43.047501873224974, 300.0 ], [ -89.45517604239285, 43.047563564032316, 300.2 ], [ -89.455145364627242, 43.047658866271377, 300.4 ], [ -89.455092726275325, 43.047718293964863, 300.2 ], [ -89.45505928248167, 43.047746457159519, 299.8 ], [ -89.455053247511387, 43.047795910388231, 299.4 ], [ -89.455040507018566, 43.04781150072813, 299.2 ], [ -89.454985940828919, 43.047898588702083, 299.4 ], [ -89.454888962209225, 43.04798249155283, 301.6 ], [ -89.454875215888023, 43.048116602003574, 303.0 ], [ -89.454852417111397, 43.048277786001563, 304.0 ], [ -89.454864067956805, 43.048344757407904, 303.4 ], [ -89.454967165365815, 43.048401419073343, 303.0 ], [ -89.454989042133093, 43.048408878967166, 302.8 ], [ -89.455036567524076, 43.048448860645294, 302.2 ], [ -89.455040423199534, 43.048460511490703, 302.2 ], [ -89.455059450119734, 43.048501079902053, 302.0 ], [ -89.455128014087677, 43.048654887825251, 304.0 ], [ -89.455142933875322, 43.048808444291353, 304.2 ], [ -89.45511938072741, 43.048829818144441, 304.2 ], [ -89.455120554193854, 43.04883174598217, 304.0 ], [ -89.455106556415558, 43.048824789002538, 304.0 ], [ -89.45510764606297, 43.048822609707713, 304.0 ], [ -89.4551389105618, 43.048821603879333, 304.4 ], [ -89.455135725438595, 43.048824202269316, 304.4 ], [ -89.455124326050282, 43.048843983560801, 304.4 ], [ -89.455111166462302, 43.048899807035923, 304.8 ], [ -89.45502650924027, 43.049010699614882, 305.0 ], [ -89.454949731007218, 43.049139864742756, 304.2 ], [ -89.454844454303384, 43.049326445907354, 302.4 ], [ -89.454804724082351, 43.049564491957426, 302.8 ], [ -89.454797767102718, 43.0497039668262, 303.6 ], [ -89.454784020781517, 43.049910999834538, 303.6 ], [ -89.454776979982853, 43.049968164414167, 302.8 ], [ -89.454787792637944, 43.049988197162747, 303.2 ], [ -89.454787373542786, 43.050081906840205, 303.4 ], [ -89.45478267967701, 43.050109734758735, 303.2 ], [ -89.454774465411901, 43.050166815519333, 302.6 ], [ -89.454792989417911, 43.050319198518991, 302.2 ], [ -89.454796425998211, 43.050486836582422, 304.4 ], [ -89.454805059358478, 43.050602674484253, 305.0 ], [ -89.454804891720414, 43.050693366676569, 301.6 ], [ -89.454807071015239, 43.050717590376735, 301.2 ], [ -89.454807238653302, 43.050740975886583, 300.8 ], [ -89.454804472625256, 43.050794452428818, 299.8 ], [ -89.454786535352468, 43.050958486273885, 300.0 ], [ -89.454792905598879, 43.051126878708601, 302.6 ], [ -89.454802041873336, 43.051176751032472, 301.4 ], [ -89.454802880063653, 43.051174320280552, 301.2 ], [ -89.454804304987192, 43.051171721890569, 301.2 ], [ -89.454808412119746, 43.051169626414776, 301.0 ], [ -89.45481444709003, 43.051172057166696, 300.8 ], [ -89.454802880063653, 43.051207847893238, 300.8 ], [ -89.454786870628595, 43.051333241164684, 302.2 ], [ -89.454785110428929, 43.051413372159004, 303.2 ], [ -89.454796509817243, 43.051506411284208, 304.6 ], [ -89.454795923084021, 43.051576483994722, 305.6 ], [ -89.454791229218245, 43.05164479650557, 304.4 ], [ -89.454790893942118, 43.051646053791046, 303.6 ], [ -89.454787708818913, 43.051681173965335, 303.2 ], [ -89.454776141792536, 43.051708415150642, 303.0 ], [ -89.454759629443288, 43.051720233634114, 303.0 ], [ -89.454768765717745, 43.051721071824431, 303.2 ], [ -89.454772705212235, 43.051724173128605, 303.2 ], [ -89.454773459583521, 43.051724759861827, 302.4 ], [ -89.454777063801885, 43.051790138706565, 302.4 ], [ -89.454769436269999, 43.051837161183357, 302.8 ], [ -89.454788882285357, 43.051971942186356, 304.2 ], [ -89.454786283895373, 43.05209431797266, 304.4 ], [ -89.454782009124756, 43.052239157259464, 304.0 ], [ -89.454784775152802, 43.052337225526571, 305.8 ], [ -89.454769603908062, 43.052389528602362, 306.6 ], [ -89.454761473461986, 43.052418446168303, 307.2 ], [ -89.454771867021918, 43.052451722323895, 307.2 ], [ -89.454762563109398, 43.052469911053777, 306.2 ], [ -89.454765664413571, 43.052479047328234, 305.8 ], [ -89.454774297773838, 43.052535792812705, 305.4 ], [ -89.454786702990532, 43.052683230489492, 309.2 ], [ -89.454793157055974, 43.052763696759939, 310.2 ], [ -89.454786954447627, 43.052778448909521, 310.4 ], [ -89.454767424613237, 43.052864447236061, 311.2 ], [ -89.454781003296375, 43.053015572950244, 312.8 ], [ -89.454777901992202, 43.053148090839386, 312.2 ], [ -89.454778740182519, 43.053166950121522, 312.0 ], [ -89.454802544787526, 43.053214224055409, 312.2 ], [ -89.454804053530097, 43.053218247368932, 312.6 ], [ -89.454825595021248, 43.053253367543221, 312.8 ], [ -89.454823331907392, 43.053260575979948, 312.6 ], [ -89.454790391027927, 43.053330648690462, 312.8 ], [ -89.454786535352468, 43.053353112190962, 313.0 ], [ -89.454783601686358, 43.053367026150227, 313.0 ], [ -89.454783936962485, 43.053378090262413, 313.0 ], [ -89.454782931134105, 43.053448833525181, 312.2 ], [ -89.454772956669331, 43.053452521562576, 311.6 ], [ -89.454798018559813, 43.053459981456399, 311.2 ], [ -89.454801371321082, 43.053459310904145, 311.0 ], [ -89.454801790416241, 43.053451431915164, 311.0 ], [ -89.454803299158812, 43.053445145487785, 311.0 ], [ -89.454808915033937, 43.053447073325515, 311.0 ], [ -89.454802209511399, 43.053456461057067, 311.0 ], [ -89.454812183976173, 43.053494766354561, 311.2 ], [ -89.454936319962144, 43.053503232076764, 310.8 ], [ -89.454990969970822, 43.053503232076764, 309.8 ], [ -89.454995999112725, 43.053508261218667, 309.2 ], [ -89.454999100416899, 43.053507674485445, 309.0 ], [ -89.455065233632922, 43.053510691970587, 308.6 ], [ -89.455217700451612, 43.05352401919663, 309.6 ], [ -89.455321803689003, 43.053525947034359, 309.8 ], [ -89.455356001853943, 43.053523935377598, 309.6 ], [ -89.455517856404185, 43.053534328937531, 310.8 ], [ -89.455535290762782, 43.053543465211987, 311.2 ], [ -89.455548785626888, 43.053540866822004, 311.4 ], [ -89.455560017377138, 43.053539944812655, 311.4 ], [ -89.455560520291328, 43.053545309230685, 310.8 ], [ -89.455636711791158, 43.053536927327514, 311.4 ], [ -89.455653307959437, 43.053525276482105, 312.8 ], [ -89.455762943252921, 43.053518990054727, 312.8 ], [ -89.45591633208096, 43.053519995883107, 309.6 ], [ -89.456169884651899, 43.053521756082773, 308.4 ], [ -89.45628329180181, 43.053536089137197, 308.2 ], [ -89.456301815807819, 43.053534077480435, 307.4 ], [ -89.456331990659237, 43.05353332310915, 307.4 ], [ -89.456400219351053, 43.053542375564575, 307.4 ], [ -89.456400973722339, 43.053539358079433, 307.6 ], [ -89.456423101946712, 43.053535250946879, 308.0 ], [ -89.456465598195791, 43.053535083308816, 308.0 ], [ -89.456628123298287, 43.053528629243374, 308.2 ], [ -89.456871533766389, 43.053528126329184, 309.8 ], [ -89.4568882137537, 43.053526869043708, 310.6 ], [ -89.45690137334168, 43.053527036681771, 310.8 ], [ -89.456975972279906, 43.053516978397965, 311.2 ], [ -89.457101281732321, 43.053518487140536, 312.6 ], [ -89.45717210881412, 43.053529551252723, 312.6 ], [ -89.457390876486897, 43.053528796881437, 312.4 ], [ -89.457558430731297, 43.053508596494794, 311.6 ], [ -89.45775892585516, 43.053503902629018, 312.8 ], [ -89.457774935290217, 43.053498370572925, 312.8 ], [ -89.457796476781368, 43.053493509069085, 312.8 ], [ -89.457855569198728, 43.053494514897466, 312.8 ], [ -89.457892701029778, 43.05349568836391, 312.8 ], [ -89.457902004942298, 43.053497532382607, 312.8 ], [ -89.457918182015419, 43.053499460220337, 312.8 ], [ -89.457926563918591, 43.053497616201639, 312.8 ], [ -89.457955313846469, 43.053499292582273, 313.0 ], [ -89.458020189777017, 43.053508345037699, 314.0 ], [ -89.458215404301882, 43.053509769961238, 314.0 ], [ -89.458347838371992, 43.053508931770921, 313.6 ], [ -89.458492761477828, 43.053492838516831, 312.6 ], [ -89.458510782569647, 43.053499544039369, 312.2 ], [ -89.45854221470654, 43.053486468270421, 312.0 ], [ -89.458545902743936, 43.05348839610815, 312.2 ], [ -89.458608347922564, 43.053501807153225, 312.4 ], [ -89.458789732307196, 43.053517481312156, 313.0 ] ] ] } }
]
}
