{
"type": "FeatureCollection",
"name": "dog_GPS",
"crs": { "type": "name", "properties": { "name": "urn:ogc:def:crs:EPSG::4979" } },
"features": [
{ "type": "Feature", "properties": { "id": 5 }, "geometry": { "type": "LineString", "coordinates": [ [ -89.331070849281176, 43.110769341973018, 0.0 ], [ -89.331041817328341, 43.1107678139755, 0.0 ], [ -89.330965417452475, 43.110763229982943, 0.0 ], [ -89.330910409541843, 43.110757117992875, 0.0 ], [ -89.330870681606385, 43.110752534000326, 0.0 ], [ -89.330815673695753, 43.110749478005289, 0.0 ], [ -89.330727049839737, 43.11074795000777, 0.0 ], [ -89.330658289951458, 43.110752534000326, 0.0 ], [ -89.33061397802345, 43.110752534000326, 0.0 ], [ -89.330551330125232, 43.110755589995357, 0.0 ], [ -89.330482570236938, 43.110755589995357, 0.0 ], [ -89.330438258308931, 43.110752534000326, 0.0 ], [ -89.330426034328795, 43.110766285977981, 0.0 ], [ -89.330412282351134, 43.110792261935778, 0.0 ], [ -89.330406170361059, 43.110813653901026, 0.0 ], [ -89.330404642363547, 43.110836573863786, 0.0 ], [ -89.330401586368509, 43.11087018980917, 0.0 ], [ -89.330407698358584, 43.110932837707388, 0.0 ], [ -89.330406170361059, 43.110963397657741, 0.0 ], [ -89.330400058370998, 43.111048965518719, 0.0 ], [ -89.330393946380923, 43.111113141414457, 0.0 ], [ -89.330360330435539, 43.11114675735984, 0.0 ], [ -89.330285458557185, 43.111184957297773, 0.0 ], [ -89.33027934656711, 43.111184957297773, 0.0 ], [ -89.33027934656711, 43.111184957297773, 0.0 ] ] } },
{ "type": "Feature", "properties": { "id": 1 }, "geometry": { "type": "LineString", "coordinates": [ [ -89.330432703717747, 43.112008748687408, 0.0 ], [ -89.330355338751474, 43.112071193866001, 0.0 ], [ -89.33035173453311, 43.11208385053979, 0.0 ], [ -89.33034754358151, 43.112197341508725, 0.0 ], [ -89.330347124486366, 43.112293062842966, 0.0 ], [ -89.330348381771842, 43.112386772520395, 0.0 ], [ -89.330346453934098, 43.112401273212889, 0.0 ], [ -89.330344442277351, 43.112503280974487, 0.0 ], [ -89.330380987375179, 43.112559104449616, 0.0 ] ] } },
{ "type": "Feature", "properties": { "id": 2 }, "geometry": { "type": "LineString", "coordinates": [ [ -89.330432703717747, 43.112008748687408, 0.0 ], [ -89.330355338751474, 43.112071193866001, 0.0 ], [ -89.33035173453311, 43.11208385053979, 0.0 ], [ -89.33034754358151, 43.112197341508725, 0.0 ], [ -89.330347124486366, 43.112293062842966, 0.0 ], [ -89.330348381771842, 43.112386772520395, 0.0 ], [ -89.330346453934098, 43.112401273212889, 0.0 ], [ -89.330344442277351, 43.112503280974487, 0.0 ], [ -89.330380987375179, 43.112559104449616, 0.0 ], [ -89.330366989596882, 43.112594392261975, 0.0 ], [ -89.330371348186517, 43.11270084243224, 0.0 ], [ -89.330367324873009, 43.112705955393182, 0.0 ], [ -89.330350561066666, 43.112723054475651, 0.0 ], [ -89.33036883361558, 43.112764796353439, 0.0 ], [ -89.330343687906065, 43.112857751659618, 0.0 ], [ -89.330338239669004, 43.112875186018208, 0.0 ], [ -89.330326672642627, 43.11290041554674, 0.0 ], [ -89.33033170178453, 43.112996472157107, 0.0 ], [ -89.330295324324766, 43.113606842346066, 0.0 ], [ -89.330319380386868, 43.11370080348059, 0.0 ], [ -89.330315440892377, 43.113865843154059, 0.0 ], [ -89.33036933652977, 43.113968940563083, 0.0 ], [ -89.330362379550124, 43.113984447083936, 0.0 ], [ -89.330411162226596, 43.114018226153718, 0.0 ], [ -89.330431278794208, 43.114059968031519, 0.0 ], [ -89.330406635998884, 43.114054100699285, 0.0 ], [ -89.330435385926748, 43.114112187288292, 0.0 ], [ -89.330465896054307, 43.114203801489957, 0.0 ], [ -89.330461034550453, 43.114230958856204, 0.0 ], [ -89.330471092834273, 43.114276724047542, 0.0 ], [ -89.330501602961803, 43.114343443996788, 0.0 ], [ -89.33049833401958, 43.114459533355742, 0.0 ], [ -89.330494645982185, 43.114504795632868, 0.0 ], [ -89.330493891610885, 43.11454586695838, 0.0 ], [ -89.330496741457978, 43.114584172255867, 0.0 ], [ -89.330500345676342, 43.114594817272916, 0.0 ], [ -89.330506045370498, 43.114601606614464, 0.0 ], [ -89.330512080340782, 43.114625997952693, 0.0 ], [ -89.330505039542103, 43.114640247188106, 0.0 ], [ -89.330501938237944, 43.114642845578089, 0.0 ], [ -89.330489868297377, 43.114651059843183, 0.0 ], [ -89.330485090612569, 43.114651059843197, 0.0 ], [ -89.330481737851287, 43.114684252179728, 0.0 ], [ -89.330480061470666, 43.114726329333699, 0.0 ], [ -89.330480480565825, 43.11476815503049, 0.0 ], [ -89.330481905489364, 43.114811908565045, 0.0 ], [ -89.330480983480015, 43.114829594380744, 0.0 ], [ -89.330481821670332, 43.114836132265204, 0.0 ], [ -89.330483833327079, 43.114853231347674, 0.0 ], [ -89.33048366568903, 43.114859182498932, 0.0 ], [ -89.330487605183521, 43.11490100819578, 0.0 ], [ -89.330488694830933, 43.114902516938322, 0.0 ], [ -89.33048852719287, 43.114902265481248, 0.0 ], [ -89.330493723972836, 43.1149026845764, 0.0 ], [ -89.330492969601551, 43.114902516938329, 0.0 ], [ -89.330492969601551, 43.11490243311929, 0.0 ], [ -89.330492969601551, 43.114902265481227, 0.0 ], [ -89.330492801963487, 43.114901678748019, 0.0 ], [ -89.330492382868329, 43.114900924376727, 0.0 ], [ -89.330488946288028, 43.114903690404788, 0.0 ], [ -89.330476541071334, 43.114961106441498, 0.0 ], [ -89.330473355948129, 43.115004776157008, 0.0 ], [ -89.330451143904725, 43.115112818888896, 0.0 ], [ -89.330448377876664, 43.115129415057183, 0.0 ], [ -89.330438403411904, 43.115156320966349, 0.0 ], [ -89.330438822507062, 43.115238882712596, 0.0 ], [ -89.33042842894713, 43.115337621531964, 0.0 ], [ -89.330417448653961, 43.115527639276856, 0.0 ], [ -89.330415604635277, 43.115539709217423, 0.0 ], [ -89.330401020123745, 43.115656720585697, 0.0 ], [ -89.330399762838283, 43.115670969821075, 0.0 ], [ -89.330421639605547, 43.115789489931942, 0.0 ], [ -89.330408396198536, 43.115904908738607, 0.0 ], [ -89.330412503331104, 43.116013705841766, 0.0 ], [ -89.330408815293708, 43.116073720268481, 0.0 ], [ -89.330405797808552, 43.116200119368315, 0.0 ], [ -89.330404456704045, 43.116348227597356, 0.0 ], [ -89.330408396198536, 43.116454426310533, 0.0 ], [ -89.330402277409235, 43.116500023863786, 0.0 ], [ -89.330407138913074, 43.116540089360946, 0.0 ], [ -89.33039473369638, 43.116659196205021, 0.0 ], [ -89.330382915212908, 43.116810405738221, 0.0 ], [ -89.330397332086349, 43.116968991346248, 0.0 ], [ -89.330422729252959, 43.117000339664081, 0.0 ], [ -89.33043940924027, 43.117029676325217, 0.0 ], [ -89.330433290450955, 43.117146268598319, 0.0 ], [ -89.330432452260652, 43.117184406257749, 0.0 ], [ -89.330438738688031, 43.117185663543218, 0.0 ], [ -89.330438319592858, 43.117198152578958, 0.0 ], [ -89.330438068135763, 43.117254646606305, 0.0 ], [ -89.330433122812906, 43.117342824227698, 0.0 ], [ -89.330430021508732, 43.117342656589614, 0.0 ], [ -89.330448545514741, 43.117371490336531, 0.0 ], [ -89.330439828335443, 43.117430498934873, 0.0 ], [ -89.330436056479016, 43.117566285766223, 0.0 ], [ -89.33044066652576, 43.117684889696108, 0.0 ], [ -89.330444438382173, 43.117687068990939, 0.0 ], [ -89.330421891062642, 43.117711460329176, 0.0 ], [ -89.330476289614239, 43.117743227742189, 0.0 ], [ -89.330538818611899, 43.1177802757542, 0.0 ], [ -89.330588523297706, 43.117830483354226, 0.0 ], [ -89.330603526904369, 43.117925366498127, 0.0 ], [ -89.330608639865318, 43.118055369816318, 0.0 ], [ -89.330621799453283, 43.118144469447031, 0.0 ], [ -89.330640072002211, 43.118163328729175, 0.0 ], [ -89.330657003446603, 43.118193922675765, 0.0 ], [ -89.330635461955467, 43.118297103903792, 0.0 ], [ -89.330642335116067, 43.118312023691445, 0.0 ], [ -89.330651471390524, 43.118319567404292, 0.0 ], [ -89.330693213268304, 43.118319651223338, 0.0 ], [ -89.330748617648283, 43.118306910730517, 0.0 ], [ -89.330741241573492, 43.118302133045709, 0.0 ], [ -89.330717604606534, 43.11830732982569, 0.0 ], [ -89.330697320400873, 43.118324764184266, 0.0 ], [ -89.330669157206202, 43.118369020633004, 0.0 ], [ -89.330651219933429, 43.118465915433681, 0.0 ], [ -89.330659937112728, 43.11854730371347, 0.0 ], [ -89.330650968476334, 43.118691891543186, 0.0 ], [ -89.330655913799191, 43.118713516853362, 0.0 ], [ -89.330652393399873, 43.118743021152532, 0.0 ], [ -89.330664547159472, 43.118785685039668, 0.0 ], [ -89.330671923234263, 43.118815440795927, 0.0 ], [ -89.3306744378052, 43.11883329424969, 0.0 ], [ -89.330679466947103, 43.118896996713801, 0.0 ], [ -89.330684076993862, 43.118906552083423, 0.0 ], [ -89.330682987346449, 43.11891669418624, 0.0 ], [ -89.33067049831071, 43.118962124101436, 0.0 ], [ -89.330681478603879, 43.119090451038986, 0.0 ], [ -89.330678209661642, 43.119201846532135, 0.0 ], [ -89.330652896314064, 43.11934844601862, 0.0 ], [ -89.330643508582511, 43.119478952250979, 0.0 ], [ -89.330641832201877, 43.119502505398913, 0.0 ], [ -89.330636803059974, 43.119594706333757, 0.0 ], [ -89.330626744776154, 43.119607782102719, 0.0 ], [ -89.330591792239943, 43.119613984711073, 0.0 ], [ -89.330589110030928, 43.119619349129096, 0.0 ], [ -89.330628169699708, 43.119638543687387, 0.0 ], [ -89.330619871615568, 43.119703587255977, 0.0 ], [ -89.330602940171147, 43.119833339117072, 0.0 ], [ -89.330593636258641, 43.119855634979523, 0.0 ], [ -89.33060972951273, 43.119887318573483, 0.0 ], [ -89.33060922659854, 43.119893940276995, 0.0 ], [ -89.330612495540763, 43.119933502859972, 0.0 ], [ -89.330625655128756, 43.11999628331472, 0.0 ], [ -89.330609980969825, 43.120055878646284, 0.0 ], [ -89.330706624313393, 43.120075492299705, 0.0 ], [ -89.330799495800534, 43.1200764981281, 0.0 ], [ -89.330968894063631, 43.120077420137498, 0.0 ], [ -89.33107341639618, 43.120086053497786, 0.0 ], [ -89.331192187964106, 43.120081275812979, 0.0 ], [ -89.331217585130716, 43.120084125660071, 0.0 ], [ -89.331225212662616, 43.120085550583617, 0.0 ], [ -89.331248262896338, 43.120087478421333, 0.0 ], [ -89.331322694196487, 43.12010214675189, 0.0 ], [ -89.331481195985475, 43.120119748748579, 0.0 ], [ -89.331716392188454, 43.12011480342575, 0.0 ], [ -89.331732485442558, 43.120107427350966, 0.0 ], [ -89.331734664737382, 43.120100638009419, 0.0 ], [ -89.331800378858247, 43.120111199207415, 0.0 ], [ -89.33187204413035, 43.120127627737652, 0.0 ], [ -89.331926610320011, 43.120148498676556, 0.0 ], [ -89.332053763791109, 43.120145145915274, 0.0 ], [ -89.332255767657543, 43.120127627737695, 0.0 ], [ -89.332290301098624, 43.120114300511645, 0.0 ], [ -89.332307735457221, 43.120122933871926, 0.0 ], [ -89.332309244199791, 43.120126370452226, 0.0 ], [ -89.332337658851543, 43.120131315775112, 0.0 ], [ -89.332352578639188, 43.120131986327358, 0.0 ], [ -89.33250999078075, 43.120136764012216, 0.0 ], [ -89.332680227234164, 43.120141457878013, 0.0 ], [ -89.332839902489567, 43.120141709335137, 0.0 ], [ -89.333097059278884, 43.120140452049696, 0.0 ], [ -89.333193367346325, 43.120138608031013, 0.0 ], [ -89.33329327963213, 43.120145648829698, 0.0 ], [ -89.333464689551988, 43.120161490626721, 0.0 ], [ -89.333561165257493, 43.120162580274155, 0.0 ], [ -89.3336851336054, 43.120155539475512, 0.0 ], [ -89.333694605155969, 43.120151013247778, 0.0 ], [ -89.333707010372663, 43.12014958832426, 0.0 ], [ -89.333800552412072, 43.120151180885891, 0.0 ], [ -89.333858303724924, 43.120138272755014, 0.0 ], [ -89.333901302888194, 43.12012243095802, 0.0 ], [ -89.333913456647792, 43.120117904730293, 0.0 ], [ -89.333972297608042, 43.120138440393085, 0.0 ], [ -89.334117136894861, 43.120153276361712, 0.0 ], [ -89.334294162689829, 43.120169034339703, 0.0 ], [ -89.334429865702191, 43.120155371837562, 0.0 ], [ -89.334446797146583, 43.12014606792507, 0.0 ], [ -89.334501866250434, 43.12015604238983, 0.0 ], [ -89.334675706922212, 43.120167441778179, 0.0 ], [ -89.334862288086811, 43.120183870308438, 0.0 ], [ -89.334957841782966, 43.120193258039983, 0.0 ], [ -89.335156744345227, 43.120201388486109, 0.0 ], [ -89.335394287481108, 43.120213290788655, 0.0 ], [ -89.335563769563237, 43.120220918320555, 0.0 ], [ -89.335664939134517, 43.120215302445452, 0.0 ], [ -89.335751608013297, 43.120203400142962, 0.0 ], [ -89.335764432325163, 43.120204657428452, 0.0 ], [ -89.335788320749202, 43.120206249990041, 0.0 ], [ -89.335816400124813, 43.120216392092885, 0.0 ], [ -89.335866104810634, 43.120215637721628, 0.0 ], [ -89.336054697631994, 43.120232401528007, 0.0 ], [ -89.336275141685391, 43.120258385427867, 0.0 ], [ -89.336436074226285, 43.12028973374575, 0.0 ], [ -89.336439343168536, 43.120288392641243, 0.0 ], [ -89.336498603223959, 43.12030565936179, 0.0 ], [ -89.336701529099741, 43.12034949671542, 0.0 ], [ -89.336881069465662, 43.120409092046977, 0.0 ], [ -89.337001768871332, 43.120454605781205, 0.0 ], [ -89.337130011989871, 43.120487881936832, 0.0 ], [ -89.337197486310401, 43.120489725955551, 0.0 ], [ -89.337209220974842, 43.120476901643698, 0.0 ], [ -89.337252471595207, 43.120445804782939, 0.0 ], [ -89.337379038333083, 43.120390232764933, 0.0 ], [ -89.337459504603544, 43.12033675622272, 0.0 ], [ -89.337571822106042, 43.120303647705221, 0.0 ], [ -89.337642481549778, 43.120297445096881, 0.0 ], [ -89.337719092144752, 43.120257714875848, 0.0 ], [ -89.337748847901025, 43.120223013796725, 0.0 ], [ -89.337764438240924, 43.120202813410089, 0.0 ], [ -89.33777105994443, 43.120177080967338, 0.0 ], [ -89.337773574515367, 43.120142296069183, 0.0 ], [ -89.337770724668289, 43.120050933324642, 0.0 ], [ -89.337776005267287, 43.120031235852146, 0.0 ], [ -89.337792349978486, 43.119915817045488, 0.0 ], [ -89.337786398827234, 43.119899639972367, 0.0 ], [ -89.3377691321067, 43.119852701314613, 0.0 ], [ -89.337754547595168, 43.119843397402079, 0.0 ], [ -89.337789332493344, 43.119848426544017, 0.0 ], [ -89.33780819177548, 43.119819425159029, 0.0 ], [ -89.337814394383813, 43.11974599968724, 0.0 ], [ -89.337814729659954, 43.119721775987095, 0.0 ], [ -89.337819674982811, 43.119710795693948, 0.0 ], [ -89.337815316393176, 43.119695875906267, 0.0 ], [ -89.337805006652275, 43.119624797367401, 0.0 ], [ -89.337812047450939, 43.119480209537677, 0.0 ], [ -89.337815148755098, 43.119354900085263, 0.0 ], [ -89.337828308343092, 43.119170498215475, 0.0 ], [ -89.337830319999853, 43.119143089392132, 0.0 ], [ -89.337836606427217, 43.119135461860232, 0.0 ], [ -89.337843563406864, 43.119129343070959, 0.0 ], [ -89.337846664711023, 43.119121464081964, 0.0 ], [ -89.337840545921708, 43.119061784931368, 0.0 ] ] } },
{ "type": "Feature", "properties": { "id": 3 }, "geometry": { "type": "LineString", "coordinates": [ [ -89.330432703717747, 43.112008748687408, 0.0 ], [ -89.330355338751474, 43.112071193866001, 0.0 ], [ -89.33035173453311, 43.11208385053979, 0.0 ], [ -89.33034754358151, 43.112197341508725, 0.0 ], [ -89.330347124486366, 43.112293062842966, 0.0 ], [ -89.330348381771842, 43.112386772520395, 0.0 ], [ -89.330346453934098, 43.112401273212889, 0.0 ], [ -89.330344442277351, 43.112503280974487, 0.0 ], [ -89.330380987375179, 43.112559104449616, 0.0 ], [ -89.330366989596882, 43.112594392261975, 0.0 ], [ -89.330371348186517, 43.11270084243224, 0.0 ], [ -89.330367324873009, 43.112705955393182, 0.0 ], [ -89.330350561066666, 43.112723054475651, 0.0 ], [ -89.33036883361558, 43.112764796353439, 0.0 ], [ -89.330343687906065, 43.112857751659618, 0.0 ], [ -89.330338239669004, 43.112875186018208, 0.0 ], [ -89.330326672642627, 43.11290041554674, 0.0 ], [ -89.33033170178453, 43.112996472157107, 0.0 ], [ -89.330295324324766, 43.113606842346066, 0.0 ], [ -89.330319380386868, 43.11370080348059, 0.0 ], [ -89.330315440892377, 43.113865843154059, 0.0 ], [ -89.33036933652977, 43.113968940563083, 0.0 ], [ -89.330362379550124, 43.113984447083936, 0.0 ], [ -89.330411162226596, 43.114018226153718, 0.0 ], [ -89.330431278794208, 43.114059968031519, 0.0 ], [ -89.330406635998884, 43.114054100699285, 0.0 ], [ -89.330435385926748, 43.114112187288292, 0.0 ], [ -89.330465896054307, 43.114203801489957, 0.0 ], [ -89.330461034550453, 43.114230958856204, 0.0 ], [ -89.330471092834273, 43.114276724047542, 0.0 ], [ -89.330501602961803, 43.114343443996788, 0.0 ], [ -89.33049833401958, 43.114459533355742, 0.0 ], [ -89.330494645982185, 43.114504795632868, 0.0 ], [ -89.330493891610885, 43.11454586695838, 0.0 ], [ -89.330496741457978, 43.114584172255867, 0.0 ], [ -89.330500345676342, 43.114594817272916, 0.0 ], [ -89.330506045370498, 43.114601606614464, 0.0 ], [ -89.330512080340782, 43.114625997952693, 0.0 ], [ -89.330505039542103, 43.114640247188106, 0.0 ], [ -89.330501938237944, 43.114642845578089, 0.0 ], [ -89.330489868297377, 43.114651059843183, 0.0 ], [ -89.330485090612569, 43.114651059843197, 0.0 ], [ -89.330481737851287, 43.114684252179728, 0.0 ], [ -89.330480061470666, 43.114726329333699, 0.0 ], [ -89.330480480565825, 43.11476815503049, 0.0 ], [ -89.330481905489364, 43.114811908565045, 0.0 ], [ -89.330480983480015, 43.114829594380744, 0.0 ], [ -89.330481821670332, 43.114836132265204, 0.0 ], [ -89.330483833327079, 43.114853231347674, 0.0 ], [ -89.33048366568903, 43.114859182498932, 0.0 ], [ -89.330487605183521, 43.11490100819578, 0.0 ], [ -89.330488694830933, 43.114902516938322, 0.0 ], [ -89.33048852719287, 43.114902265481248, 0.0 ], [ -89.330493723972836, 43.1149026845764, 0.0 ], [ -89.330492969601551, 43.114902516938329, 0.0 ], [ -89.330492969601551, 43.11490243311929, 0.0 ], [ -89.330492969601551, 43.114902265481227, 0.0 ], [ -89.330492801963487, 43.114901678748019, 0.0 ], [ -89.330492382868329, 43.114900924376727, 0.0 ], [ -89.330488946288028, 43.114903690404788, 0.0 ], [ -89.330476541071334, 43.114961106441498, 0.0 ], [ -89.330473355948129, 43.115004776157008, 0.0 ], [ -89.330451143904725, 43.115112818888896, 0.0 ], [ -89.330448377876664, 43.115129415057183, 0.0 ], [ -89.330438403411904, 43.115156320966349, 0.0 ], [ -89.330438822507062, 43.115238882712596, 0.0 ], [ -89.33042842894713, 43.115337621531964, 0.0 ], [ -89.330417448653961, 43.115527639276856, 0.0 ], [ -89.330415604635277, 43.115539709217423, 0.0 ], [ -89.330401020123745, 43.115656720585697, 0.0 ], [ -89.330399762838283, 43.115670969821075, 0.0 ], [ -89.330421639605547, 43.115789489931942, 0.0 ], [ -89.330408396198536, 43.115904908738607, 0.0 ], [ -89.330412503331104, 43.116013705841766, 0.0 ], [ -89.330408815293708, 43.116073720268481, 0.0 ], [ -89.330405797808552, 43.116200119368315, 0.0 ], [ -89.330404456704045, 43.116348227597356, 0.0 ], [ -89.330408396198536, 43.116454426310533, 0.0 ], [ -89.330402277409235, 43.116500023863786, 0.0 ], [ -89.330407138913074, 43.116540089360946, 0.0 ], [ -89.33039473369638, 43.116659196205021, 0.0 ], [ -89.330382915212908, 43.116810405738221, 0.0 ], [ -89.330397332086349, 43.116968991346248, 0.0 ], [ -89.330422729252959, 43.117000339664081, 0.0 ], [ -89.33043940924027, 43.117029676325217, 0.0 ], [ -89.330433290450955, 43.117146268598319, 0.0 ], [ -89.330432452260652, 43.117184406257749, 0.0 ], [ -89.330438738688031, 43.117185663543218, 0.0 ], [ -89.330438319592858, 43.117198152578958, 0.0 ], [ -89.330438068135763, 43.117254646606305, 0.0 ], [ -89.330433122812906, 43.117342824227698, 0.0 ], [ -89.330430021508732, 43.117342656589614, 0.0 ], [ -89.330448545514741, 43.117371490336531, 0.0 ], [ -89.330439828335443, 43.117430498934873, 0.0 ], [ -89.330436056479016, 43.117566285766223, 0.0 ], [ -89.33044066652576, 43.117684889696108, 0.0 ], [ -89.330444438382173, 43.117687068990939, 0.0 ], [ -89.330421891062642, 43.117711460329176, 0.0 ], [ -89.330476289614239, 43.117743227742189, 0.0 ], [ -89.330538818611899, 43.1177802757542, 0.0 ], [ -89.330588523297706, 43.117830483354226, 0.0 ], [ -89.330603526904369, 43.117925366498127, 0.0 ], [ -89.330608639865318, 43.118055369816318, 0.0 ], [ -89.330621799453283, 43.118144469447031, 0.0 ], [ -89.330640072002211, 43.118163328729175, 0.0 ], [ -89.330657003446603, 43.118193922675765, 0.0 ], [ -89.330635461955467, 43.118297103903792, 0.0 ], [ -89.330642335116067, 43.118312023691445, 0.0 ], [ -89.330651471390524, 43.118319567404292, 0.0 ], [ -89.330693213268304, 43.118319651223338, 0.0 ], [ -89.330748617648283, 43.118306910730517, 0.0 ], [ -89.330741241573492, 43.118302133045709, 0.0 ], [ -89.330717604606534, 43.11830732982569, 0.0 ], [ -89.330697320400873, 43.118324764184266, 0.0 ], [ -89.330669157206202, 43.118369020633004, 0.0 ], [ -89.330651219933429, 43.118465915433681, 0.0 ], [ -89.330659937112728, 43.11854730371347, 0.0 ], [ -89.330650968476334, 43.118691891543186, 0.0 ], [ -89.330655913799191, 43.118713516853362, 0.0 ], [ -89.330652393399873, 43.118743021152532, 0.0 ], [ -89.330664547159472, 43.118785685039668, 0.0 ], [ -89.330671923234263, 43.118815440795927, 0.0 ], [ -89.3306744378052, 43.11883329424969, 0.0 ], [ -89.330679466947103, 43.118896996713801, 0.0 ], [ -89.330684076993862, 43.118906552083423, 0.0 ], [ -89.330682987346449, 43.11891669418624, 0.0 ], [ -89.33067049831071, 43.118962124101436, 0.0 ], [ -89.330681478603879, 43.119090451038986, 0.0 ], [ -89.330678209661642, 43.119201846532135, 0.0 ], [ -89.330652896314064, 43.11934844601862, 0.0 ], [ -89.330643508582511, 43.119478952250979, 0.0 ], [ -89.330641832201877, 43.119502505398913, 0.0 ], [ -89.330636803059974, 43.119594706333757, 0.0 ], [ -89.330626744776154, 43.119607782102719, 0.0 ], [ -89.330591792239943, 43.119613984711073, 0.0 ], [ -89.330589110030928, 43.119619349129096, 0.0 ], [ -89.330628169699708, 43.119638543687387, 0.0 ], [ -89.330619871615568, 43.119703587255977, 0.0 ], [ -89.330602940171147, 43.119833339117072, 0.0 ], [ -89.330593636258641, 43.119855634979523, 0.0 ], [ -89.33060972951273, 43.119887318573483, 0.0 ], [ -89.33060922659854, 43.119893940276995, 0.0 ], [ -89.330612495540763, 43.119933502859972, 0.0 ], [ -89.330625655128756, 43.11999628331472, 0.0 ], [ -89.330609980969825, 43.120055878646284, 0.0 ], [ -89.330706624313393, 43.120075492299705, 0.0 ], [ -89.330799495800534, 43.1200764981281, 0.0 ], [ -89.330968894063631, 43.120077420137498, 0.0 ], [ -89.33107341639618, 43.120086053497786, 0.0 ], [ -89.331192187964106, 43.120081275812979, 0.0 ], [ -89.331217585130716, 43.120084125660071, 0.0 ], [ -89.331225212662616, 43.120085550583617, 0.0 ], [ -89.331248262896338, 43.120087478421333, 0.0 ], [ -89.331322694196487, 43.12010214675189, 0.0 ], [ -89.331481195985475, 43.120119748748579, 0.0 ], [ -89.331716392188454, 43.12011480342575, 0.0 ], [ -89.331732485442558, 43.120107427350966, 0.0 ], [ -89.331734664737382, 43.120100638009419, 0.0 ], [ -89.331800378858247, 43.120111199207415, 0.0 ], [ -89.33187204413035, 43.120127627737652, 0.0 ], [ -89.331926610320011, 43.120148498676556, 0.0 ], [ -89.332053763791109, 43.120145145915274, 0.0 ], [ -89.332255767657543, 43.120127627737695, 0.0 ], [ -89.332290301098624, 43.120114300511645, 0.0 ], [ -89.332307735457221, 43.120122933871926, 0.0 ], [ -89.332309244199791, 43.120126370452226, 0.0 ], [ -89.332337658851543, 43.120131315775112, 0.0 ], [ -89.332352578639188, 43.120131986327358, 0.0 ], [ -89.33250999078075, 43.120136764012216, 0.0 ], [ -89.332680227234164, 43.120141457878013, 0.0 ], [ -89.332839902489567, 43.120141709335137, 0.0 ], [ -89.333097059278884, 43.120140452049696, 0.0 ], [ -89.333193367346325, 43.120138608031013, 0.0 ], [ -89.33329327963213, 43.120145648829698, 0.0 ], [ -89.333464689551988, 43.120161490626721, 0.0 ], [ -89.333561165257493, 43.120162580274155, 0.0 ], [ -89.3336851336054, 43.120155539475512, 0.0 ], [ -89.333694605155969, 43.120151013247778, 0.0 ], [ -89.333707010372663, 43.12014958832426, 0.0 ], [ -89.333800552412072, 43.120151180885891, 0.0 ], [ -89.333858303724924, 43.120138272755014, 0.0 ], [ -89.333901302888194, 43.12012243095802, 0.0 ], [ -89.333913456647792, 43.120117904730293, 0.0 ], [ -89.333972297608042, 43.120138440393085, 0.0 ], [ -89.334117136894861, 43.120153276361712, 0.0 ], [ -89.334294162689829, 43.120169034339703, 0.0 ], [ -89.334429865702191, 43.120155371837562, 0.0 ], [ -89.334446797146583, 43.12014606792507, 0.0 ], [ -89.334501866250434, 43.12015604238983, 0.0 ], [ -89.334675706922212, 43.120167441778179, 0.0 ], [ -89.334862288086811, 43.120183870308438, 0.0 ], [ -89.334957841782966, 43.120193258039983, 0.0 ], [ -89.335156744345227, 43.120201388486109, 0.0 ], [ -89.335394287481108, 43.120213290788655, 0.0 ], [ -89.335563769563237, 43.120220918320555, 0.0 ], [ -89.335664939134517, 43.120215302445452, 0.0 ], [ -89.335751608013297, 43.120203400142962, 0.0 ], [ -89.335764432325163, 43.120204657428452, 0.0 ], [ -89.335788320749202, 43.120206249990041, 0.0 ], [ -89.335816400124813, 43.120216392092885, 0.0 ], [ -89.335866104810634, 43.120215637721628, 0.0 ], [ -89.336054697631994, 43.120232401528007, 0.0 ], [ -89.336275141685391, 43.120258385427867, 0.0 ], [ -89.336436074226285, 43.12028973374575, 0.0 ], [ -89.336439343168536, 43.120288392641243, 0.0 ], [ -89.336498603223959, 43.12030565936179, 0.0 ], [ -89.336701529099741, 43.12034949671542, 0.0 ], [ -89.336881069465662, 43.120409092046977, 0.0 ], [ -89.337001768871332, 43.120454605781205, 0.0 ], [ -89.337130011989871, 43.120487881936832, 0.0 ], [ -89.337197486310401, 43.120489725955551, 0.0 ], [ -89.337209220974842, 43.120476901643698, 0.0 ], [ -89.337252471595207, 43.120445804782939, 0.0 ], [ -89.337379038333083, 43.120390232764933, 0.0 ], [ -89.337459504603544, 43.12033675622272, 0.0 ], [ -89.337571822106042, 43.120303647705221, 0.0 ], [ -89.337642481549778, 43.120297445096881, 0.0 ], [ -89.337719092144752, 43.120257714875848, 0.0 ], [ -89.337748847901025, 43.120223013796725, 0.0 ], [ -89.337764438240924, 43.120202813410089, 0.0 ], [ -89.33777105994443, 43.120177080967338, 0.0 ], [ -89.337773574515367, 43.120142296069183, 0.0 ], [ -89.337770724668289, 43.120050933324642, 0.0 ], [ -89.337776005267287, 43.120031235852146, 0.0 ], [ -89.337792349978486, 43.119915817045488, 0.0 ], [ -89.337786398827234, 43.119899639972367, 0.0 ], [ -89.3377691321067, 43.119852701314613, 0.0 ], [ -89.337754547595168, 43.119843397402079, 0.0 ], [ -89.337789332493344, 43.119848426544017, 0.0 ], [ -89.33780819177548, 43.119819425159029, 0.0 ], [ -89.337814394383813, 43.11974599968724, 0.0 ], [ -89.337814729659954, 43.119721775987095, 0.0 ], [ -89.337819674982811, 43.119710795693948, 0.0 ], [ -89.337815316393176, 43.119695875906267, 0.0 ], [ -89.337805006652275, 43.119624797367401, 0.0 ], [ -89.337812047450939, 43.119480209537677, 0.0 ], [ -89.337815148755098, 43.119354900085263, 0.0 ], [ -89.337828308343092, 43.119170498215475, 0.0 ], [ -89.337830319999853, 43.119143089392132, 0.0 ], [ -89.337836606427217, 43.119135461860232, 0.0 ], [ -89.337843563406864, 43.119129343070959, 0.0 ], [ -89.337846664711023, 43.119121464081964, 0.0 ], [ -89.337840545921708, 43.119061784931368, 0.0 ], [ -89.337849179281989, 43.119047116600804, 0.0 ], [ -89.337853286414528, 43.119039321430868, 0.0 ], [ -89.337861333041587, 43.119010487683965, 0.0 ], [ -89.337865691631222, 43.118972517662577, 0.0 ], [ -89.337860830127397, 43.118888782449922, 0.0 ], [ -89.337864182888666, 43.118881825470268, 0.0 ], [ -89.337876923381486, 43.118851147704682, 0.0 ], [ -89.337879773228551, 43.118806723617858, 0.0 ], [ -89.337866865097681, 43.11879348021084, 0.0 ], [ -89.337881533428231, 43.118760287874274, 0.0 ], [ -89.337891843169132, 43.118691975363433, 0.0 ], [ -89.337901314719716, 43.118624920138096, 0.0 ], [ -89.337890250607529, 43.118582172431879, 0.0 ], [ -89.337906260042587, 43.118530791365458, 0.0 ], [ -89.337908355518366, 43.118458539360105, 0.0 ], [ -89.337904499842921, 43.118369942643589, 0.0 ], [ -89.337915312498012, 43.118262738102047, 0.0 ], [ -89.33791715651671, 43.118179254346451, 0.0 ], [ -89.337923191486993, 43.118097279333412, 0.0 ], [ -89.337917910887995, 43.117976496108739, 0.0 ], [ -89.337924951686659, 43.117929305993883, 0.0 ], [ -89.33793693780818, 43.11787432070907, 0.0 ], [ -89.337935596703673, 43.117848672085366, 0.0 ], [ -89.337930902837911, 43.117806846388532, 0.0 ], [ -89.337941715493002, 43.117714058720438, 0.0 ], [ -89.337957976385155, 43.117628647127134, 0.0 ], [ -89.337958311661282, 43.117599645742132, 0.0 ], [ -89.337958479299331, 43.117534685992553, 0.0 ], [ -89.337942637502351, 43.117466289662687, 0.0 ], [ -89.337941799312034, 43.11737073596651, 0.0 ], [ -89.337931405752101, 43.117356905826291, 0.0 ], [ -89.337916485964456, 43.117315750681698, 0.0 ], [ -89.337922185658613, 43.117283983268706, 0.0 ], [ -89.337935429065624, 43.117223549746839, 0.0 ], [ -89.337898213415542, 43.117173258327796, 0.0 ], [ -89.337967280297676, 43.117076531165203, 0.0 ], [ -89.33800022117714, 43.116932446249677, 0.0 ], [ -89.338001729919696, 43.11681635689078, 0.0 ], [ -89.33801312930801, 43.116746535637361, 0.0 ], [ -89.338010111822882, 43.116708397977938, 0.0 ], [ -89.338012626393819, 43.116648970284444, 0.0 ], [ -89.338018661364117, 43.116637235620004, 0.0 ], [ -89.338034000246921, 43.116554757692803, 0.0 ], [ -89.338012291117707, 43.116476805993308, 0.0 ], [ -89.338003238662282, 43.116467585899805, 0.0 ], [ -89.337999466805854, 43.116456354149555, 0.0 ], [ -89.338017739354768, 43.116428693869089, 0.0 ], [ -89.338044477625886, 43.116320148223032, 0.0 ], [ -89.338064929469624, 43.116203723587951, 0.0 ], [ -89.338050344958106, 43.11611370194791, 0.0 ], [ -89.338054368271628, 43.115981016420704, 0.0 ], [ -89.338059229775453, 43.115882361420375, 0.0 ], [ -89.338072640820542, 43.115742383637404, 0.0 ], [ -89.33807616121986, 43.115669628717882, 0.0 ], [ -89.338070629163781, 43.115553874635076, 0.0 ], [ -89.338067360221544, 43.115464775004362, 0.0 ], [ -89.338071718811193, 43.115453124158954, 0.0 ], [ -89.338091081007519, 43.115398893245448, 0.0 ], [ -89.338089236988822, 43.115292191618089, 0.0 ], [ -89.338074065744081, 43.115238882713911, 0.0 ], [ -89.338080519809523, 43.115205690377344, 0.0 ], [ -89.338106755166436, 43.115069903545972, 0.0 ], [ -89.338096277787471, 43.11496412392794, 0.0 ], [ -89.338110527022863, 43.114902349301566, 0.0 ], [ -89.338114382698336, 43.114896565788392, 0.0 ], [ -89.33812921866695, 43.114794055112611, 0.0 ], [ -89.338138774036565, 43.114686766751994, 0.0 ], [ -89.338148580863276, 43.114600936063518, 0.0 ], [ -89.338163584469953, 43.114560283833164, 0.0 ], [ -89.338163835927048, 43.114543100931634, 0.0 ], [ -89.338149167596484, 43.114523571097259, 0.0 ], [ -89.338144222273627, 43.114459030442816, 0.0 ], [ -89.33815612457613, 43.114356687405127, 0.0 ], [ -89.338155537842894, 43.114238670208429, 0.0 ], [ -89.338143300264278, 43.114197179787737, 0.0 ], [ -89.338144557549754, 43.114178236686584, 0.0 ], [ -89.338156292214194, 43.114080503695632, 0.0 ], [ -89.338159393518353, 43.113935580589761, 0.0 ], [ -89.338157465680638, 43.113920828440207, 0.0 ], [ -89.338153107090989, 43.113873722144376, 0.0 ], [ -89.338112873955765, 43.113736510389423, 0.0 ], [ -89.338048836215535, 43.113626958914978, 0.0 ], [ -89.338044309987822, 43.113617822640514, 0.0 ], [ -89.33798136189499, 43.113532746323322, 0.0 ], [ -89.337903913109699, 43.113434342780053, 0.0 ], [ -89.337825709953094, 43.11336250986988, 0.0 ], [ -89.337801486252943, 43.113328144066855, 0.0 ], [ -89.337764186783829, 43.113265447431125, 0.0 ], [ -89.337715990840593, 43.1132011582338, 0.0 ], [ -89.337648851796189, 43.113119183220789, 0.0 ], [ -89.337583892046609, 43.113038214036123, 0.0 ], [ -89.33750770054678, 43.11292975220907, 0.0 ], [ -89.337425893171826, 43.112838054188373, 0.0 ], [ -89.337350623681331, 43.112771920972335, 0.0 ], [ -89.337262110783854, 43.112666644268494, 0.0 ], [ -89.337142836301709, 43.112579640113537, 0.0 ], [ -89.337059436365152, 43.112489031740232, 0.0 ], [ -89.336998835205222, 43.112446703129223, 0.0 ], [ -89.336964637040282, 43.112412756421371, 0.0 ], [ -89.336948795243288, 43.112398758643074, 0.0 ], [ -89.336873609571839, 43.112390292920864, 0.0 ], [ -89.336721058934131, 43.112399596833342, 0.0 ], [ -89.33659465983429, 43.112402781956511, 0.0 ], [ -89.336566915734807, 43.112403536327811, 0.0 ], [ -89.336511930450001, 43.112405883260699, 0.0 ], [ -89.336491730063358, 43.112389790006581, 0.0 ], [ -89.336490724234977, 43.11238182719859, 0.0 ], [ -89.336497010662342, 43.112343438082078, 0.0 ], [ -89.33649768121461, 43.112244363986548, 0.0 ], [ -89.336477480827966, 43.112160880230967, 0.0 ], [ -89.336460633202591, 43.112140931301433, 0.0 ], [ -89.336413107811609, 43.112074462809261, 0.0 ], [ -89.336405480279723, 43.112066164725121, 0.0 ], [ -89.33631981722931, 43.112039510273036, 0.0 ], [ -89.336251588537479, 43.11198695574015, 0.0 ], [ -89.336183192207614, 43.111939849444298, 0.0 ], [ -89.336177743970538, 43.11193758633042, 0.0 ], [ -89.336070204152861, 43.111891569682001, 0.0 ], [ -89.33594430796721, 43.111842284091345, 0.0 ], [ -89.335935171692768, 43.111845720671639, 0.0 ], [ -89.335886640473404, 43.11182577174209, 0.0 ], [ -89.335814639925161, 43.111804481708006, 0.0 ], [ -89.335766946896101, 43.111765841134392, 0.0 ], [ -89.335698969661394, 43.111706832536036, 0.0 ], [ -89.335680026560226, 43.11168286029298, 0.0 ], [ -89.335610037668744, 43.111620247476282, 0.0 ], [ -89.335575923322835, 43.111587222777771, 0.0 ], [ -89.335564859210649, 43.111580433436202, 0.0 ], [ -89.335518088190938, 43.111550593860898, 0.0 ], [ -89.335472322999621, 43.111491752900612, 0.0 ], [ -89.335426557808304, 43.111426038779747, 0.0 ], [ -89.335337122901478, 43.111381866150019, 0.0 ], [ -89.335272330789962, 43.111339453719971, 0.0 ], [ -89.335204018279114, 43.111293856166704, 0.0 ], [ -89.335191026329198, 43.111257813983045, 0.0 ], [ -89.335146518423343, 43.111230824254839, 0.0 ], [ -89.335121875628019, 43.111198051013425, 0.0 ], [ -89.335072254761258, 43.111171480380371, 0.0 ], [ -89.335050629451075, 43.111170223094888, 0.0 ], [ -89.335014671086455, 43.111166535057492, 0.0 ], [ -89.334998158737221, 43.111134013273187, 0.0 ], [ -89.334963373839059, 43.111086320244127, 0.0 ], [ -89.33491651900033, 43.11102932330256, 0.0 ], [ -89.33478039689281, 43.11094609100406, 0.0 ], [ -89.334705211221362, 43.11090275656462, 0.0 ], [ -89.334633378311196, 43.110869983323212, 0.0 ], [ -89.334571687503853, 43.11083679098666, 0.0 ], [ -89.334538076072135, 43.110806280859087, 0.0 ], [ -89.334461297839084, 43.110756492354234, 0.0 ], [ -89.334397008641758, 43.110724054388967, 0.0 ], [ -89.334336910396019, 43.110673846788963, 0.0 ], [ -89.334276560693183, 43.110649120174585, 0.0 ], [ -89.334195423870469, 43.11063705023399, 0.0 ], [ -89.334122752769986, 43.110678708292745, 0.0 ], [ -89.33410682715396, 43.110692789890074, 0.0 ], [ -89.334057457744279, 43.11073050845436, 0.0 ], [ -89.334004987030426, 43.110770909227632, 0.0 ], [ -89.333942541851798, 43.11081307020055, 0.0 ], [ -89.333906667306209, 43.110819943361172, 0.0 ], [ -89.333857130258465, 43.110851375498029, 0.0 ], [ -89.333790075033107, 43.110916335247609, 0.0 ], [ -89.333733413367668, 43.110972242541749, 0.0 ], [ -89.333659401162649, 43.111035693548743, 0.0 ], [ -89.333636686205054, 43.111047763489303, 0.0 ], [ -89.333631740882197, 43.111051619164776, 0.0 ], [ -89.333605337887207, 43.111091014109675, 0.0 ], [ -89.333557477220097, 43.111129906140377, 0.0 ], [ -89.333473658188382, 43.111190423481254, 0.0 ], [ -89.333406770601073, 43.111251862831494, 0.0 ], [ -89.333395119755664, 43.111250773184082, 0.0 ], [ -89.333373242988387, 43.111253706850199, 0.0 ], [ -89.333372991531277, 43.111253706850199, 0.0 ], [ -89.333305601029792, 43.111207606382742, 0.0 ], [ -89.33321507647554, 43.111136695481903, 0.0 ], [ -89.333215998484889, 43.111133594177716, 0.0 ], [ -89.333163527771035, 43.111095624156349, 0.0 ], [ -89.333101501687565, 43.111034268625126, 0.0 ], [ -89.333113068713928, 43.111020522303917, 0.0 ], [ -89.333121450617114, 43.111012140400746, 0.0 ], [ -89.333142908289233, 43.110977858416774, 0.0 ], [ -89.333124384283224, 43.110938128195755, 0.0 ], [ -89.333066130056181, 43.110889932252512, 0.0 ], [ -89.332946771755019, 43.110843496508906, 0.0 ], [ -89.332770667969385, 43.110792534537602, 0.0 ], [ -89.332629265262881, 43.110783733539236, 0.0 ], [ -89.332498591392437, 43.110791109614013, 0.0 ], [ -89.332458274438181, 43.110784907005666, 0.0 ], [ -89.332416700198436, 43.110793875642052, 0.0 ], [ -89.332353752105632, 43.110778788216322, 0.0 ], [ -89.332253085448528, 43.110782560072749, 0.0 ], [ -89.332075975834513, 43.110779542587551, 0.0 ], [ -89.331915378569747, 43.11077853675917, 0.0 ], [ -89.331721337511325, 43.110770573951108, 0.0 ], [ -89.331510113551403, 43.110768227018184, 0.0 ], [ -89.33138488791802, 43.110767221189782, 0.0 ], [ -89.331363597883978, 43.110767388827838, 0.0 ], [ -89.331230996175805, 43.110768310837187, 0.0 ], [ -89.331071656196514, 43.110769232846494, 0.0 ] ] } },
{ "type": "Feature", "properties": { "id": 4 }, "geometry": { "type": "LineString", "coordinates": [ [ -89.330432703717747, 43.112008748687408, 0.0 ], [ -89.330355338751474, 43.112071193866001, 0.0 ], [ -89.33035173453311, 43.11208385053979, 0.0 ], [ -89.33034754358151, 43.112197341508725, 0.0 ], [ -89.330347124486366, 43.112293062842966, 0.0 ], [ -89.330348381771842, 43.112386772520395, 0.0 ], [ -89.330346453934098, 43.112401273212889, 0.0 ], [ -89.330344442277351, 43.112503280974487, 0.0 ], [ -89.330380987375179, 43.112559104449616, 0.0 ], [ -89.330366989596882, 43.112594392261975, 0.0 ], [ -89.330371348186517, 43.11270084243224, 0.0 ], [ -89.330367324873009, 43.112705955393182, 0.0 ], [ -89.330350561066666, 43.112723054475651, 0.0 ], [ -89.33036883361558, 43.112764796353439, 0.0 ], [ -89.330343687906065, 43.112857751659618, 0.0 ], [ -89.330338239669004, 43.112875186018208, 0.0 ], [ -89.330326672642627, 43.11290041554674, 0.0 ], [ -89.33033170178453, 43.112996472157107, 0.0 ], [ -89.330295324324766, 43.113606842346066, 0.0 ], [ -89.330319380386868, 43.11370080348059, 0.0 ], [ -89.330315440892377, 43.113865843154059, 0.0 ], [ -89.33036933652977, 43.113968940563083, 0.0 ], [ -89.330362379550124, 43.113984447083936, 0.0 ], [ -89.330411162226596, 43.114018226153718, 0.0 ], [ -89.330431278794208, 43.114059968031519, 0.0 ], [ -89.330406635998884, 43.114054100699285, 0.0 ], [ -89.330435385926748, 43.114112187288292, 0.0 ], [ -89.330465896054307, 43.114203801489957, 0.0 ], [ -89.330461034550453, 43.114230958856204, 0.0 ], [ -89.330471092834273, 43.114276724047542, 0.0 ], [ -89.330501602961803, 43.114343443996788, 0.0 ], [ -89.33049833401958, 43.114459533355742, 0.0 ], [ -89.330494645982185, 43.114504795632868, 0.0 ], [ -89.330493891610885, 43.11454586695838, 0.0 ], [ -89.330496741457978, 43.114584172255867, 0.0 ], [ -89.330500345676342, 43.114594817272916, 0.0 ], [ -89.330506045370498, 43.114601606614464, 0.0 ], [ -89.330512080340782, 43.114625997952693, 0.0 ], [ -89.330505039542103, 43.114640247188106, 0.0 ], [ -89.330501938237944, 43.114642845578089, 0.0 ], [ -89.330489868297377, 43.114651059843183, 0.0 ], [ -89.330485090612569, 43.114651059843197, 0.0 ], [ -89.330481737851287, 43.114684252179728, 0.0 ], [ -89.330480061470666, 43.114726329333699, 0.0 ], [ -89.330480480565825, 43.11476815503049, 0.0 ], [ -89.330481905489364, 43.114811908565045, 0.0 ], [ -89.330480983480015, 43.114829594380744, 0.0 ], [ -89.330481821670332, 43.114836132265204, 0.0 ], [ -89.330483833327079, 43.114853231347674, 0.0 ], [ -89.33048366568903, 43.114859182498932, 0.0 ], [ -89.330487605183521, 43.11490100819578, 0.0 ], [ -89.330488694830933, 43.114902516938322, 0.0 ], [ -89.33048852719287, 43.114902265481248, 0.0 ], [ -89.330493723972836, 43.1149026845764, 0.0 ], [ -89.330492969601551, 43.114902516938329, 0.0 ], [ -89.330492969601551, 43.11490243311929, 0.0 ], [ -89.330492969601551, 43.114902265481227, 0.0 ], [ -89.330492801963487, 43.114901678748019, 0.0 ], [ -89.330492382868329, 43.114900924376727, 0.0 ], [ -89.330488946288028, 43.114903690404788, 0.0 ], [ -89.330476541071334, 43.114961106441498, 0.0 ], [ -89.330473355948129, 43.115004776157008, 0.0 ], [ -89.330451143904725, 43.115112818888896, 0.0 ], [ -89.330448377876664, 43.115129415057183, 0.0 ], [ -89.330438403411904, 43.115156320966349, 0.0 ], [ -89.330438822507062, 43.115238882712596, 0.0 ], [ -89.33042842894713, 43.115337621531964, 0.0 ], [ -89.330417448653961, 43.115527639276856, 0.0 ], [ -89.330415604635277, 43.115539709217423, 0.0 ], [ -89.330401020123745, 43.115656720585697, 0.0 ], [ -89.330399762838283, 43.115670969821075, 0.0 ], [ -89.330421639605547, 43.115789489931942, 0.0 ], [ -89.330408396198536, 43.115904908738607, 0.0 ], [ -89.330412503331104, 43.116013705841766, 0.0 ], [ -89.330408815293708, 43.116073720268481, 0.0 ], [ -89.330405797808552, 43.116200119368315, 0.0 ], [ -89.330404456704045, 43.116348227597356, 0.0 ], [ -89.330408396198536, 43.116454426310533, 0.0 ], [ -89.330402277409235, 43.116500023863786, 0.0 ], [ -89.330407138913074, 43.116540089360946, 0.0 ], [ -89.33039473369638, 43.116659196205021, 0.0 ], [ -89.330382915212908, 43.116810405738221, 0.0 ], [ -89.330397332086349, 43.116968991346248, 0.0 ], [ -89.330422729252959, 43.117000339664081, 0.0 ], [ -89.33043940924027, 43.117029676325217, 0.0 ], [ -89.330433290450955, 43.117146268598319, 0.0 ], [ -89.330432452260652, 43.117184406257749, 0.0 ], [ -89.330438738688031, 43.117185663543218, 0.0 ], [ -89.330438319592858, 43.117198152578958, 0.0 ], [ -89.330438068135763, 43.117254646606305, 0.0 ], [ -89.330433122812906, 43.117342824227698, 0.0 ], [ -89.330430021508732, 43.117342656589614, 0.0 ], [ -89.330448545514741, 43.117371490336531, 0.0 ], [ -89.330439828335443, 43.117430498934873, 0.0 ], [ -89.330436056479016, 43.117566285766223, 0.0 ], [ -89.33044066652576, 43.117684889696108, 0.0 ], [ -89.330444438382173, 43.117687068990939, 0.0 ], [ -89.330421891062642, 43.117711460329176, 0.0 ], [ -89.330476289614239, 43.117743227742189, 0.0 ], [ -89.330538818611899, 43.1177802757542, 0.0 ], [ -89.330588523297706, 43.117830483354226, 0.0 ], [ -89.330603526904369, 43.117925366498127, 0.0 ], [ -89.330608639865318, 43.118055369816318, 0.0 ], [ -89.330621799453283, 43.118144469447031, 0.0 ], [ -89.330640072002211, 43.118163328729175, 0.0 ], [ -89.330657003446603, 43.118193922675765, 0.0 ], [ -89.330635461955467, 43.118297103903792, 0.0 ], [ -89.330642335116067, 43.118312023691445, 0.0 ], [ -89.330651471390524, 43.118319567404292, 0.0 ], [ -89.330693213268304, 43.118319651223338, 0.0 ], [ -89.330748617648283, 43.118306910730517, 0.0 ], [ -89.330741241573492, 43.118302133045709, 0.0 ], [ -89.330717604606534, 43.11830732982569, 0.0 ], [ -89.330697320400873, 43.118324764184266, 0.0 ], [ -89.330669157206202, 43.118369020633004, 0.0 ], [ -89.330651219933429, 43.118465915433681, 0.0 ], [ -89.330659937112728, 43.11854730371347, 0.0 ], [ -89.330650968476334, 43.118691891543186, 0.0 ], [ -89.330655913799191, 43.118713516853362, 0.0 ], [ -89.330652393399873, 43.118743021152532, 0.0 ], [ -89.330664547159472, 43.118785685039668, 0.0 ], [ -89.330671923234263, 43.118815440795927, 0.0 ], [ -89.3306744378052, 43.11883329424969, 0.0 ], [ -89.330679466947103, 43.118896996713801, 0.0 ], [ -89.330684076993862, 43.118906552083423, 0.0 ], [ -89.330682987346449, 43.11891669418624, 0.0 ], [ -89.33067049831071, 43.118962124101436, 0.0 ], [ -89.330681478603879, 43.119090451038986, 0.0 ], [ -89.330678209661642, 43.119201846532135, 0.0 ], [ -89.330652896314064, 43.11934844601862, 0.0 ], [ -89.330643508582511, 43.119478952250979, 0.0 ], [ -89.330641832201877, 43.119502505398913, 0.0 ], [ -89.330636803059974, 43.119594706333757, 0.0 ], [ -89.330626744776154, 43.119607782102719, 0.0 ], [ -89.330591792239943, 43.119613984711073, 0.0 ], [ -89.330589110030928, 43.119619349129096, 0.0 ], [ -89.330628169699708, 43.119638543687387, 0.0 ], [ -89.330619871615568, 43.119703587255977, 0.0 ], [ -89.330602940171147, 43.119833339117072, 0.0 ], [ -89.330593636258641, 43.119855634979523, 0.0 ], [ -89.33060972951273, 43.119887318573483, 0.0 ], [ -89.33060922659854, 43.119893940276995, 0.0 ], [ -89.330612495540763, 43.119933502859972, 0.0 ], [ -89.330625655128756, 43.11999628331472, 0.0 ], [ -89.330609980969825, 43.120055878646284, 0.0 ], [ -89.330706624313393, 43.120075492299705, 0.0 ], [ -89.330799495800534, 43.1200764981281, 0.0 ], [ -89.330968894063631, 43.120077420137498, 0.0 ], [ -89.33107341639618, 43.120086053497786, 0.0 ], [ -89.331192187964106, 43.120081275812979, 0.0 ], [ -89.331217585130716, 43.120084125660071, 0.0 ], [ -89.331225212662616, 43.120085550583617, 0.0 ], [ -89.331248262896338, 43.120087478421333, 0.0 ], [ -89.331322694196487, 43.12010214675189, 0.0 ], [ -89.331481195985475, 43.120119748748579, 0.0 ], [ -89.331716392188454, 43.12011480342575, 0.0 ], [ -89.331732485442558, 43.120107427350966, 0.0 ], [ -89.331734664737382, 43.120100638009419, 0.0 ], [ -89.331800378858247, 43.120111199207415, 0.0 ], [ -89.33187204413035, 43.120127627737652, 0.0 ], [ -89.331926610320011, 43.120148498676556, 0.0 ], [ -89.332053763791109, 43.120145145915274, 0.0 ], [ -89.332255767657543, 43.120127627737695, 0.0 ], [ -89.332290301098624, 43.120114300511645, 0.0 ], [ -89.332307735457221, 43.120122933871926, 0.0 ], [ -89.332309244199791, 43.120126370452226, 0.0 ], [ -89.332337658851543, 43.120131315775112, 0.0 ], [ -89.332352578639188, 43.120131986327358, 0.0 ], [ -89.33250999078075, 43.120136764012216, 0.0 ], [ -89.332680227234164, 43.120141457878013, 0.0 ], [ -89.332839902489567, 43.120141709335137, 0.0 ], [ -89.333097059278884, 43.120140452049696, 0.0 ], [ -89.333193367346325, 43.120138608031013, 0.0 ], [ -89.33329327963213, 43.120145648829698, 0.0 ], [ -89.333464689551988, 43.120161490626721, 0.0 ], [ -89.333561165257493, 43.120162580274155, 0.0 ], [ -89.3336851336054, 43.120155539475512, 0.0 ], [ -89.333694605155969, 43.120151013247778, 0.0 ], [ -89.333707010372663, 43.12014958832426, 0.0 ], [ -89.333800552412072, 43.120151180885891, 0.0 ], [ -89.333858303724924, 43.120138272755014, 0.0 ], [ -89.333901302888194, 43.12012243095802, 0.0 ], [ -89.333913456647792, 43.120117904730293, 0.0 ], [ -89.333972297608042, 43.120138440393085, 0.0 ], [ -89.334117136894861, 43.120153276361712, 0.0 ], [ -89.334294162689829, 43.120169034339703, 0.0 ], [ -89.334429865702191, 43.120155371837562, 0.0 ], [ -89.334446797146583, 43.12014606792507, 0.0 ], [ -89.334501866250434, 43.12015604238983, 0.0 ], [ -89.334675706922212, 43.120167441778179, 0.0 ], [ -89.334862288086811, 43.120183870308438, 0.0 ], [ -89.334957841782966, 43.120193258039983, 0.0 ], [ -89.335156744345227, 43.120201388486109, 0.0 ], [ -89.335394287481108, 43.120213290788655, 0.0 ], [ -89.335563769563237, 43.120220918320555, 0.0 ], [ -89.335664939134517, 43.120215302445452, 0.0 ], [ -89.335751608013297, 43.120203400142962, 0.0 ], [ -89.335764432325163, 43.120204657428452, 0.0 ], [ -89.335788320749202, 43.120206249990041, 0.0 ], [ -89.335816400124813, 43.120216392092885, 0.0 ], [ -89.335866104810634, 43.120215637721628, 0.0 ], [ -89.336054697631994, 43.120232401528007, 0.0 ], [ -89.336275141685391, 43.120258385427867, 0.0 ], [ -89.336436074226285, 43.12028973374575, 0.0 ], [ -89.336439343168536, 43.120288392641243, 0.0 ], [ -89.336498603223959, 43.12030565936179, 0.0 ], [ -89.336701529099741, 43.12034949671542, 0.0 ], [ -89.336881069465662, 43.120409092046977, 0.0 ], [ -89.337001768871332, 43.120454605781205, 0.0 ], [ -89.337130011989871, 43.120487881936832, 0.0 ], [ -89.337197486310401, 43.120489725955551, 0.0 ], [ -89.337209220974842, 43.120476901643698, 0.0 ], [ -89.337252471595207, 43.120445804782939, 0.0 ], [ -89.337379038333083, 43.120390232764933, 0.0 ], [ -89.337459504603544, 43.12033675622272, 0.0 ], [ -89.337571822106042, 43.120303647705221, 0.0 ], [ -89.337642481549778, 43.120297445096881, 0.0 ], [ -89.337719092144752, 43.120257714875848, 0.0 ], [ -89.337748847901025, 43.120223013796725, 0.0 ], [ -89.337764438240924, 43.120202813410089, 0.0 ], [ -89.33777105994443, 43.120177080967338, 0.0 ], [ -89.337773574515367, 43.120142296069183, 0.0 ], [ -89.337770724668289, 43.120050933324642, 0.0 ], [ -89.337776005267287, 43.120031235852146, 0.0 ], [ -89.337792349978486, 43.119915817045488, 0.0 ], [ -89.337786398827234, 43.119899639972367, 0.0 ], [ -89.3377691321067, 43.119852701314613, 0.0 ], [ -89.337754547595168, 43.119843397402079, 0.0 ], [ -89.337789332493344, 43.119848426544017, 0.0 ], [ -89.33780819177548, 43.119819425159029, 0.0 ], [ -89.337814394383813, 43.11974599968724, 0.0 ], [ -89.337814729659954, 43.119721775987095, 0.0 ], [ -89.337819674982811, 43.119710795693948, 0.0 ], [ -89.337815316393176, 43.119695875906267, 0.0 ], [ -89.337805006652275, 43.119624797367401, 0.0 ], [ -89.337812047450939, 43.119480209537677, 0.0 ], [ -89.337815148755098, 43.119354900085263, 0.0 ], [ -89.337828308343092, 43.119170498215475, 0.0 ], [ -89.337830319999853, 43.119143089392132, 0.0 ], [ -89.337836606427217, 43.119135461860232, 0.0 ], [ -89.337843563406864, 43.119129343070959, 0.0 ], [ -89.337846664711023, 43.119121464081964, 0.0 ], [ -89.337840545921708, 43.119061784931368, 0.0 ], [ -89.337849179281989, 43.119047116600804, 0.0 ], [ -89.337853286414528, 43.119039321430868, 0.0 ], [ -89.337861333041587, 43.119010487683965, 0.0 ], [ -89.337865691631222, 43.118972517662577, 0.0 ], [ -89.337860830127397, 43.118888782449922, 0.0 ], [ -89.337864182888666, 43.118881825470268, 0.0 ], [ -89.337876923381486, 43.118851147704682, 0.0 ], [ -89.337879773228551, 43.118806723617858, 0.0 ], [ -89.337866865097681, 43.11879348021084, 0.0 ], [ -89.337881533428231, 43.118760287874274, 0.0 ], [ -89.337891843169132, 43.118691975363433, 0.0 ], [ -89.337901314719716, 43.118624920138096, 0.0 ], [ -89.337890250607529, 43.118582172431879, 0.0 ], [ -89.337906260042587, 43.118530791365458, 0.0 ], [ -89.337908355518366, 43.118458539360105, 0.0 ], [ -89.337904499842921, 43.118369942643589, 0.0 ], [ -89.337915312498012, 43.118262738102047, 0.0 ], [ -89.33791715651671, 43.118179254346451, 0.0 ], [ -89.337923191486993, 43.118097279333412, 0.0 ], [ -89.337917910887995, 43.117976496108739, 0.0 ], [ -89.337924951686659, 43.117929305993883, 0.0 ], [ -89.33793693780818, 43.11787432070907, 0.0 ], [ -89.337935596703673, 43.117848672085366, 0.0 ], [ -89.337930902837911, 43.117806846388532, 0.0 ], [ -89.337941715493002, 43.117714058720438, 0.0 ], [ -89.337957976385155, 43.117628647127134, 0.0 ], [ -89.337958311661282, 43.117599645742132, 0.0 ], [ -89.337958479299331, 43.117534685992553, 0.0 ], [ -89.337942637502351, 43.117466289662687, 0.0 ], [ -89.337941799312034, 43.11737073596651, 0.0 ], [ -89.337931405752101, 43.117356905826291, 0.0 ], [ -89.337916485964456, 43.117315750681698, 0.0 ], [ -89.337922185658613, 43.117283983268706, 0.0 ], [ -89.337935429065624, 43.117223549746839, 0.0 ], [ -89.337898213415542, 43.117173258327796, 0.0 ], [ -89.337967280297676, 43.117076531165203, 0.0 ], [ -89.33800022117714, 43.116932446249677, 0.0 ], [ -89.338001729919696, 43.11681635689078, 0.0 ], [ -89.33801312930801, 43.116746535637361, 0.0 ], [ -89.338010111822882, 43.116708397977938, 0.0 ], [ -89.338012626393819, 43.116648970284444, 0.0 ], [ -89.338018661364117, 43.116637235620004, 0.0 ], [ -89.338034000246921, 43.116554757692803, 0.0 ], [ -89.338012291117707, 43.116476805993308, 0.0 ], [ -89.338003238662282, 43.116467585899805, 0.0 ], [ -89.337999466805854, 43.116456354149555, 0.0 ], [ -89.338017739354768, 43.116428693869089, 0.0 ], [ -89.338044477625886, 43.116320148223032, 0.0 ], [ -89.338064929469624, 43.116203723587951, 0.0 ], [ -89.338050344958106, 43.11611370194791, 0.0 ], [ -89.338054368271628, 43.115981016420704, 0.0 ], [ -89.338059229775453, 43.115882361420375, 0.0 ], [ -89.338072640820542, 43.115742383637404, 0.0 ], [ -89.33807616121986, 43.115669628717882, 0.0 ], [ -89.338070629163781, 43.115553874635076, 0.0 ], [ -89.338067360221544, 43.115464775004362, 0.0 ], [ -89.338071718811193, 43.115453124158954, 0.0 ], [ -89.338091081007519, 43.115398893245448, 0.0 ], [ -89.338089236988822, 43.115292191618089, 0.0 ], [ -89.338074065744081, 43.115238882713911, 0.0 ], [ -89.338080519809523, 43.115205690377344, 0.0 ], [ -89.338106755166436, 43.115069903545972, 0.0 ], [ -89.338096277787471, 43.11496412392794, 0.0 ], [ -89.338110527022863, 43.114902349301566, 0.0 ], [ -89.338114382698336, 43.114896565788392, 0.0 ], [ -89.33812921866695, 43.114794055112611, 0.0 ], [ -89.338138774036565, 43.114686766751994, 0.0 ], [ -89.338148580863276, 43.114600936063518, 0.0 ], [ -89.338163584469953, 43.114560283833164, 0.0 ], [ -89.338163835927048, 43.114543100931634, 0.0 ], [ -89.338149167596484, 43.114523571097259, 0.0 ], [ -89.338144222273627, 43.114459030442816, 0.0 ], [ -89.33815612457613, 43.114356687405127, 0.0 ], [ -89.338155537842894, 43.114238670208429, 0.0 ], [ -89.338143300264278, 43.114197179787737, 0.0 ], [ -89.338144557549754, 43.114178236686584, 0.0 ], [ -89.338156292214194, 43.114080503695632, 0.0 ], [ -89.338159393518353, 43.113935580589761, 0.0 ] ] } }
]
}
