{
"type": "FeatureCollection",
"name": "R_5D1i6n5S3hJyaYb_human_hrt",
"features": [
{ "type": "Feature", "properties": { "id": 1, "hrt": 100, "maxHrt": [ 0 ] }, "geometry": { "type": "LineString", "coordinates": [ [ -89.330301040236066, 43.112211971620553, 0.0 ], [ -89.330313864547605, 43.112224293017917, 0.0 ], [ -89.330278576736106, 43.112267040723054, 0.0 ], [ -89.330272206489852, 43.112288414575623, 0.0 ] ] } },
{ "type": "Feature", "properties": { "id": 2, "hrt": 110, "maxHrt": [ 0 ] }, "geometry": { "type": "LineString", "coordinates": [ [ -89.330272206489852, 43.112288414575623, 0.0 ], [ -89.330264830415246, 43.112396708761977, 0.0 ] ] } },
{ "type": "Feature", "properties": { "id": 3, "hrt": 100, "maxHrt": [ 0 ] }, "geometry": { "type": "LineString", "coordinates": [ [ -89.330264830415246, 43.112396708761977, 0.0 ], [ -89.33031109851963, 43.11244163576189, 0.0 ] ] } },
{ "type": "Feature", "properties": { "id": 4, "hrt": 110, "maxHrt": [ 0 ] }, "geometry": { "type": "LineString", "coordinates": [ [ -89.33031109851963, 43.11244163576189, 0.0 ], [ -89.330314032185669, 43.11255638401353, 0.0 ], [ -89.330319228965507, 43.112600556642178, 0.0 ], [ -89.330286958639078, 43.112659313781982, 0.0 ], [ -89.330277990002898, 43.112668952970402, 0.0 ], [ -89.330277235631641, 43.112710443390093, 0.0 ], [ -89.330262232025319, 43.112722429511336, 0.0 ], [ -89.330265752424566, 43.112737097841531, 0.0 ], [ -89.33028612044879, 43.112777498613845, 0.0 ], [ -89.330292909790188, 43.11281488190108, 0.0 ], [ -89.330323503736025, 43.112858300158457, 0.0 ], [ -89.330358204814317, 43.112927450857953, 0.0 ], [ -89.330231805717546, 43.113687857095258, 0.0 ], [ -89.33036541325086, 43.113853734955008, 0.0 ], [ -89.330212024426544, 43.113809227050247, 0.0 ] ] } },
{ "type": "Feature", "properties": { "id": 5, "hrt": 120, "maxHrt": [ 0 ] }, "geometry": { "type": "LineString", "coordinates": [ [ -89.330212024426544, 43.113809227050247, 0.0 ], [ -89.330330293077424, 43.113925316406359, 0.0 ], [ -89.330382260875837, 43.113977451842821, 0.0 ], [ -89.330368514554962, 43.114001256447253, 0.0 ], [ -89.33037966248591, 43.114029084365107, 0.0 ], [ -89.330362144308708, 43.114076023021738, 0.0 ] ] } },
{ "type": "Feature", "properties": { "id": 6, "hrt": 110, "maxHrt": [ 0 ] }, "geometry": { "type": "LineString", "coordinates": [ [ -89.330362144308708, 43.114076023021738, 0.0 ], [ -89.330411178441068, 43.114092451551556, 0.0 ], [ -89.330431546465292, 43.114131175943271, 0.0 ], [ -89.330459793478298, 43.114192866749114, 0.0 ], [ -89.330462475687241, 43.114246091832968, 0.0 ], [ -89.330479742407363, 43.114264783476585, 0.0 ], [ -89.33048049677862, 43.114313063237688, 0.0 ] ] } },
{ "type": "Feature", "properties": { "id": 7, "hrt": 110, "maxHrt": [ 0 ] }, "geometry": { "type": "LineString", "coordinates": [ [ -89.33048049677862, 43.114313063237688, 0.0 ], [ -89.330469097390591, 43.114482712953773, 0.0 ], [ -89.330473791256253, 43.114580362123355, 0.0 ], [ -89.330459709659266, 43.114621852543046, 0.0 ] ] } },
{ "type": "Feature", "properties": { "id": 8, "hrt": 100, "maxHrt": [ 0 ] }, "geometry": { "type": "LineString", "coordinates": [ [ -89.330459709659266, 43.114621852543046, 0.0 ], [ -89.330482508435338, 43.114662001858271, 0.0 ], [ -89.330491309433455, 43.114789155326299, 0.0 ], [ -89.330483011349514, 43.114809104255365, 0.0 ], [ -89.330485861196522, 43.114819162538929, 0.0 ], [ -89.330488627224511, 43.11484891829447, 0.0 ], [ -89.330493404909191, 43.114871633251511, 0.0 ], [ -89.3305016191741, 43.114888229419392, 0.0 ], [ -89.330508911429689, 43.114904238854059, 0.0 ], [ -89.330505558668506, 43.114908429805546, 0.0 ], [ -89.330507989420369, 43.114908262167482, 0.0 ], [ -89.330507989420369, 43.114908262167482, 0.0 ], [ -89.330507905601337, 43.114906166691739, 0.0 ], [ -89.330505139573347, 43.114905663777563, 0.0 ], [ -89.33048032914057, 43.114903819758908, 0.0 ], [ -89.330475299998781, 43.114906250510771, 0.0 ], [ -89.330453590870093, 43.114939275208471, 0.0 ] ] } },
{ "type": "Feature", "properties": { "id": 9, "hrt": 90, "maxHrt": [ 0 ] }, "geometry": { "type": "LineString", "coordinates": [ [ -89.330453590870093, 43.114939275208471, 0.0 ], [ -89.330441437110792, 43.114940867770031, 0.0 ] ] } },
{ "type": "Feature", "properties": { "id": 10, "hrt": 100, "maxHrt": [ 0 ] }, "geometry": { "type": "LineString", "coordinates": [ [ -89.330441437110792, 43.114940867770031, 0.0 ], [ -89.330440347463409, 43.114940783951006, 0.0 ], [ -89.330440347463409, 43.114940867770031, 0.0 ], [ -89.33045392614622, 43.115012281583326, 0.0 ] ] } },
{ "type": "Feature", "properties": { "id": 11, "hrt": 100, "maxHrt": [ 0 ] }, "geometry": { "type": "LineString", "coordinates": [ [ -89.33045392614622, 43.115012281583326, 0.0 ], [ -89.330470773771182, 43.115147733135295, 0.0 ], [ -89.330472617789837, 43.11515485775282, 0.0 ], [ -89.330475551455876, 43.115156701771475, 0.0 ], [ -89.330461637496953, 43.115192408678119, 0.0 ], [ -89.330483598082722, 43.115242281000782, 0.0 ], [ -89.330477563112581, 43.115283017049208, 0.0 ], [ -89.330492566718902, 43.115403381175838, 0.0 ], [ -89.330496590032325, 43.115437076425771, 0.0 ], [ -89.330500529526716, 43.115487786938729, 0.0 ] ] } },
{ "type": "Feature", "properties": { "id": 12, "hrt": 110, "maxHrt": [ 0 ] }, "geometry": { "type": "LineString", "coordinates": [ [ -89.330500529526716, 43.115487786938729, 0.0 ], [ -89.330490303605103, 43.115626507432864, 0.0 ] ] } },
{ "type": "Feature", "properties": { "id": 13, "hrt": 100, "maxHrt": [ 0 ] }, "geometry": { "type": "LineString", "coordinates": [ [ -89.330490303605103, 43.115626507432864, 0.0 ], [ -89.330459877297329, 43.115727006449454, 0.0 ] ] } },
{ "type": "Feature", "properties": { "id": 14, "hrt": 110, "maxHrt": [ 0 ] }, "geometry": { "type": "LineString", "coordinates": [ [ -89.330459877297329, 43.115727006449454, 0.0 ], [ -89.33044587951936, 43.115814932611599, 0.0 ], [ -89.330443951681687, 43.115825326171276, 0.0 ], [ -89.330422996924256, 43.115899170736427, 0.0 ], [ -89.330433977217155, 43.115959017523629, 0.0 ], [ -89.330434647769394, 43.115990868754906, 0.0 ] ] } },
{ "type": "Feature", "properties": { "id": 15, "hrt": 100, "maxHrt": [ 0 ] }, "geometry": { "type": "LineString", "coordinates": [ [ -89.330434647769394, 43.115990868754906, 0.0 ], [ -89.330436072692891, 43.116115423833016, 0.0 ], [ -89.330451998308533, 43.116204272004488, 0.0 ] ] } },
{ "type": "Feature", "properties": { "id": 16, "hrt": 110, "maxHrt": [ 0 ] }, "geometry": { "type": "LineString", "coordinates": [ [ -89.330451998308533, 43.116204272004488, 0.0 ], [ -89.330499188422252, 43.116285660282308, 0.0 ], [ -89.330444119319736, 43.116351206763525, 0.0 ], [ -89.330446214795487, 43.116467799033821, 0.0 ], [ -89.330423583657463, 43.116499482627042, 0.0 ], [ -89.330447472080934, 43.11654457726501, 0.0 ], [ -89.330440598920489, 43.11664381899616, 0.0 ], [ -89.330435234502602, 43.116653793460692, 0.0 ], [ -89.33042551149515, 43.116673658570726, 0.0 ], [ -89.330427020237693, 43.11670115121246, 0.0 ], [ -89.330421572000759, 43.116817072930516, 0.0 ], [ -89.330415117935473, 43.116879099012486, 0.0 ], [ -89.330428948075365, 43.11694942317839, 0.0 ], [ -89.330491477071519, 43.117044641596117, 0.0 ], [ -89.330470689952151, 43.11716274260894, 0.0 ], [ -89.330470941409246, 43.117186044299196, 0.0 ], [ -89.330477898388708, 43.117268606043439, 0.0 ], [ -89.330477646931612, 43.117354352910802, 0.0 ], [ -89.330482927530483, 43.11736885360294, 0.0 ], [ -89.330481083511827, 43.117389892179389, 0.0 ], [ -89.330490722700247, 43.117410511660694, 0.0 ], [ -89.330498014955836, 43.117478069798622, 0.0 ], [ -89.330467169552904, 43.11757496459694, 0.0 ], [ -89.330478401302884, 43.117611677331936, 0.0 ], [ -89.330475802912957, 43.117672613766523, 0.0 ], [ -89.330480748235715, 43.117712679262709, 0.0 ], [ -89.330473539799158, 43.117719217147027, 0.0 ] ] } },
{ "type": "Feature", "properties": { "id": 17, "hrt": 110, "maxHrt": [ 0 ] }, "geometry": { "type": "LineString", "coordinates": [ [ -89.330473539799158, 43.117719217147027, 0.0 ], [ -89.330640926401443, 43.117826337866966, 0.0 ], [ -89.330641764591746, 43.117867576829568, 0.0 ], [ -89.330629359375351, 43.117953658973057, 0.0 ], [ -89.330629024099224, 43.118094391123897, 0.0 ], [ -89.330653918351047, 43.118133953705915, 0.0 ], [ -89.330694989675592, 43.118144011989472, 0.0 ], [ -89.330677890593535, 43.118213665603143, 0.0 ], [ -89.330676130393911, 43.118276110780258, 0.0 ], [ -89.330710915291235, 43.118273344752282, 0.0 ], [ -89.330756009929203, 43.118266136315725, 0.0 ], [ -89.330762883089633, 43.118274350580634, 0.0 ] ] } },
{ "type": "Feature", "properties": { "id": 18, "hrt": 100, "maxHrt": [ 0 ] }, "geometry": { "type": "LineString", "coordinates": [ [ -89.330762883089633, 43.118274350580634, 0.0 ], [ -89.330688535610307, 43.118285414692551, 0.0 ] ] } },
{ "type": "Feature", "properties": { "id": 19, "hrt": 110, "maxHrt": [ 0 ] }, "geometry": { "type": "LineString", "coordinates": [ [ -89.330688535610307, 43.118285414692551, 0.0 ], [ -89.330681746268894, 43.118453304209012, 0.0 ], [ -89.330710999110266, 43.118563190956934, 0.0 ], [ -89.330729523115821, 43.118664360525763, 0.0 ], [ -89.330736061000138, 43.118741054937928, 0.0 ], [ -89.330745364912431, 43.118758070200954, 0.0 ] ] } },
{ "type": "Feature", "properties": { "id": 20, "hrt": 100, "maxHrt": [ 0 ] }, "geometry": { "type": "LineString", "coordinates": [ [ -89.330745364912431, 43.118758070200954, 0.0 ], [ -89.330749807320998, 43.118848343295923, 0.0 ] ] } },
{ "type": "Feature", "properties": { "id": 21, "hrt": 110, "maxHrt": [ 0 ] }, "geometry": { "type": "LineString", "coordinates": [ [ -89.330749807320998, 43.118848343295923, 0.0 ], [ -89.330732540600891, 43.119130226692754, 0.0 ], [ -89.330712172576682, 43.11925444649475, 0.0 ], [ -89.330729187839708, 43.119363075957224, 0.0 ], [ -89.330697252789392, 43.119475141999914, 0.0 ], [ -89.330679650793158, 43.119539179738595, 0.0 ], [ -89.330662467892068, 43.119616377064936, 0.0 ], [ -89.330654924179399, 43.119623334044398, 0.0 ], [ -89.330665653015203, 43.119636325994001, 0.0 ] ] } },
{ "type": "Feature", "properties": { "id": 22, "hrt": 100, "maxHrt": [ 0 ] }, "geometry": { "type": "LineString", "coordinates": [ [ -89.330665653015203, 43.119636325994001, 0.0 ], [ -89.33068593722038, 43.119670021243934, 0.0 ], [ -89.330676717127119, 43.119763144185917, 0.0 ], [ -89.330666407386474, 43.119897170814383, 0.0 ], [ -89.330660707692445, 43.119913096430025, 0.0 ], [ -89.330660791511477, 43.119928435312453, 0.0 ], [ -89.330663473720435, 43.119940672890792, 0.0 ], [ -89.330649392123448, 43.119976882711612, 0.0 ], [ -89.33065727111223, 43.120005129724618, 0.0 ], [ -89.330652828703663, 43.120063383950246, 0.0 ], [ -89.330684428477852, 43.12006816163494, 0.0 ], [ -89.33079322557839, 43.120061120836446, 0.0 ], [ -89.330858017688328, 43.12006095319839, 0.0 ], [ -89.330889701281549, 43.120063132493158, 0.0 ], [ -89.330904788706889, 43.120061456112566, 0.0 ], [ -89.331052394018172, 43.120077717004328, 0.0 ], [ -89.331226653780888, 43.120077633185296, 0.0 ], [ -89.331253140594271, 43.120074783338289, 0.0 ], [ -89.331299241060591, 43.120078555194624, 0.0 ], [ -89.331299911612831, 43.120079896299096, 0.0 ], [ -89.331310305172508, 43.120076627356937, 0.0 ], [ -89.331338468366482, 43.120077297909177, 0.0 ], [ -89.331354477801156, 43.120078136099472, 0.0 ] ] } },
{ "type": "Feature", "properties": { "id": 23, "hrt": 110, "maxHrt": [ 0 ] }, "geometry": { "type": "LineString", "coordinates": [ [ -89.331354477801156, 43.120078136099472, 0.0 ], [ -89.33153234178215, 43.120088194383037, 0.0 ] ] } },
{ "type": "Feature", "properties": { "id": 24, "hrt": 110, "maxHrt": [ 0 ] }, "geometry": { "type": "LineString", "coordinates": [ [ -89.33153234178215, 43.120088194383037, 0.0 ], [ -89.33174071588995, 43.120080734489392, 0.0 ], [ -89.331772231845108, 43.12007570534761, 0.0 ], [ -89.331805088904744, 43.120074280424106, 0.0 ], [ -89.331913466910137, 43.120087691468861, 0.0 ], [ -89.332051768309114, 43.12009188242034, 0.0 ], [ -89.332138772461931, 43.120092385334523, 0.0 ], [ -89.332262573168776, 43.120096911562122, 0.0 ], [ -89.332303812131386, 43.120094899905411, 0.0 ], [ -89.332388469351358, 43.120109568235605, 0.0 ] ] } },
{ "type": "Feature", "properties": { "id": 25, "hrt": 100, "maxHrt": [ 0 ] }, "geometry": { "type": "LineString", "coordinates": [ [ -89.332388469351358, 43.120109568235605, 0.0 ], [ -89.332511180410819, 43.120105461103151, 0.0 ], [ -89.332588880651343, 43.120100683418457, 0.0 ], [ -89.332601956419978, 43.120101773065848, 0.0 ], [ -89.332712429901093, 43.120096660105034, 0.0 ], [ -89.33275584815847, 43.120098923218833, 0.0 ] ] } },
{ "type": "Feature", "properties": { "id": 26, "hrt": 110, "maxHrt": [ 0 ] }, "geometry": { "type": "LineString", "coordinates": [ [ -89.33275584815847, 43.120098923218833, 0.0 ], [ -89.333100009094366, 43.120099090856897, 0.0 ], [ -89.333208387099745, 43.120103533265471, 0.0 ], [ -89.333336127300996, 43.120115100291564, 0.0 ], [ -89.333513739824895, 43.12012121908073, 0.0 ], [ -89.333634606865701, 43.120130439173998, 0.0 ], [ -89.333813225217966, 43.120131109726238, 0.0 ], [ -89.333859744779431, 43.120131696459445, 0.0 ], [ -89.333904336503224, 43.120123398375505, 0.0 ], [ -89.333911796396876, 43.120124655660952, 0.0 ], [ -89.33399108919896, 43.120137144696372, 0.0 ], [ -89.334139197424406, 43.120142425295242, 0.0 ], [ -89.334304069455797, 43.120154998149694, 0.0 ], [ -89.33448713021663, 43.120138737257939, 0.0 ], [ -89.334687541516615, 43.120148124989264, 0.0 ], [ -89.334825842915592, 43.120155417244845, 0.0 ], [ -89.334889377740097, 43.120158770006029, 0.0 ], [ -89.335012675532766, 43.120168409194441, 0.0 ], [ -89.335048717715523, 43.120171426679512, 0.0 ], [ -89.335208392967075, 43.120176707278382, 0.0 ], [ -89.335226581696517, 43.120174779440703, 0.0 ], [ -89.335387430414485, 43.120181065867925, 0.0 ], [ -89.335579459811498, 43.120188944856714, 0.0 ], [ -89.335716084829883, 43.120195818017152, 0.0 ], [ -89.335809626867018, 43.120204283739149, 0.0 ], [ -89.335889841678423, 43.120209145242875, 0.0 ], [ -89.336055887176229, 43.12022507085851, 0.0 ], [ -89.336259902694493, 43.120246779987198, 0.0 ], [ -89.336439107779952, 43.120267483287535, 0.0 ], [ -89.33649677527238, 43.120279972322955, 0.0 ], [ -89.336586796910268, 43.120301849089707, 0.0 ], [ -89.336652175753414, 43.120324731684811, 0.0 ], [ -89.336712860730913, 43.120343088052309, 0.0 ], [ -89.336726607051773, 43.120347362822827, 0.0 ], [ -89.33686909940225, 43.120391535451468, 0.0 ], [ -89.33700756843929, 43.1204345346137, 0.0 ], [ -89.337139331953949, 43.120474600109887, 0.0 ], [ -89.337195574522866, 43.120473761919591, 0.0 ], [ -89.337248715787695, 43.120434115518549, 0.0 ], [ -89.33728308158986, 43.120415759151051, 0.0 ], [ -89.337418114046685, 43.120340741119477, 0.0 ], [ -89.337515511759179, 43.120322720028099, 0.0 ], [ -89.33763503769552, 43.120291623168086, 0.0 ], [ -89.33771181592671, 43.120236386427521, 0.0 ], [ -89.337722209486387, 43.120218700612256, 0.0 ], [ -89.337748528661706, 43.120153489407159, 0.0 ], [ -89.337744756805378, 43.120016277655566, 0.0 ], [ -89.337734949978895, 43.11991351552517, 0.0 ], [ -89.337732854503159, 43.119905133622204, 0.0 ], [ -89.337726903352049, 43.119894153329312, 0.0 ], [ -89.337716342154309, 43.119878479170758, 0.0 ], [ -89.337720868381908, 43.11986238591706, 0.0 ], [ -89.337723885866978, 43.11984956160552, 0.0 ], [ -89.337723215314739, 43.119851489443199, 0.0 ], [ -89.33772832827556, 43.119846963215601, 0.0 ], [ -89.337785995767973, 43.119734729534848, 0.0 ], [ -89.337780631350071, 43.119602798382125, 0.0 ], [ -89.337789013253044, 43.119444464235052, 0.0 ], [ -89.337799490631753, 43.119355029330372, 0.0 ], [ -89.337802172840711, 43.119203484524704, 0.0 ], [ -89.337827234730582, 43.119090747929775, 0.0 ], [ -89.337839639946978, 43.119042216711584, 0.0 ], [ -89.337850620239863, 43.118999720463535, 0.0 ], [ -89.33785942123798, 43.118911626663333, 0.0 ], [ -89.33786084616149, 43.118834764613112, 0.0 ], [ -89.337864366560737, 43.118808529256825, 0.0 ], [ -89.33786612676036, 43.11880634996205, 0.0 ], [ -89.337864366560737, 43.118784724652393, 0.0 ] ] } },
{ "type": "Feature", "properties": { "id": 27, "hrt": 110, "maxHrt": [ 0 ] }, "geometry": { "type": "LineString", "coordinates": [ [ -89.337864366560737, 43.118784724652393, 0.0 ], [ -89.337871910273407, 43.118553048854338, 0.0 ] ] } },
{ "type": "Feature", "properties": { "id": 28, "hrt": 100, "maxHrt": [ 0 ] }, "geometry": { "type": "LineString", "coordinates": [ [ -89.337871910273407, 43.118553048854338, 0.0 ], [ -89.33787593358683, 43.118367892617762, 0.0 ], [ -89.337888841717401, 43.118289186548893, 0.0 ] ] } },
{ "type": "Feature", "properties": { "id": 29, "hrt": 100, "maxHrt": [ 0 ] }, "geometry": { "type": "LineString", "coordinates": [ [ -89.337888841717401, 43.118289186548893, 0.0 ], [ -89.337884315489802, 43.118072849633272, 0.0 ], [ -89.337881717099876, 43.118047787743393, 0.0 ], [ -89.337880375995397, 43.117978301767785, 0.0 ] ] } },
{ "type": "Feature", "properties": { "id": 30, "hrt": 110, "maxHrt": [ 0 ] }, "geometry": { "type": "LineString", "coordinates": [ [ -89.337880375995397, 43.117978301767785, 0.0 ], [ -89.337891523926345, 43.117939158280919, 0.0 ], [ -89.337892110659553, 43.11792180774178, 0.0 ], [ -89.337896804525215, 43.117895656204517, 0.0 ], [ -89.337897223620374, 43.117882245159763, 0.0 ], [ -89.337893703221127, 43.117864056430321, 0.0 ], [ -89.337897810353581, 43.117823488019958, 0.0 ], [ -89.337908623008403, 43.117735058943637, 0.0 ], [ -89.337913400693097, 43.117689545210517, 0.0 ], [ -89.337910467027058, 43.117642522734862, 0.0 ], [ -89.337894457592384, 43.117587285994304, 0.0 ], [ -89.337883142023387, 43.117495923251944, 0.0 ], [ -89.337881046547636, 43.117422330143881, 0.0 ] ] } },
{ "type": "Feature", "properties": { "id": 31, "hrt": 100, "maxHrt": [ 0 ] }, "geometry": { "type": "LineString", "coordinates": [ [ -89.337881046547636, 43.117422330143881, 0.0 ], [ -89.337871910273407, 43.117337589104871, 0.0 ], [ -89.337876268862942, 43.117322836955644, 0.0 ], [ -89.33789705598231, 43.117279921612443, 0.0 ], [ -89.337894876687542, 43.117269444233735, 0.0 ] ] } },
{ "type": "Feature", "properties": { "id": 32, "hrt": 110, "maxHrt": [ 0 ] }, "geometry": { "type": "LineString", "coordinates": [ [ -89.337894876687542, 43.117269444233735, 0.0 ], [ -89.337888674079338, 43.11712812534968, 0.0 ], [ -89.337932092336715, 43.117072553333003, 0.0 ], [ -89.337945000467286, 43.117042210844254, 0.0 ], [ -89.33795346618929, 43.116957134529123, 0.0 ], [ -89.337952544179956, 43.11694447785564, 0.0 ], [ -89.337950281066156, 43.116842721553603, 0.0 ], [ -89.337946006295653, 43.116778599995889, 0.0 ], [ -89.337956148398234, 43.116744653288869, 0.0 ], [ -89.337931254146426, 43.116659744611802, 0.0 ], [ -89.337938378763951, 43.116614649973826, 0.0 ], [ -89.337950281066156, 43.116576260858231, 0.0 ] ] } },
{ "type": "Feature", "properties": { "id": 33, "hrt": 110, "maxHrt": [ 0 ] }, "geometry": { "type": "LineString", "coordinates": [ [ -89.337950281066156, 43.116576260858231, 0.0 ], [ -89.337975175317979, 43.116267387733842, 0.0 ], [ -89.337975762051187, 43.116158674452336, 0.0 ], [ -89.337974756222835, 43.11605926508313, 0.0 ], [ -89.337981545564233, 43.116026156566406, 0.0 ], [ -89.337992693495181, 43.115985252879916, 0.0 ], [ -89.338011468957831, 43.115890118281222, 0.0 ], [ -89.338017671566035, 43.115832618426857, 0.0 ], [ -89.338009708758207, 43.115793558759023, 0.0 ], [ -89.337997554998907, 43.115709655910308, 0.0 ] ] } },
{ "type": "Feature", "properties": { "id": 34, "hrt": 110, "maxHrt": [ 0 ] }, "geometry": { "type": "LineString", "coordinates": [ [ -89.337997554998907, 43.115709655910308, 0.0 ], [ -89.338007110368295, 43.115505388934963, 0.0 ], [ -89.338012390967165, 43.115428275427654, 0.0 ], [ -89.33800250032165, 43.115354011767351, 0.0 ], [ -89.338005350168672, 43.115255775864561, 0.0 ], [ -89.33800618835896, 43.115245466123909, 0.0 ], [ -89.338011636595894, 43.115205484446747, 0.0 ], [ -89.338011971872007, 43.115177488890836, 0.0 ], [ -89.338008786748887, 43.115148906601711, 0.0 ], [ -89.337995710980252, 43.115044887185874, 0.0 ], [ -89.338022533069747, 43.114944304350253, 0.0 ], [ -89.338021611060427, 43.114929803658114, 0.0 ], [ -89.338013648252598, 43.114849505027678, 0.0 ], [ -89.338012726243278, 43.114836429259043, 0.0 ], [ -89.338012726243278, 43.114768284387907, 0.0 ], [ -89.338020437594011, 43.114757723190166, 0.0 ], [ -89.338040470342108, 43.114666947181021, 0.0 ], [ -89.338036866123829, 43.114582792875218, 0.0 ], [ -89.338047594959633, 43.114506685196261, 0.0 ], [ -89.338060000176014, 43.114488496466819, 0.0 ], [ -89.33805798851931, 43.11446905045193, 0.0 ], [ -89.338056228319687, 43.114375927509947, 0.0 ], [ -89.33804147617046, 43.114312057409329, 0.0 ], [ -89.33803460301003, 43.114282217834763, 0.0 ], [ -89.338042314360763, 43.114192866749114, 0.0 ], [ -89.338034183914871, 43.114100330540346, 0.0 ], [ -89.338034267733903, 43.114083399096344, 0.0 ], [ -89.338019264127595, 43.114039226467703, 0.0 ], [ -89.338019767041772, 43.114006201770003, 0.0 ], [ -89.338043320189115, 43.113937051070515, 0.0 ], [ -89.338038291047326, 43.113804365546521, 0.0 ], [ -89.338016749556701, 43.113722306716461, 0.0 ], [ -89.337951705989667, 43.11362298116628, 0.0 ], [ -89.337934355450514, 43.113577635071223, 0.0 ], [ -89.337898229448726, 43.113500102468763, 0.0 ], [ -89.337822708502983, 43.113428940112563, 0.0 ], [ -89.337805274144799, 43.113403375308508, 0.0 ], [ -89.337755904736326, 43.113345791635112, 0.0 ], [ -89.337744672986346, 43.113319975373969, 0.0 ], [ -89.337741404044181, 43.113305223224742, 0.0 ], [ -89.337748696299769, 43.113279993696807, 0.0 ], [ -89.337727992999433, 43.113258787482302, 0.0 ], [ -89.337706786784921, 43.11323095956444, 0.0 ], [ -89.337685748208472, 43.113204472751065, 0.0 ], [ -89.337622632479125, 43.113132136928442, 0.0 ], [ -89.337595894208647, 43.113093747812847, 0.0 ], [ -89.33756001966394, 43.113050581012558, 0.0 ] ] } },
{ "type": "Feature", "properties": { "id": 35, "hrt": 100, "maxHrt": [ 0 ] }, "geometry": { "type": "LineString", "coordinates": [ [ -89.33756001966394, 43.113050581012558, 0.0 ], [ -89.337488857307747, 43.112979251018295, 0.0 ], [ -89.337476200634256, 43.112971539667562, 0.0 ], [ -89.337424651931002, 43.112903981529641, 0.0 ] ] } },
{ "type": "Feature", "properties": { "id": 36, "hrt": 110, "maxHrt": [ 0 ] }, "geometry": { "type": "LineString", "coordinates": [ [ -89.337424651931002, 43.112903981529641, 0.0 ], [ -89.337394393261292, 43.112869531908437, 0.0 ], [ -89.337351980832267, 43.112815971548471, 0.0 ] ] } },
{ "type": "Feature", "properties": { "id": 37, "hrt": 100, "maxHrt": [ 0 ] }, "geometry": { "type": "LineString", "coordinates": [ [ -89.337351980832267, 43.112815971548471, 0.0 ], [ -89.337044532631381, 43.112537273274761, 0.0 ], [ -89.336973370275174, 43.112454460073437, 0.0 ], [ -89.336942021958066, 43.112436858077203, 0.0 ], [ -89.336908326708141, 43.112419591357082, 0.0 ], [ -89.336891311445115, 43.112406264131366, 0.0 ] ] } },
{ "type": "Feature", "properties": { "id": 38, "hrt": 110, "maxHrt": [ 0 ] }, "geometry": { "type": "LineString", "coordinates": [ [ -89.336891311445115, 43.112406264131366, 0.0 ], [ -89.336822328383676, 43.1124001453422, 0.0 ], [ -89.336742113572271, 43.11239981006608, 0.0 ], [ -89.33665083464895, 43.112423698489536, 0.0 ], [ -89.336593502432635, 43.112430990745125, 0.0 ], [ -89.336501888233187, 43.112451526407398, 0.0 ], [ -89.336469785544821, 43.112402827551151, 0.0 ], [ -89.336455703947834, 43.112322864196827, 0.0 ], [ -89.336449836615756, 43.112250193098092, 0.0 ], [ -89.336435922656833, 43.112222448999262, 0.0 ], [ -89.33643282135273, 43.112200823689605, 0.0 ], [ -89.336422679250134, 43.112190597767984, 0.0 ], [ -89.336411112224042, 43.112158997993788, 0.0 ], [ -89.336400551026301, 43.112139635797931, 0.0 ], [ -89.336353696188709, 43.112078447906264, 0.0 ], [ -89.336277588509759, 43.112045590846627, 0.0 ], [ -89.336216065341958, 43.112007117912, 0.0 ], [ -89.336172060351373, 43.111971746281476, 0.0 ], [ -89.33620106173565, 43.111970153719909, 0.0 ], [ -89.336218747550916, 43.111968142063198, 0.0 ] ] } },
{ "type": "Feature", "properties": { "id": 39, "hrt": 100, "maxHrt": [ 0 ] }, "geometry": { "type": "LineString", "coordinates": [ [ -89.336218747550916, 43.111968142063198, 0.0 ], [ -89.336243306526612, 43.111983816221745, 0.0 ], [ -89.33622352523561, 43.111985157326224, 0.0 ], [ -89.33621547860875, 43.111980463460561, 0.0 ], [ -89.336203157211386, 43.111979038537058, 0.0 ], [ -89.336200894097587, 43.11197845180385, 0.0 ] ] } },
{ "type": "Feature", "properties": { "id": 40, "hrt": 110, "maxHrt": [ 0 ] }, "geometry": { "type": "LineString", "coordinates": [ [ -89.336200894097587, 43.11197845180385, 0.0 ], [ -89.336184800843895, 43.111970656634085, 0.0 ], [ -89.336151440870069, 43.111946349115478, 0.0 ], [ -89.336127971541757, 43.111928160386036, 0.0 ] ] } },
{ "type": "Feature", "properties": { "id": 41, "hrt": 120, "maxHrt": [ 0 ] }, "geometry": { "type": "LineString", "coordinates": [ [ -89.336127971541757, 43.111928160386036, 0.0 ], [ -89.335939714001086, 43.111886502328282, 0.0 ], [ -89.335883471432169, 43.111843838442176, 0.0 ], [ -89.335878777566506, 43.111841323871282, 0.0 ], [ -89.335798981850246, 43.111818106000058, 0.0 ], [ -89.335731004617173, 43.111769155686723, 0.0 ] ] } },
{ "type": "Feature", "properties": { "id": 42, "hrt": 130, "maxHrt": [ 0 ] }, "geometry": { "type": "LineString", "coordinates": [ [ -89.335731004617173, 43.111769155686723, 0.0 ], [ -89.335638049313246, 43.111674188726091, 0.0 ], [ -89.335580381820833, 43.111633452677658, 0.0 ], [ -89.335536209192185, 43.111603026369885, 0.0 ], [ -89.335474015472158, 43.111549466009919, 0.0 ], [ -89.335368403494755, 43.111496073288009, 0.0 ], [ -89.335353483707465, 43.111486266461533, 0.0 ], [ -89.335309059621736, 43.111443351118332, 0.0 ] ] } },
{ "type": "Feature", "properties": { "id": 43, "hrt": 140, "maxHrt": [ 0 ] }, "geometry": { "type": "LineString", "coordinates": [ [ -89.335309059621736, 43.111443351118332, 0.0 ], [ -89.335191545342113, 43.111345618129718, 0.0 ], [ -89.335136643877675, 43.111288872646625, 0.0 ] ] } },
{ "type": "Feature", "properties": { "id": 44, "hrt": 130, "maxHrt": [ 0 ] }, "geometry": { "type": "LineString", "coordinates": [ [ -89.335136643877675, 43.111288872646625, 0.0 ], [ -89.335039329984198, 43.111220392499369, 0.0 ], [ -89.335012088799559, 43.11118351212631, 0.0 ], [ -89.3349190496766, 43.111184266497574, 0.0 ] ] } },
{ "type": "Feature", "properties": { "id": 45, "hrt": 120, "maxHrt": [ 0 ] }, "geometry": { "type": "LineString", "coordinates": [ [ -89.3349190496766, 43.111184266497574, 0.0 ], [ -89.334842606721537, 43.111070272617205, 0.0 ], [ -89.334817125736507, 43.111045629822478, 0.0 ], [ -89.334811090766365, 43.111041187413903, 0.0 ], [ -89.334775467678753, 43.111008833268443, 0.0 ], [ -89.334699527637852, 43.110943035330138, 0.0 ] ] } },
{ "type": "Feature", "properties": { "id": 46, "hrt": 110, "maxHrt": [ 0 ] }, "geometry": { "type": "LineString", "coordinates": [ [ -89.334699527637852, 43.110943035330138, 0.0 ], [ -89.334673124643501, 43.110918643992498, 0.0 ], [ -89.33467513630022, 43.110917051430938, 0.0 ], [ -89.334585114662332, 43.110870028955283, 0.0 ], [ -89.334568602313496, 43.110864496899325, 0.0 ], [ -89.334550162126959, 43.110857707557919, 0.0 ], [ -89.334531219026246, 43.11084228485646, 0.0 ] ] } },
{ "type": "Feature", "properties": { "id": 47, "hrt": 100, "maxHrt": [ 0 ] }, "geometry": { "type": "LineString", "coordinates": [ [ -89.334531219026246, 43.11084228485646, 0.0 ], [ -89.334500289804296, 43.110808338149432, 0.0 ], [ -89.334418314793268, 43.110754274875291, 0.0 ], [ -89.334323850746813, 43.110704318733596, 0.0 ], [ -89.334307422216995, 43.110690153317577, 0.0 ], [ -89.334256544065965, 43.110672383683287, 0.0 ], [ -89.334202480791816, 43.110672132226199, 0.0 ], [ -89.33419351215565, 43.110674730616118, 0.0 ], [ -89.334120505780788, 43.110716556311928, 0.0 ], [ -89.334062000098072, 43.110754693970435, 0.0 ], [ -89.334029226857467, 43.110793250724093, 0.0 ], [ -89.333966614042282, 43.110828706173649, 0.0 ], [ -89.333882292098423, 43.110935994531644, 0.0 ], [ -89.333796042316877, 43.110998272070702, 0.0 ], [ -89.333739296833784, 43.111033978977346, 0.0 ] ] } },
{ "type": "Feature", "properties": { "id": 48, "hrt": 100, "maxHrt": [ 0 ] }, "geometry": { "type": "LineString", "coordinates": [ [ -89.333739296833784, 43.111033978977346, 0.0 ], [ -89.333671654876824, 43.111073122464212, 0.0 ], [ -89.333633768675398, 43.111128275385745, 0.0 ], [ -89.333597475035546, 43.111159623702846, 0.0 ], [ -89.333520361528244, 43.111203377236343, 0.0 ], [ -89.333439140888473, 43.111245286751185, 0.0 ], [ -89.333407792571364, 43.111275880697022, 0.0 ], [ -89.333369990188984, 43.111275042506726, 0.0 ], [ -89.333367978532266, 43.111277389439557, 0.0 ], [ -89.333292457586523, 43.111236904848219, 0.0 ], [ -89.333217523373989, 43.11116171917859, 0.0 ], [ -89.333223139248972, 43.111161635359558, 0.0 ], [ -89.333168992155791, 43.111126179910002, 0.0 ], [ -89.333098248894743, 43.111069602064966, 0.0 ], [ -89.333095482866767, 43.111035822996001, 0.0 ], [ -89.3331176110906, 43.110989219615497, 0.0 ], [ -89.333109732101804, 43.110964660639802, 0.0 ], [ -89.333038150650452, 43.110903640386191, 0.0 ], [ -89.332921223104051, 43.110862904337758, 0.0 ], [ -89.332780574772229, 43.110819066985236, 0.0 ], [ -89.332701449608209, 43.110812110005774, 0.0 ], [ -89.332576726892043, 43.110815714224046, 0.0 ], [ -89.332524256179454, 43.110813199653158, 0.0 ], [ -89.332457620050846, 43.110812445281887, 0.0 ], [ -89.332402299491264, 43.110815881862109, 0.0 ] ] } },
{ "type": "Feature", "properties": { "id": 49, "hrt": 110, "maxHrt": [ 0 ] }, "geometry": { "type": "LineString", "coordinates": [ [ -89.332402299491264, 43.110815881862109, 0.0 ], [ -89.332324683069771, 43.110805991216601, 0.0 ], [ -89.332161319780909, 43.110816971509493, 0.0 ], [ -89.331949509092894, 43.11080959543488, 0.0 ], [ -89.331774830235034, 43.110802973731538, 0.0 ], [ -89.331620435582352, 43.11080205172221, 0.0 ], [ -89.331459670683415, 43.110792244895734, 0.0 ], [ -89.331272251333033, 43.110795430018861, 0.0 ], [ -89.331169070107492, 43.110790568515142, 0.0 ], [ -89.331125232754971, 43.110789059772607, 0.0 ], [ -89.331086340725193, 43.110785707011416, 0.0 ], [ -89.331068822547991, 43.110784617364033, 0.0 ], [ -89.33101534600705, 43.110790233239022, 0.0 ], [ -89.330933873910197, 43.110790484696111, 0.0 ], [ -89.33091769683746, 43.110782018974113, 0.0 ], [ -89.330865309943917, 43.110778666212923, 0.0 ], [ -89.330729020201645, 43.110773469433084, 0.0 ], [ -89.330642938058162, 43.110779504403226, 0.0 ], [ -89.330612679388437, 43.110775061994651, 0.0 ], [ -89.330555430991168, 43.1107746428995, 0.0 ], [ -89.330448980823462, 43.110768188834214, 0.0 ], [ -89.330412184269434, 43.110783527716649, 0.0 ], [ -89.33042023089628, 43.110866173279916, 0.0 ], [ -89.330445292786152, 43.110970779428968, 0.0 ] ] } },
{ "type": "Feature", "properties": { "id": 50, "hrt": 100, "maxHrt": [ 0 ] }, "geometry": { "type": "LineString", "coordinates": [ [ -89.330445292786152, 43.110970779428968, 0.0 ], [ -89.330396677748936, 43.11114520682974, 0.0 ], [ -89.330327191773335, 43.111182254840863, 0.0 ], [ -89.330296514008467, 43.111204047788583, 0.0 ], [ -89.330291736323773, 43.111205556531118, 0.0 ] ] } }
]
}
