{
"type": "FeatureCollection",
"name": "human_GPS",
"features": [
{ "type": "Feature", "properties": { "id": 1 }, "geometry": { "type": "LineString", "coordinates": [ [ -89.330321392043629, 43.112181667349795, 0.0 ], [ -89.330303203313747, 43.112213015667649, 0.0 ], [ -89.330316027625585, 43.112225337065311, 0.0 ], [ -89.330280739813247, 43.112268084771493, 0.0 ], [ -89.330274369566837, 43.112289458624581, 0.0 ], [ -89.330270262434269, 43.112383000663982, 0.0 ], [ -89.330266993492046, 43.112397752813528, 0.0 ], [ -89.330297252162481, 43.112422060332754, 0.0 ], [ -89.330313261597553, 43.112442679814556, 0.0 ], [ -89.330304460599223, 43.112478638179176, 0.0 ], [ -89.330316195263663, 43.112557428068968, 0.0 ] ] } },
{ "type": "Feature", "properties": { "id": 2 }, "geometry": { "type": "LineString", "coordinates": [ [ -89.330321392043629, 43.112181667349795, 0.0 ], [ -89.330303203313747, 43.112213015667649, 0.0 ], [ -89.330316027625585, 43.112225337065311, 0.0 ], [ -89.330280739813247, 43.112268084771493, 0.0 ], [ -89.330274369566837, 43.112289458624581, 0.0 ], [ -89.330270262434269, 43.112383000663982, 0.0 ], [ -89.330266993492046, 43.112397752813528, 0.0 ], [ -89.330297252162481, 43.112422060332754, 0.0 ], [ -89.330313261597553, 43.112442679814556, 0.0 ], [ -89.330304460599223, 43.112478638179176, 0.0 ], [ -89.330316195263663, 43.112557428068968, 0.0 ], [ -89.330321392043629, 43.112601600698689, 0.0 ], [ -89.330289121716419, 43.112660357839914, 0.0 ], [ -89.330280153080025, 43.112669997028561, 0.0 ], [ -89.33027939870874, 43.112711487449261, 0.0 ], [ -89.330264395102049, 43.112723473570796, 0.0 ], [ -89.330267915501395, 43.112738141901346, 0.0 ], [ -89.330288283526087, 43.112778542674626, 0.0 ], [ -89.330295072867671, 43.112815925962778, 0.0 ], [ -89.330325666814247, 43.112859344221214, 0.0 ], [ -89.330360367893377, 43.112928494922372, 0.0 ], [ -89.330233968793536, 43.113688901178087, 0.0 ], [ -89.330367576330104, 43.113854779041873, 0.0 ], [ -89.330214187502065, 43.113810271136018, 0.0 ], [ -89.330269843339124, 43.113858969993458, 0.0 ], [ -89.330332456155801, 43.113926360494943, 0.0 ], [ -89.330384423955479, 43.113978495932706, 0.0 ], [ -89.330370677634278, 43.114002300537692, 0.0 ], [ -89.330381825565496, 43.114030128456236, 0.0 ], [ -89.330364307387867, 43.114077067113989, 0.0 ], [ -89.33040252886633, 43.114080084599124, 0.0 ], [ -89.330413341521421, 43.114093495644227, 0.0 ], [ -89.330433709546128, 43.114132220036851, 0.0 ], [ -89.330461956559802, 43.114193910844222, 0.0 ], [ -89.330464638768831, 43.114247135929347, 0.0 ], [ -89.330481905489364, 43.114265827573426, 0.0 ], [ -89.33048265986065, 43.114314107335694, 0.0 ], [ -89.33051199652175, 43.114385102055564, 0.0 ], [ -89.330467656253973, 43.114465568326004, 0.0 ], [ -89.330471260472336, 43.114483757055893, 0.0 ], [ -89.330475954338112, 43.114581406227849, 0.0 ], [ -89.33046187274077, 43.114622896648527, 0.0 ], [ -89.330482073127428, 43.114639995730997, 0.0 ], [ -89.330484671517397, 43.114663045964711, 0.0 ], [ -89.330493472515741, 43.114790199435838, 0.0 ], [ -89.330485174431587, 43.114810148365372, 0.0 ], [ -89.330488024278679, 43.114820206649185, 0.0 ], [ -89.330490790306726, 43.114849962405465, 0.0 ], [ -89.330495567991534, 43.114872677363039, 0.0 ], [ -89.330503782256642, 43.114889273531325, 0.0 ], [ -89.330511074512401, 43.114905282966383, 0.0 ], [ -89.330507721751133, 43.114909473917983, 0.0 ], [ -89.330510152503052, 43.114909306279898, 0.0 ], [ -89.330510152503052, 43.114909306279898, 0.0 ], [ -89.330510068684006, 43.114907210804127, 0.0 ], [ -89.330507302655974, 43.114906707889901, 0.0 ], [ -89.330482492222586, 43.11490486387121, 0.0 ], [ -89.330477463080669, 43.114907294623137, 0.0 ], [ -89.330455753951469, 43.11494031932164, 0.0 ], [ -89.330447288229266, 43.11494518082548, 0.0 ], [ -89.330443600191856, 43.114941911883243, 0.0 ], [ -89.330442426725426, 43.114941576607116, 0.0 ], [ -89.330442510544458, 43.114941828064211, 0.0 ], [ -89.330442510544458, 43.114941911883221, 0.0 ], [ -89.330456089227582, 43.115013325698264, 0.0 ], [ -89.33046187274077, 43.115096641815761, 0.0 ], [ -89.330482995136776, 43.115130420885571, 0.0 ], [ -89.330472936852971, 43.115148777253523, 0.0 ], [ -89.330474780871668, 43.115155901871205, 0.0 ], [ -89.330477714537778, 43.115157745889903, 0.0 ], [ -89.330463800578514, 43.115193452797421, 0.0 ], [ -89.330485761164823, 43.115243325121284, 0.0 ], [ -89.33047972619454, 43.115284061170705, 0.0 ], [ -89.330494729801202, 43.115404425300248, 0.0 ], [ -89.330498753114739, 43.115438120550991, 0.0 ], [ -89.33050269260923, 43.115488831065193, 0.0 ], [ -89.33049020357349, 43.115566950402759, 0.0 ], [ -89.33049246668736, 43.115627551562675, 0.0 ], [ -89.33049196377317, 43.115662923194058, 0.0 ], [ -89.330462040378848, 43.115728050581694, 0.0 ], [ -89.330453071742454, 43.115755375586041, 0.0 ], [ -89.330448042600551, 43.115815976745985, 0.0 ], [ -89.330446114762822, 43.115826370305882, 0.0 ], [ -89.330425160004893, 43.115900214872838, 0.0 ], [ -89.330436140298048, 43.115960061661475, 0.0 ], [ -89.330436810850301, 43.115991912893541, 0.0 ], [ -89.330435721202889, 43.116081515438431, 0.0 ], [ -89.33043823577384, 43.116116467974663, 0.0 ], [ -89.330454161389866, 43.116205316148267, 0.0 ], [ -89.330468829720417, 43.116241693608039, 0.0 ], [ -89.330501351504708, 43.116286704428063, 0.0 ], [ -89.330446282400871, 43.1163522509109, 0.0 ], [ -89.330448377876664, 43.116468843183995, 0.0 ], [ -89.330425746738115, 43.116500526777969, 0.0 ], [ -89.330449635162154, 43.116545621417046, 0.0 ], [ -89.330442762001553, 43.116644863150569, 0.0 ], [ -89.330437397583523, 43.116654837615371, 0.0 ], [ -89.330427674575844, 43.116674702725881, 0.0 ], [ -89.330429183318415, 43.116702195368276, 0.0 ], [ -89.330423735081354, 43.116818117089146, 0.0 ], [ -89.330417281015912, 43.116880143172615, 0.0 ], [ -89.330431111156145, 43.116950467340232, 0.0 ], [ -89.33049364015379, 43.117045685760253, 0.0 ], [ -89.330472853033939, 43.117163786775961, 0.0 ], [ -89.33047310449102, 43.117187088466757, 0.0 ], [ -89.330480061470666, 43.117269650213011, 0.0 ], [ -89.330479810013571, 43.117355397082463, 0.0 ], [ -89.330485090612569, 43.117369897774942, 0.0 ], [ -89.330483246593872, 43.117390936351917, 0.0 ], [ -89.330492885782505, 43.117411555833705, 0.0 ], [ -89.330500178038278, 43.11747911397326, 0.0 ], [ -89.330469332634593, 43.117576008773923, 0.0 ], [ -89.330480564384857, 43.117612721509815, 0.0 ], [ -89.330477965994874, 43.117673657945872, 0.0 ], [ -89.330482911317745, 43.117713723443046, 0.0 ], [ -89.330475702881017, 43.117720261327506, 0.0 ], [ -89.330538734792867, 43.117737025133884, 0.0 ], [ -89.330619871615568, 43.117778264097495, 0.0 ], [ -89.330643089487353, 43.117827382050059, 0.0 ], [ -89.33064392767767, 43.117868621013663, 0.0 ], [ -89.330631522460976, 43.117954703159242, 0.0 ], [ -89.330631187184849, 43.118095435313514, 0.0 ], [ -89.330656081437269, 43.118134997896469, 0.0 ], [ -89.330697152762809, 43.118145056180261, 0.0 ], [ -89.330680053680339, 43.11821470979563, 0.0 ], [ -89.330678293480673, 43.118277154974244, 0.0 ], [ -89.330713078378821, 43.118274388946226, 0.0 ], [ -89.330758173017898, 43.118267180509505, 0.0 ], [ -89.330765046178499, 43.118275394774592, 0.0 ], [ -89.3307235557578, 43.118282016478105, 0.0 ], [ -89.330690698697367, 43.118286458886764, 0.0 ], [ -89.330675108357468, 43.118328955135851, 0.0 ], [ -89.330683909355798, 43.118454348407312, 0.0 ], [ -89.330713162197867, 43.118564235157876, 0.0 ], [ -89.330731686203876, 43.118665404729178, 0.0 ], [ -89.330738224088336, 43.118742099143205, 0.0 ], [ -89.330747528000856, 43.118759114406622, 0.0 ], [ -89.330767141654292, 43.118795408047369, 0.0 ], [ -89.330751970409537, 43.118849387503793, 0.0 ], [ -89.330741828306714, 43.118967991433671, 0.0 ], [ -89.330734703689018, 43.119131270907445, 0.0 ], [ -89.330714335664311, 43.119255490712447, 0.0 ], [ -89.330731350927735, 43.119364120177558, 0.0 ], [ -89.330699415876666, 43.119476186222954, 0.0 ], [ -89.330681813880005, 43.119540223963178, 0.0 ], [ -89.33066463097849, 43.11961742129138, 0.0 ], [ -89.330657087265649, 43.119624378271006, 0.0 ], [ -89.330667816101695, 43.119637370220914, 0.0 ], [ -89.330687681212211, 43.119664108492053, 0.0 ], [ -89.330688100307384, 43.119671065471671, 0.0 ], [ -89.330678880213895, 43.119764188415928, 0.0 ], [ -89.330668570472994, 43.11989821504762, 0.0 ], [ -89.330662870778838, 43.11991414066366, 0.0 ], [ -89.330662954597869, 43.11992947954645, 0.0 ], [ -89.330665636806884, 43.119941717125073, 0.0 ], [ -89.330651555209556, 43.119977926946795, 0.0 ], [ -89.330659434198537, 43.120006173960491, 0.0 ], [ -89.330654991789856, 43.120064428187504, 0.0 ], [ -89.330686591564799, 43.120069205872333, 0.0 ], [ -89.330795388667966, 43.120062165073698, 0.0 ], [ -89.330860180779496, 43.120061997435648, 0.0 ], [ -89.330891864373484, 43.120064176730487, 0.0 ], [ -89.330906951799193, 43.120062500349832, 0.0 ], [ -89.33105455711403, 43.120078761242013, 0.0 ], [ -89.33122881688098, 43.120078677423017, 0.0 ], [ -89.331255303695002, 43.120075827575931, 0.0 ], [ -89.331301404162446, 43.120079599432373, 0.0 ], [ -89.331302074714699, 43.120080940536873, 0.0 ], [ -89.331312468274632, 43.120077671594629, 0.0 ], [ -89.331340631469288, 43.12007834214689, 0.0 ], [ -89.331356640904346, 43.120079180337221, 0.0 ], [ -89.331451272591138, 43.12008379038398, 0.0 ], [ -89.331534504889646, 43.120089238621055, 0.0 ], [ -89.331591418012181, 43.120087729878499, 0.0 ], [ -89.331610947846556, 43.120086304954967, 0.0 ], [ -89.331742879002491, 43.120081778727275, 0.0 ], [ -89.331774394958416, 43.120076749585373, 0.0 ], [ -89.331807252018848, 43.120075324661819, 0.0 ], [ -89.331915630026842, 43.120088735706929, 0.0 ], [ -89.332053931429172, 43.12009292665855, 0.0 ], [ -89.332140935584107, 43.120093429572748, 0.0 ], [ -89.332264736293936, 43.12009795580046, 0.0 ], [ -89.332305975257555, 43.120095944143721, 0.0 ], [ -89.332390632479587, 43.120110612474292, 0.0 ], [ -89.332405300810123, 43.120111283026553, 0.0 ], [ -89.332513343542004, 43.120106505341738, 0.0 ], [ -89.332591043784419, 43.120101727656966, 0.0 ], [ -89.332604119553366, 43.120102817304371, 0.0 ], [ -89.332714593037167, 43.120097704343451, 0.0 ], [ -89.332758011295596, 43.120099967457314, 0.0 ], [ -89.332944089546004, 43.120097285248342, 0.0 ], [ -89.333102172239819, 43.120100135095434, 0.0 ], [ -89.333210550247827, 43.120104577504144, 0.0 ], [ -89.333338290452161, 43.120116144530542, 0.0 ], [ -89.333515902980366, 43.120122263319885, 0.0 ], [ -89.3336367700241, 43.120131483413395, 0.0 ], [ -89.333815388380685, 43.120132153965685, 0.0 ], [ -89.333861907943273, 43.120132740698914, 0.0 ], [ -89.33390649966816, 43.120124442614795, 0.0 ], [ -89.333913959561983, 43.120125699900235, 0.0 ], [ -89.333993252365985, 43.120138188935996, 0.0 ], [ -89.334141360595012, 43.120143469535016, 0.0 ], [ -89.334306232630411, 43.120156042389794, 0.0 ], [ -89.334489293395677, 43.120139781497677, 0.0 ], [ -89.334689704700509, 43.120149169229251, 0.0 ], [ -89.334828006102839, 43.12015646148506, 0.0 ], [ -89.334891540928879, 43.120159814246357, 0.0 ], [ -89.335014838724533, 43.120169453435004, 0.0 ], [ -89.33505088090817, 43.120172470920146, 0.0 ], [ -89.335210556163574, 43.120177751519151, 0.0 ], [ -89.335228744893456, 43.12017582368145, 0.0 ], [ -89.335389593615332, 43.12018211010885, 0.0 ], [ -89.335581623016978, 43.120189989097881, 0.0 ], [ -89.33571824803866, 43.120196862258474, 0.0 ], [ -89.335811790078083, 43.120205327980699, 0.0 ], [ -89.335892004891434, 43.12021018948456, 0.0 ], [ -89.336058050393262, 43.120226115100628, 0.0 ], [ -89.336262065916458, 43.120247824229857, 0.0 ], [ -89.336441271006265, 43.120268527530726, 0.0 ], [ -89.336498938500085, 43.120281016566459, 0.0 ], [ -89.336588960140148, 43.120302893333765, 0.0 ], [ -89.336654338984886, 43.120325775929409, 0.0 ], [ -89.336715023963848, 43.120344132297383, 0.0 ], [ -89.336728770285049, 43.120348407068001, 0.0 ], [ -89.336871262638951, 43.120392579697736, 0.0 ], [ -89.337009731679359, 43.120435578861041, 0.0 ], [ -89.337141495197201, 43.120475644358216, 0.0 ], [ -89.337197737767497, 43.120474806167934, 0.0 ], [ -89.337250879033604, 43.120435159765897, 0.0 ], [ -89.337285244836593, 43.12041680339798, 0.0 ], [ -89.337420277296701, 43.120341785364609, 0.0 ], [ -89.337517675011554, 43.120323764272797, 0.0 ], [ -89.33763720095078, 43.120292667412066, 0.0 ], [ -89.337713979183832, 43.120237430670187, 0.0 ], [ -89.33772437274375, 43.120219744854488, 0.0 ], [ -89.337750691919723, 43.120154533647835, 0.0 ], [ -89.337746920063296, 43.120017321892895, 0.0 ], [ -89.337737113236585, 43.119914559760026, 0.0 ], [ -89.337735017760792, 43.119906177856855, 0.0 ], [ -89.33772906660954, 43.119895197563679, 0.0 ], [ -89.33771850541153, 43.119879523404748, 0.0 ], [ -89.337723031639243, 43.119863430150659, 0.0 ], [ -89.337726049124399, 43.119850605838806, 0.0 ], [ -89.337725378572145, 43.119852533676557, 0.0 ], [ -89.33773049153308, 43.11984800744883, 0.0 ], [ -89.337788159026886, 43.119735773765399, 0.0 ], [ -89.33778279460887, 43.119603842609465, 0.0 ], [ -89.337791176512042, 43.119445508458561, 0.0 ], [ -89.337801653890992, 43.1193560735517, 0.0 ], [ -89.337804336100021, 43.119204528742358, 0.0 ], [ -89.337829397990504, 43.119091792144715, 0.0 ] ] } },
{ "type": "Feature", "properties": { "id": 3 }, "geometry": { "type": "LineString", "coordinates": [ [ -89.330321392043629, 43.112181667349795, 0.0 ], [ -89.330303203313747, 43.112213015667649, 0.0 ], [ -89.330316027625585, 43.112225337065311, 0.0 ], [ -89.330280739813247, 43.112268084771493, 0.0 ], [ -89.330274369566837, 43.112289458624581, 0.0 ], [ -89.330270262434269, 43.112383000663982, 0.0 ], [ -89.330266993492046, 43.112397752813528, 0.0 ], [ -89.330297252162481, 43.112422060332754, 0.0 ], [ -89.330313261597553, 43.112442679814556, 0.0 ], [ -89.330304460599223, 43.112478638179176, 0.0 ], [ -89.330316195263663, 43.112557428068968, 0.0 ], [ -89.330321392043629, 43.112601600698689, 0.0 ], [ -89.330289121716419, 43.112660357839914, 0.0 ], [ -89.330280153080025, 43.112669997028561, 0.0 ], [ -89.33027939870874, 43.112711487449261, 0.0 ], [ -89.330264395102049, 43.112723473570796, 0.0 ], [ -89.330267915501395, 43.112738141901346, 0.0 ], [ -89.330288283526087, 43.112778542674626, 0.0 ], [ -89.330295072867671, 43.112815925962778, 0.0 ], [ -89.330325666814247, 43.112859344221214, 0.0 ], [ -89.330360367893377, 43.112928494922372, 0.0 ], [ -89.330233968793536, 43.113688901178087, 0.0 ], [ -89.330367576330104, 43.113854779041873, 0.0 ], [ -89.330214187502065, 43.113810271136018, 0.0 ], [ -89.330269843339124, 43.113858969993458, 0.0 ], [ -89.330332456155801, 43.113926360494943, 0.0 ], [ -89.330384423955479, 43.113978495932706, 0.0 ], [ -89.330370677634278, 43.114002300537692, 0.0 ], [ -89.330381825565496, 43.114030128456236, 0.0 ], [ -89.330364307387867, 43.114077067113989, 0.0 ], [ -89.33040252886633, 43.114080084599124, 0.0 ], [ -89.330413341521421, 43.114093495644227, 0.0 ], [ -89.330433709546128, 43.114132220036851, 0.0 ], [ -89.330461956559802, 43.114193910844222, 0.0 ], [ -89.330464638768831, 43.114247135929347, 0.0 ], [ -89.330481905489364, 43.114265827573426, 0.0 ], [ -89.33048265986065, 43.114314107335694, 0.0 ], [ -89.33051199652175, 43.114385102055564, 0.0 ], [ -89.330467656253973, 43.114465568326004, 0.0 ], [ -89.330471260472336, 43.114483757055893, 0.0 ], [ -89.330475954338112, 43.114581406227849, 0.0 ], [ -89.33046187274077, 43.114622896648527, 0.0 ], [ -89.330482073127428, 43.114639995730997, 0.0 ], [ -89.330484671517397, 43.114663045964711, 0.0 ], [ -89.330493472515741, 43.114790199435838, 0.0 ], [ -89.330485174431587, 43.114810148365372, 0.0 ], [ -89.330488024278679, 43.114820206649185, 0.0 ], [ -89.330490790306726, 43.114849962405465, 0.0 ], [ -89.330495567991534, 43.114872677363039, 0.0 ], [ -89.330503782256642, 43.114889273531325, 0.0 ], [ -89.330511074512401, 43.114905282966383, 0.0 ], [ -89.330507721751133, 43.114909473917983, 0.0 ], [ -89.330510152503052, 43.114909306279898, 0.0 ], [ -89.330510152503052, 43.114909306279898, 0.0 ], [ -89.330510068684006, 43.114907210804127, 0.0 ], [ -89.330507302655974, 43.114906707889901, 0.0 ], [ -89.330482492222586, 43.11490486387121, 0.0 ], [ -89.330477463080669, 43.114907294623137, 0.0 ], [ -89.330455753951469, 43.11494031932164, 0.0 ], [ -89.330447288229266, 43.11494518082548, 0.0 ], [ -89.330443600191856, 43.114941911883243, 0.0 ], [ -89.330442426725426, 43.114941576607116, 0.0 ], [ -89.330442510544458, 43.114941828064211, 0.0 ], [ -89.330442510544458, 43.114941911883221, 0.0 ], [ -89.330456089227582, 43.115013325698264, 0.0 ], [ -89.33046187274077, 43.115096641815761, 0.0 ], [ -89.330482995136776, 43.115130420885571, 0.0 ], [ -89.330472936852971, 43.115148777253523, 0.0 ], [ -89.330474780871668, 43.115155901871205, 0.0 ], [ -89.330477714537778, 43.115157745889903, 0.0 ], [ -89.330463800578514, 43.115193452797421, 0.0 ], [ -89.330485761164823, 43.115243325121284, 0.0 ], [ -89.33047972619454, 43.115284061170705, 0.0 ], [ -89.330494729801202, 43.115404425300248, 0.0 ], [ -89.330498753114739, 43.115438120550991, 0.0 ], [ -89.33050269260923, 43.115488831065193, 0.0 ], [ -89.33049020357349, 43.115566950402759, 0.0 ], [ -89.33049246668736, 43.115627551562675, 0.0 ], [ -89.33049196377317, 43.115662923194058, 0.0 ], [ -89.330462040378848, 43.115728050581694, 0.0 ], [ -89.330453071742454, 43.115755375586041, 0.0 ], [ -89.330448042600551, 43.115815976745985, 0.0 ], [ -89.330446114762822, 43.115826370305882, 0.0 ], [ -89.330425160004893, 43.115900214872838, 0.0 ], [ -89.330436140298048, 43.115960061661475, 0.0 ], [ -89.330436810850301, 43.115991912893541, 0.0 ], [ -89.330435721202889, 43.116081515438431, 0.0 ], [ -89.33043823577384, 43.116116467974663, 0.0 ], [ -89.330454161389866, 43.116205316148267, 0.0 ], [ -89.330468829720417, 43.116241693608039, 0.0 ], [ -89.330501351504708, 43.116286704428063, 0.0 ], [ -89.330446282400871, 43.1163522509109, 0.0 ], [ -89.330448377876664, 43.116468843183995, 0.0 ], [ -89.330425746738115, 43.116500526777969, 0.0 ], [ -89.330449635162154, 43.116545621417046, 0.0 ], [ -89.330442762001553, 43.116644863150569, 0.0 ], [ -89.330437397583523, 43.116654837615371, 0.0 ], [ -89.330427674575844, 43.116674702725881, 0.0 ], [ -89.330429183318415, 43.116702195368276, 0.0 ], [ -89.330423735081354, 43.116818117089146, 0.0 ], [ -89.330417281015912, 43.116880143172615, 0.0 ], [ -89.330431111156145, 43.116950467340232, 0.0 ], [ -89.33049364015379, 43.117045685760253, 0.0 ], [ -89.330472853033939, 43.117163786775961, 0.0 ], [ -89.33047310449102, 43.117187088466757, 0.0 ], [ -89.330480061470666, 43.117269650213011, 0.0 ], [ -89.330479810013571, 43.117355397082463, 0.0 ], [ -89.330485090612569, 43.117369897774942, 0.0 ], [ -89.330483246593872, 43.117390936351917, 0.0 ], [ -89.330492885782505, 43.117411555833705, 0.0 ], [ -89.330500178038278, 43.11747911397326, 0.0 ], [ -89.330469332634593, 43.117576008773923, 0.0 ], [ -89.330480564384857, 43.117612721509815, 0.0 ], [ -89.330477965994874, 43.117673657945872, 0.0 ], [ -89.330482911317745, 43.117713723443046, 0.0 ], [ -89.330475702881017, 43.117720261327506, 0.0 ], [ -89.330538734792867, 43.117737025133884, 0.0 ], [ -89.330619871615568, 43.117778264097495, 0.0 ], [ -89.330643089487353, 43.117827382050059, 0.0 ], [ -89.33064392767767, 43.117868621013663, 0.0 ], [ -89.330631522460976, 43.117954703159242, 0.0 ], [ -89.330631187184849, 43.118095435313514, 0.0 ], [ -89.330656081437269, 43.118134997896469, 0.0 ], [ -89.330697152762809, 43.118145056180261, 0.0 ], [ -89.330680053680339, 43.11821470979563, 0.0 ], [ -89.330678293480673, 43.118277154974244, 0.0 ], [ -89.330713078378821, 43.118274388946226, 0.0 ], [ -89.330758173017898, 43.118267180509505, 0.0 ], [ -89.330765046178499, 43.118275394774592, 0.0 ], [ -89.3307235557578, 43.118282016478105, 0.0 ], [ -89.330690698697367, 43.118286458886764, 0.0 ], [ -89.330675108357468, 43.118328955135851, 0.0 ], [ -89.330683909355798, 43.118454348407312, 0.0 ], [ -89.330713162197867, 43.118564235157876, 0.0 ], [ -89.330731686203876, 43.118665404729178, 0.0 ], [ -89.330738224088336, 43.118742099143205, 0.0 ], [ -89.330747528000856, 43.118759114406622, 0.0 ], [ -89.330767141654292, 43.118795408047369, 0.0 ], [ -89.330751970409537, 43.118849387503793, 0.0 ], [ -89.330741828306714, 43.118967991433671, 0.0 ], [ -89.330734703689018, 43.119131270907445, 0.0 ], [ -89.330714335664311, 43.119255490712447, 0.0 ], [ -89.330731350927735, 43.119364120177558, 0.0 ], [ -89.330699415876666, 43.119476186222954, 0.0 ], [ -89.330681813880005, 43.119540223963178, 0.0 ], [ -89.33066463097849, 43.11961742129138, 0.0 ], [ -89.330657087265649, 43.119624378271006, 0.0 ], [ -89.330667816101695, 43.119637370220914, 0.0 ], [ -89.330687681212211, 43.119664108492053, 0.0 ], [ -89.330688100307384, 43.119671065471671, 0.0 ], [ -89.330678880213895, 43.119764188415928, 0.0 ], [ -89.330668570472994, 43.11989821504762, 0.0 ], [ -89.330662870778838, 43.11991414066366, 0.0 ], [ -89.330662954597869, 43.11992947954645, 0.0 ], [ -89.330665636806884, 43.119941717125073, 0.0 ], [ -89.330651555209556, 43.119977926946795, 0.0 ], [ -89.330659434198537, 43.120006173960491, 0.0 ], [ -89.330654991789856, 43.120064428187504, 0.0 ], [ -89.330686591564799, 43.120069205872333, 0.0 ], [ -89.330795388667966, 43.120062165073698, 0.0 ], [ -89.330860180779496, 43.120061997435648, 0.0 ], [ -89.330891864373484, 43.120064176730487, 0.0 ], [ -89.330906951799193, 43.120062500349832, 0.0 ], [ -89.33105455711403, 43.120078761242013, 0.0 ], [ -89.33122881688098, 43.120078677423017, 0.0 ], [ -89.331255303695002, 43.120075827575931, 0.0 ], [ -89.331301404162446, 43.120079599432373, 0.0 ], [ -89.331302074714699, 43.120080940536873, 0.0 ], [ -89.331312468274632, 43.120077671594629, 0.0 ], [ -89.331340631469288, 43.12007834214689, 0.0 ], [ -89.331356640904346, 43.120079180337221, 0.0 ], [ -89.331451272591138, 43.12008379038398, 0.0 ], [ -89.331534504889646, 43.120089238621055, 0.0 ], [ -89.331591418012181, 43.120087729878499, 0.0 ], [ -89.331610947846556, 43.120086304954967, 0.0 ], [ -89.331742879002491, 43.120081778727275, 0.0 ], [ -89.331774394958416, 43.120076749585373, 0.0 ], [ -89.331807252018848, 43.120075324661819, 0.0 ], [ -89.331915630026842, 43.120088735706929, 0.0 ], [ -89.332053931429172, 43.12009292665855, 0.0 ], [ -89.332140935584107, 43.120093429572748, 0.0 ], [ -89.332264736293936, 43.12009795580046, 0.0 ], [ -89.332305975257555, 43.120095944143721, 0.0 ], [ -89.332390632479587, 43.120110612474292, 0.0 ], [ -89.332405300810123, 43.120111283026553, 0.0 ], [ -89.332513343542004, 43.120106505341738, 0.0 ], [ -89.332591043784419, 43.120101727656966, 0.0 ], [ -89.332604119553366, 43.120102817304371, 0.0 ], [ -89.332714593037167, 43.120097704343451, 0.0 ], [ -89.332758011295596, 43.120099967457314, 0.0 ], [ -89.332944089546004, 43.120097285248342, 0.0 ], [ -89.333102172239819, 43.120100135095434, 0.0 ], [ -89.333210550247827, 43.120104577504144, 0.0 ], [ -89.333338290452161, 43.120116144530542, 0.0 ], [ -89.333515902980366, 43.120122263319885, 0.0 ], [ -89.3336367700241, 43.120131483413395, 0.0 ], [ -89.333815388380685, 43.120132153965685, 0.0 ], [ -89.333861907943273, 43.120132740698914, 0.0 ], [ -89.33390649966816, 43.120124442614795, 0.0 ], [ -89.333913959561983, 43.120125699900235, 0.0 ], [ -89.333993252365985, 43.120138188935996, 0.0 ], [ -89.334141360595012, 43.120143469535016, 0.0 ], [ -89.334306232630411, 43.120156042389794, 0.0 ], [ -89.334489293395677, 43.120139781497677, 0.0 ], [ -89.334689704700509, 43.120149169229251, 0.0 ], [ -89.334828006102839, 43.12015646148506, 0.0 ], [ -89.334891540928879, 43.120159814246357, 0.0 ], [ -89.335014838724533, 43.120169453435004, 0.0 ], [ -89.33505088090817, 43.120172470920146, 0.0 ], [ -89.335210556163574, 43.120177751519151, 0.0 ], [ -89.335228744893456, 43.12017582368145, 0.0 ], [ -89.335389593615332, 43.12018211010885, 0.0 ], [ -89.335581623016978, 43.120189989097881, 0.0 ], [ -89.33571824803866, 43.120196862258474, 0.0 ], [ -89.335811790078083, 43.120205327980699, 0.0 ], [ -89.335892004891434, 43.12021018948456, 0.0 ], [ -89.336058050393262, 43.120226115100628, 0.0 ], [ -89.336262065916458, 43.120247824229857, 0.0 ], [ -89.336441271006265, 43.120268527530726, 0.0 ], [ -89.336498938500085, 43.120281016566459, 0.0 ], [ -89.336588960140148, 43.120302893333765, 0.0 ], [ -89.336654338984886, 43.120325775929409, 0.0 ], [ -89.336715023963848, 43.120344132297383, 0.0 ], [ -89.336728770285049, 43.120348407068001, 0.0 ], [ -89.336871262638951, 43.120392579697736, 0.0 ], [ -89.337009731679359, 43.120435578861041, 0.0 ], [ -89.337141495197201, 43.120475644358216, 0.0 ], [ -89.337197737767497, 43.120474806167934, 0.0 ], [ -89.337250879033604, 43.120435159765897, 0.0 ], [ -89.337285244836593, 43.12041680339798, 0.0 ], [ -89.337420277296701, 43.120341785364609, 0.0 ], [ -89.337517675011554, 43.120323764272797, 0.0 ], [ -89.33763720095078, 43.120292667412066, 0.0 ], [ -89.337713979183832, 43.120237430670187, 0.0 ], [ -89.33772437274375, 43.120219744854488, 0.0 ], [ -89.337750691919723, 43.120154533647835, 0.0 ], [ -89.337746920063296, 43.120017321892895, 0.0 ], [ -89.337737113236585, 43.119914559760026, 0.0 ], [ -89.337735017760792, 43.119906177856855, 0.0 ], [ -89.33772906660954, 43.119895197563679, 0.0 ], [ -89.33771850541153, 43.119879523404748, 0.0 ], [ -89.337723031639243, 43.119863430150659, 0.0 ], [ -89.337726049124399, 43.119850605838806, 0.0 ], [ -89.337725378572145, 43.119852533676557, 0.0 ], [ -89.33773049153308, 43.11984800744883, 0.0 ], [ -89.337788159026886, 43.119735773765399, 0.0 ], [ -89.33778279460887, 43.119603842609465, 0.0 ], [ -89.337791176512042, 43.119445508458561, 0.0 ], [ -89.337801653890992, 43.1193560735517, 0.0 ], [ -89.337804336100021, 43.119204528742358, 0.0 ], [ -89.337829397990504, 43.119091792144715, 0.0 ], [ -89.337841803207198, 43.119043260925359, 0.0 ], [ -89.337852783500352, 43.119000764676265, 0.0 ], [ -89.337861584498683, 43.118912670873932, 0.0 ], [ -89.337863009422222, 43.118835808821864, 0.0 ], [ -89.33786652982154, 43.118809573464951, 0.0 ], [ -89.33786829002122, 43.118807394170112, 0.0 ], [ -89.33786652982154, 43.118785768859929, 0.0 ], [ -89.337873738258281, 43.118736734726369, 0.0 ], [ -89.337887149303342, 43.118622154110042, 0.0 ], [ -89.337874073534408, 43.118554093056247, 0.0 ], [ -89.337887149303342, 43.118462395035571, 0.0 ], [ -89.337878096847916, 43.118368936815202, 0.0 ], [ -89.337891004978815, 43.118290230744421, 0.0 ], [ -89.337884047999182, 43.11817221354778, 0.0 ], [ -89.337885472922721, 43.118111696206874, 0.0 ], [ -89.337886478751102, 43.118073893823592, 0.0 ], [ -89.337883880361119, 43.118048831933073, 0.0 ], [ -89.337882539256611, 43.117979345955789, 0.0 ], [ -89.337887987493673, 43.117950512208893, 0.0 ], [ -89.33789368718783, 43.117940202467992, 0.0 ], [ -89.337894273921037, 43.117922851928434, 0.0 ], [ -89.337898967786828, 43.117896700390524, 0.0 ], [ -89.337899386881986, 43.117883289345457, 0.0 ], [ -89.33789586648264, 43.117865100615568, 0.0 ], [ -89.337899973615208, 43.117824532204239, 0.0 ], [ -89.337910786270299, 43.117736103125786, 0.0 ], [ -89.337915563955107, 43.117690589391543, 0.0 ], [ -89.337912630288997, 43.117643566914765, 0.0 ], [ -89.33789662085394, 43.117588330172858, 0.0 ], [ -89.337885305284644, 43.117496967428281, 0.0 ], [ -89.337883209808851, 43.117423374318456, 0.0 ], [ -89.337876169010201, 43.117376351841628, 0.0 ], [ -89.337874073534408, 43.117338633277349, 0.0 ], [ -89.337878432124043, 43.117323881127788, 0.0 ], [ -89.337899219243923, 43.117280965783543, 0.0 ], [ -89.337897039949098, 43.117270488404586, 0.0 ], [ -89.337884718551436, 43.117210138701765, 0.0 ], [ -89.337890837340737, 43.117129169517128, 0.0 ], [ -89.337934255599166, 43.1170735974991, 0.0 ], [ -89.337947163730064, 43.117043255009612, 0.0 ], [ -89.337955629452253, 43.116958178692435, 0.0 ], [ -89.337954707442918, 43.116945522018646, 0.0 ], [ -89.337952444329048, 43.116843765714123, 0.0 ], [ -89.33794816955843, 43.116779644154889, 0.0 ], [ -89.337958311661282, 43.116745697447016, 0.0 ], [ -89.337933417408863, 43.116660788767902, 0.0 ], [ -89.337940542026558, 43.116615694128832, 0.0 ], [ -89.337952444329062, 43.116577305012328, 0.0 ], [ -89.337932243942419, 43.116494910904144, 0.0 ], [ -89.337940961121717, 43.116403967254712, 0.0 ], [ -89.337977338581481, 43.116268431880428, 0.0 ], [ -89.337977925314689, 43.116159718596315, 0.0 ], [ -89.337976919486323, 43.116060309224693, 0.0 ], [ -89.337983708827892, 43.116027200707165, 0.0 ], [ -89.337994856759096, 43.11598629701971, 0.0 ], [ -89.338013632222214, 43.115891162418698, 0.0 ], [ -89.338019834830561, 43.115833662562956, 0.0 ], [ -89.338011872022548, 43.115794602894184, 0.0 ], [ -89.33799971826295, 43.115710700043415, 0.0 ], [ -89.337987899779478, 43.115607351177296, 0.0 ], [ -89.338005501776124, 43.115527136363937, 0.0 ], [ -89.338009273632565, 43.115506433063125, 0.0 ], [ -89.338014554231563, 43.115429319553954, 0.0 ], [ -89.338004663585806, 43.115355055891847, 0.0 ], [ -89.338007513432885, 43.115256819986698, 0.0 ], [ -89.338008351623202, 43.115246510245761, 0.0 ], [ -89.338013799860278, 43.115206528567647, 0.0 ], [ -89.338014135136405, 43.115178533011054, 0.0 ], [ -89.338010950013199, 43.115149950721232, 0.0 ], [ -89.337997874244252, 43.115045931302859, 0.0 ], [ -89.338024696334401, 43.114945348464829, 0.0 ], [ -89.338023774325052, 43.114930847772328, 0.0 ], [ -89.338015811517025, 43.114850549139959, 0.0 ], [ -89.33801488950769, 43.114837473370997, 0.0 ], [ -89.33801488950769, 43.114769328498227, 0.0 ], [ -89.338022600858608, 43.114758767300231, 0.0 ], [ -89.338042633607188, 43.11466799128889, 0.0 ], [ -89.338039029388824, 43.114583836981041, 0.0 ], [ -89.338049758224884, 43.11450772930025, 0.0 ], [ -89.338062163441577, 43.114489540570375, 0.0 ], [ -89.338060151784816, 43.114470094554996, 0.0 ], [ -89.338058391585136, 43.114376971610774, 0.0 ], [ -89.338043639435568, 43.114313101508579, 0.0 ], [ -89.338036766274968, 43.114283261933295, 0.0 ], [ -89.338044477625886, 43.114193910845515, 0.0 ], [ -89.338036347179809, 43.114101374634494, 0.0 ], [ -89.338036430998827, 43.114084443190087, 0.0 ], [ -89.33802142739215, 43.114040270560345, 0.0 ], [ -89.338021930306354, 43.114007245861849, 0.0 ], [ -89.338045483454266, 43.113938095160712, 0.0 ], [ -89.338040454312363, 43.113805409633493, 0.0 ], [ -89.338018912821212, 43.113723350801465, 0.0 ], [ -89.337953869252587, 43.113624025248832, 0.0 ], [ -89.337936518713036, 43.113578679152688, 0.0 ], [ -89.337900392710353, 43.113501146548359, 0.0 ], [ -89.337824871762791, 43.113429984190411, 0.0 ], [ -89.337807437404194, 43.113404419385731, 0.0 ], [ -89.337758067994514, 43.113346835710928, 0.0 ], [ -89.33774683624425, 43.113321019449145, 0.0 ], [ -89.337743567302027, 43.113306267299599, 0.0 ], [ -89.337750859557772, 43.113281037771031, 0.0 ], [ -89.337730156256939, 43.113259831556014, 0.0 ], [ -89.337708950041929, 43.113232003637492, 0.0 ], [ -89.337687911464968, 43.113205516823449, 0.0 ], [ -89.337624795734087, 43.113133180999078, 0.0 ], [ -89.337598057462969, 43.113094791882538, 0.0 ], [ -89.337562182917395, 43.113051625081205, 0.0 ], [ -89.337533349170485, 43.113013906516919, 0.0 ], [ -89.337491020559469, 43.112980295085237, 0.0 ], [ -89.33747836388568, 43.11297258373429, 0.0 ], [ -89.337426815181161, 43.112905025594728, 0.0 ], [ -89.337415248154798, 43.112890524902227, 0.0 ], [ -89.337396556510726, 43.112870575972664, 0.0 ], [ -89.337354144080678, 43.112817015611398, 0.0 ], [ -89.337345845996524, 43.112808382251139, 0.0 ], [ -89.337280299513736, 43.112751720585678, 0.0 ], [ -89.337223218753138, 43.11268592264576, 0.0 ], [ -89.337160438298383, 43.112636385598023, 0.0 ], [ -89.337122049181858, 43.112613251545234, 0.0 ], [ -89.337046695872345, 43.112538317330902, 0.0 ], [ -89.336975533514405, 43.112455504127546, 0.0 ], [ -89.336944185196558, 43.112437902130871, 0.0 ], [ -89.336910489945808, 43.112420635410331, 0.0 ], [ -89.336893474682356, 43.112407308184288, 0.0 ], [ -89.336884757503057, 43.112402698137551, 0.0 ], [ -89.336824491619268, 43.112401189394973, 0.0 ], [ -89.336744276805916, 43.112400854118818, 0.0 ], [ -89.336652997880378, 43.112424742542863, 0.0 ], [ -89.336595665662671, 43.11243203479858, 0.0 ], [ -89.33650405146102, 43.112452570461343, 0.0 ], [ -89.336471948771873, 43.112403871603917, 0.0 ], [ -89.336457867174545, 43.112323908247667, 0.0 ], [ -89.336451999842311, 43.112251237147156, 0.0 ], [ -89.33643808588306, 43.112223493047651, 0.0 ], [ -89.336434984578887, 43.112201867737475, 0.0 ], [ -89.336424842476049, 43.112191641815585, 0.0 ], [ -89.336413275449672, 43.112160042040664, 0.0 ], [ -89.336402714251662, 43.112140679844316, 0.0 ], [ -89.336355859412933, 43.112079491951157, 0.0 ], [ -89.33627975173215, 43.11204663489071, 0.0 ], [ -89.336218228562856, 43.112008161955146, 0.0 ], [ -89.33617422357122, 43.111972790323755, 0.0 ], [ -89.336203224956193, 43.111971197762152, 0.0 ], [ -89.336220910771871, 43.111969186105405, 0.0 ], [ -89.336245050653019, 43.111970275752817, 0.0 ], [ -89.336245469748164, 43.111984860264329, 0.0 ], [ -89.336225688456693, 43.11198620136885, 0.0 ], [ -89.336217641829649, 43.111981507503053, 0.0 ], [ -89.336205320431986, 43.111980082579507, 0.0 ], [ -89.33620305731813, 43.111979495846299, 0.0 ], [ -89.336197357623959, 43.111976394542097, 0.0 ], [ -89.336186964064041, 43.111971700676349, 0.0 ], [ -89.336153604089418, 43.111947393157159, 0.0 ], [ -89.336130134760538, 43.111929204427256, 0.0 ], [ -89.336075400932828, 43.111919900514707, 0.0 ], [ -89.335941877215291, 43.11188754636845, 0.0 ], [ -89.335885634645024, 43.111844882481314, 0.0 ], [ -89.335880940779248, 43.111842367910342, 0.0 ], [ -89.335801145061055, 43.111819150038571, 0.0 ], [ -89.335733167826334, 43.111770199724049, 0.0 ], [ -89.335684804245034, 43.1117329002549, 0.0 ], [ -89.335640212520161, 43.111675232761087, 0.0 ], [ -89.335582545026341, 43.111634496711638, 0.0 ], [ -89.335538372396627, 43.111604070403118, 0.0 ], [ -89.335476178675094, 43.111550510041866, 0.0 ], [ -89.335370566695133, 43.111497117318649, 0.0 ], [ -89.335355646907487, 43.111487310491938, 0.0 ], [ -89.335311222820678, 43.111444395147672, 0.0 ], [ -89.335262691601301, 43.111406089850149, 0.0 ], [ -89.335193708538213, 43.111346662156656, 0.0 ], [ -89.335138807072425, 43.111289916672199, 0.0 ], [ -89.335085498168269, 43.111245576404407, 0.0 ], [ -89.335041493176618, 43.11122143652328, 0.0 ], [ -89.335014251991311, 43.11118455614929, 0.0 ], [ -89.334921212866092, 43.111185310520575, 0.0 ], [ -89.334868742152238, 43.111113142334268, 0.0 ], [ -89.334844769909182, 43.111071316637428, 0.0 ], [ -89.334819288923526, 43.111046673842118, 0.0 ], [ -89.334813253953243, 43.111042231433409, 0.0 ], [ -89.334777630864778, 43.111009877287174, 0.0 ], [ -89.334701690822044, 43.110944079347263, 0.0 ], [ -89.334675204008022, 43.110921112932587, 0.0 ], [ -89.334675287827039, 43.110919688009034, 0.0 ], [ -89.334677299483815, 43.110918095447438, 0.0 ], [ -89.334587277843752, 43.11087107297061, 0.0 ], [ -89.33457076549449, 43.110865540914538, 0.0 ], [ -89.334552325307527, 43.110858751572948, 0.0 ], [ -89.334533382206359, 43.110843328871113, 0.0 ], [ -89.334516115485826, 43.110822877027374, 0.0 ], [ -89.334502452983642, 43.110809382163254, 0.0 ], [ -89.334420477970639, 43.110755318887783, 0.0 ], [ -89.334326013921896, 43.110705362744866, 0.0 ], [ -89.334309585391679, 43.110691197328528, 0.0 ], [ -89.334258707239414, 43.110673427693754, 0.0 ], [ -89.334204643963972, 43.110673176236681, 0.0 ], [ -89.334195675327564, 43.110675774626621, 0.0 ], [ -89.334122668950926, 43.110717600323468, 0.0 ], [ -89.334064163266802, 43.110755737982892, 0.0 ], [ -89.334031390025416, 43.110794294737474, 0.0 ], [ -89.333968777208725, 43.110829750187875, 0.0 ], [ -89.333884455262819, 43.11093703854845, 0.0 ], [ -89.333798205479184, 43.110999316088993, 0.0 ], [ -89.333741459994698, 43.111035022996504, 0.0 ], [ -89.333718661218086, 43.111048014946434, 0.0 ], [ -89.333688654004732, 43.111063270010192, 0.0 ], [ -89.333673818036118, 43.111074166484308, 0.0 ], [ -89.333635931833783, 43.111129319407162, 0.0 ], [ -89.33359963819305, 43.111160667725031, 0.0 ], [ -89.333522524683872, 43.111204421259572, 0.0 ], [ -89.333441304042125, 43.111246330775415, 0.0 ], [ -89.333409955724278, 43.111276924721963, 0.0 ], [ -89.333372153340974, 43.111276086531653, 0.0 ], [ -89.333370141684199, 43.111278433464562, 0.0 ], [ -89.333294620736638, 43.111237948872237, 0.0 ], [ -89.333219686522284, 43.111162763200767, 0.0 ], [ -89.333225302397395, 43.111162679381728, 0.0 ], [ -89.333171155302921, 43.111127223931291, 0.0 ], [ -89.333100412040139, 43.111070646084883, 0.0 ], [ -89.333097646012106, 43.111036867015102, 0.0 ], [ -89.333119774236479, 43.110990263633468, 0.0 ], [ -89.333111895247498, 43.110965704657168, 0.0 ], [ -89.333040313794399, 43.11090468440208, 0.0 ], [ -89.33292338624517, 43.110863948352637, 0.0 ], [ -89.332782737909938, 43.110820110999022, 0.0 ], [ -89.332703612743998, 43.110813154019368, 0.0 ], [ -89.33257889002482, 43.110816758237732, 0.0 ], [ -89.332526419310966, 43.110814243666766, 0.0 ], [ -89.332459783180738, 43.110813489295474, 0.0 ], [ -89.332404462619806, 43.110816925875767, 0.0 ], [ -89.332356937228838, 43.11081105854354, 0.0 ], [ -89.332326846196452, 43.110807035229989, 0.0 ], [ -89.332163482903638, 43.110818015523144, 0.0 ], [ -89.331951672210494, 43.11081063944831, 0.0 ], [ -89.331776993348399, 43.110804017744769, 0.0 ], [ -89.331622598691965, 43.110803095735399, 0.0 ], [ -89.331461833789149, 43.110793288908667, 0.0 ], [ -89.331274414434233, 43.110796474031829, 0.0 ], [ -89.331171233206192, 43.110791612527976, 0.0 ], [ -89.331127395852604, 43.110790103785398, 0.0 ], [ -89.331088503821888, 43.110786751024122, 0.0 ] ] } },
{ "type": "Feature", "properties": { "id": 4 }, "geometry": { "type": "LineString", "coordinates": [ [ -89.330321392043629, 43.112181667349795, 0.0 ], [ -89.330303203313747, 43.112213015667649, 0.0 ], [ -89.330316027625585, 43.112225337065311, 0.0 ], [ -89.330280739813247, 43.112268084771493, 0.0 ], [ -89.330274369566837, 43.112289458624581, 0.0 ], [ -89.330270262434269, 43.112383000663982, 0.0 ], [ -89.330266993492046, 43.112397752813528, 0.0 ], [ -89.330297252162481, 43.112422060332754, 0.0 ], [ -89.330313261597553, 43.112442679814556, 0.0 ], [ -89.330304460599223, 43.112478638179176, 0.0 ], [ -89.330316195263663, 43.112557428068968, 0.0 ], [ -89.330321392043629, 43.112601600698689, 0.0 ], [ -89.330289121716419, 43.112660357839914, 0.0 ], [ -89.330280153080025, 43.112669997028561, 0.0 ], [ -89.33027939870874, 43.112711487449261, 0.0 ], [ -89.330264395102049, 43.112723473570796, 0.0 ], [ -89.330267915501395, 43.112738141901346, 0.0 ], [ -89.330288283526087, 43.112778542674626, 0.0 ], [ -89.330295072867671, 43.112815925962778, 0.0 ], [ -89.330325666814247, 43.112859344221214, 0.0 ], [ -89.330360367893377, 43.112928494922372, 0.0 ], [ -89.330233968793536, 43.113688901178087, 0.0 ], [ -89.330367576330104, 43.113854779041873, 0.0 ], [ -89.330214187502065, 43.113810271136018, 0.0 ], [ -89.330269843339124, 43.113858969993458, 0.0 ], [ -89.330332456155801, 43.113926360494943, 0.0 ], [ -89.330384423955479, 43.113978495932706, 0.0 ], [ -89.330370677634278, 43.114002300537692, 0.0 ], [ -89.330381825565496, 43.114030128456236, 0.0 ], [ -89.330364307387867, 43.114077067113989, 0.0 ], [ -89.33040252886633, 43.114080084599124, 0.0 ], [ -89.330413341521421, 43.114093495644227, 0.0 ], [ -89.330433709546128, 43.114132220036851, 0.0 ], [ -89.330461956559802, 43.114193910844222, 0.0 ], [ -89.330464638768831, 43.114247135929347, 0.0 ], [ -89.330481905489364, 43.114265827573426, 0.0 ], [ -89.33048265986065, 43.114314107335694, 0.0 ], [ -89.33051199652175, 43.114385102055564, 0.0 ], [ -89.330467656253973, 43.114465568326004, 0.0 ], [ -89.330471260472336, 43.114483757055893, 0.0 ], [ -89.330475954338112, 43.114581406227849, 0.0 ], [ -89.33046187274077, 43.114622896648527, 0.0 ], [ -89.330482073127428, 43.114639995730997, 0.0 ], [ -89.330484671517397, 43.114663045964711, 0.0 ], [ -89.330493472515741, 43.114790199435838, 0.0 ], [ -89.330485174431587, 43.114810148365372, 0.0 ], [ -89.330488024278679, 43.114820206649185, 0.0 ], [ -89.330490790306726, 43.114849962405465, 0.0 ], [ -89.330495567991534, 43.114872677363039, 0.0 ], [ -89.330503782256642, 43.114889273531325, 0.0 ], [ -89.330511074512401, 43.114905282966383, 0.0 ], [ -89.330507721751133, 43.114909473917983, 0.0 ], [ -89.330510152503052, 43.114909306279898, 0.0 ], [ -89.330510152503052, 43.114909306279898, 0.0 ], [ -89.330510068684006, 43.114907210804127, 0.0 ], [ -89.330507302655974, 43.114906707889901, 0.0 ], [ -89.330482492222586, 43.11490486387121, 0.0 ], [ -89.330477463080669, 43.114907294623137, 0.0 ], [ -89.330455753951469, 43.11494031932164, 0.0 ], [ -89.330447288229266, 43.11494518082548, 0.0 ], [ -89.330443600191856, 43.114941911883243, 0.0 ], [ -89.330442426725426, 43.114941576607116, 0.0 ], [ -89.330442510544458, 43.114941828064211, 0.0 ], [ -89.330442510544458, 43.114941911883221, 0.0 ], [ -89.330456089227582, 43.115013325698264, 0.0 ], [ -89.33046187274077, 43.115096641815761, 0.0 ], [ -89.330482995136776, 43.115130420885571, 0.0 ], [ -89.330472936852971, 43.115148777253523, 0.0 ], [ -89.330474780871668, 43.115155901871205, 0.0 ], [ -89.330477714537778, 43.115157745889903, 0.0 ], [ -89.330463800578514, 43.115193452797421, 0.0 ], [ -89.330485761164823, 43.115243325121284, 0.0 ], [ -89.33047972619454, 43.115284061170705, 0.0 ], [ -89.330494729801202, 43.115404425300248, 0.0 ], [ -89.330498753114739, 43.115438120550991, 0.0 ], [ -89.33050269260923, 43.115488831065193, 0.0 ], [ -89.33049020357349, 43.115566950402759, 0.0 ], [ -89.33049246668736, 43.115627551562675, 0.0 ], [ -89.33049196377317, 43.115662923194058, 0.0 ], [ -89.330462040378848, 43.115728050581694, 0.0 ], [ -89.330453071742454, 43.115755375586041, 0.0 ], [ -89.330448042600551, 43.115815976745985, 0.0 ], [ -89.330446114762822, 43.115826370305882, 0.0 ], [ -89.330425160004893, 43.115900214872838, 0.0 ], [ -89.330436140298048, 43.115960061661475, 0.0 ], [ -89.330436810850301, 43.115991912893541, 0.0 ], [ -89.330435721202889, 43.116081515438431, 0.0 ], [ -89.33043823577384, 43.116116467974663, 0.0 ], [ -89.330454161389866, 43.116205316148267, 0.0 ], [ -89.330468829720417, 43.116241693608039, 0.0 ], [ -89.330501351504708, 43.116286704428063, 0.0 ], [ -89.330446282400871, 43.1163522509109, 0.0 ], [ -89.330448377876664, 43.116468843183995, 0.0 ], [ -89.330425746738115, 43.116500526777969, 0.0 ], [ -89.330449635162154, 43.116545621417046, 0.0 ], [ -89.330442762001553, 43.116644863150569, 0.0 ], [ -89.330437397583523, 43.116654837615371, 0.0 ], [ -89.330427674575844, 43.116674702725881, 0.0 ], [ -89.330429183318415, 43.116702195368276, 0.0 ], [ -89.330423735081354, 43.116818117089146, 0.0 ], [ -89.330417281015912, 43.116880143172615, 0.0 ], [ -89.330431111156145, 43.116950467340232, 0.0 ], [ -89.33049364015379, 43.117045685760253, 0.0 ], [ -89.330472853033939, 43.117163786775961, 0.0 ], [ -89.33047310449102, 43.117187088466757, 0.0 ], [ -89.330480061470666, 43.117269650213011, 0.0 ], [ -89.330479810013571, 43.117355397082463, 0.0 ], [ -89.330485090612569, 43.117369897774942, 0.0 ], [ -89.330483246593872, 43.117390936351917, 0.0 ], [ -89.330492885782505, 43.117411555833705, 0.0 ], [ -89.330500178038278, 43.11747911397326, 0.0 ], [ -89.330469332634593, 43.117576008773923, 0.0 ], [ -89.330480564384857, 43.117612721509815, 0.0 ], [ -89.330477965994874, 43.117673657945872, 0.0 ], [ -89.330482911317745, 43.117713723443046, 0.0 ], [ -89.330475702881017, 43.117720261327506, 0.0 ], [ -89.330538734792867, 43.117737025133884, 0.0 ], [ -89.330619871615568, 43.117778264097495, 0.0 ], [ -89.330643089487353, 43.117827382050059, 0.0 ], [ -89.33064392767767, 43.117868621013663, 0.0 ], [ -89.330631522460976, 43.117954703159242, 0.0 ], [ -89.330631187184849, 43.118095435313514, 0.0 ], [ -89.330656081437269, 43.118134997896469, 0.0 ], [ -89.330697152762809, 43.118145056180261, 0.0 ], [ -89.330680053680339, 43.11821470979563, 0.0 ], [ -89.330678293480673, 43.118277154974244, 0.0 ], [ -89.330713078378821, 43.118274388946226, 0.0 ], [ -89.330758173017898, 43.118267180509505, 0.0 ], [ -89.330765046178499, 43.118275394774592, 0.0 ], [ -89.3307235557578, 43.118282016478105, 0.0 ], [ -89.330690698697367, 43.118286458886764, 0.0 ], [ -89.330675108357468, 43.118328955135851, 0.0 ], [ -89.330683909355798, 43.118454348407312, 0.0 ], [ -89.330713162197867, 43.118564235157876, 0.0 ], [ -89.330731686203876, 43.118665404729178, 0.0 ], [ -89.330738224088336, 43.118742099143205, 0.0 ], [ -89.330747528000856, 43.118759114406622, 0.0 ], [ -89.330767141654292, 43.118795408047369, 0.0 ], [ -89.330751970409537, 43.118849387503793, 0.0 ], [ -89.330741828306714, 43.118967991433671, 0.0 ], [ -89.330734703689018, 43.119131270907445, 0.0 ], [ -89.330714335664311, 43.119255490712447, 0.0 ], [ -89.330731350927735, 43.119364120177558, 0.0 ], [ -89.330699415876666, 43.119476186222954, 0.0 ], [ -89.330681813880005, 43.119540223963178, 0.0 ], [ -89.33066463097849, 43.11961742129138, 0.0 ], [ -89.330657087265649, 43.119624378271006, 0.0 ], [ -89.330667816101695, 43.119637370220914, 0.0 ], [ -89.330687681212211, 43.119664108492053, 0.0 ], [ -89.330688100307384, 43.119671065471671, 0.0 ], [ -89.330678880213895, 43.119764188415928, 0.0 ], [ -89.330668570472994, 43.11989821504762, 0.0 ], [ -89.330662870778838, 43.11991414066366, 0.0 ], [ -89.330662954597869, 43.11992947954645, 0.0 ], [ -89.330665636806884, 43.119941717125073, 0.0 ], [ -89.330651555209556, 43.119977926946795, 0.0 ], [ -89.330659434198537, 43.120006173960491, 0.0 ], [ -89.330654991789856, 43.120064428187504, 0.0 ], [ -89.330686591564799, 43.120069205872333, 0.0 ], [ -89.330795388667966, 43.120062165073698, 0.0 ], [ -89.330860180779496, 43.120061997435648, 0.0 ], [ -89.330891864373484, 43.120064176730487, 0.0 ], [ -89.330906951799193, 43.120062500349832, 0.0 ], [ -89.33105455711403, 43.120078761242013, 0.0 ], [ -89.33122881688098, 43.120078677423017, 0.0 ], [ -89.331255303695002, 43.120075827575931, 0.0 ], [ -89.331301404162446, 43.120079599432373, 0.0 ], [ -89.331302074714699, 43.120080940536873, 0.0 ], [ -89.331312468274632, 43.120077671594629, 0.0 ], [ -89.331340631469288, 43.12007834214689, 0.0 ], [ -89.331356640904346, 43.120079180337221, 0.0 ], [ -89.331451272591138, 43.12008379038398, 0.0 ], [ -89.331534504889646, 43.120089238621055, 0.0 ], [ -89.331591418012181, 43.120087729878499, 0.0 ], [ -89.331610947846556, 43.120086304954967, 0.0 ], [ -89.331742879002491, 43.120081778727275, 0.0 ], [ -89.331774394958416, 43.120076749585373, 0.0 ], [ -89.331807252018848, 43.120075324661819, 0.0 ], [ -89.331915630026842, 43.120088735706929, 0.0 ], [ -89.332053931429172, 43.12009292665855, 0.0 ], [ -89.332140935584107, 43.120093429572748, 0.0 ], [ -89.332264736293936, 43.12009795580046, 0.0 ], [ -89.332305975257555, 43.120095944143721, 0.0 ], [ -89.332390632479587, 43.120110612474292, 0.0 ], [ -89.332405300810123, 43.120111283026553, 0.0 ], [ -89.332513343542004, 43.120106505341738, 0.0 ], [ -89.332591043784419, 43.120101727656966, 0.0 ], [ -89.332604119553366, 43.120102817304371, 0.0 ], [ -89.332714593037167, 43.120097704343451, 0.0 ], [ -89.332758011295596, 43.120099967457314, 0.0 ], [ -89.332944089546004, 43.120097285248342, 0.0 ], [ -89.333102172239819, 43.120100135095434, 0.0 ], [ -89.333210550247827, 43.120104577504144, 0.0 ], [ -89.333338290452161, 43.120116144530542, 0.0 ], [ -89.333515902980366, 43.120122263319885, 0.0 ], [ -89.3336367700241, 43.120131483413395, 0.0 ], [ -89.333815388380685, 43.120132153965685, 0.0 ], [ -89.333861907943273, 43.120132740698914, 0.0 ], [ -89.33390649966816, 43.120124442614795, 0.0 ], [ -89.333913959561983, 43.120125699900235, 0.0 ], [ -89.333993252365985, 43.120138188935996, 0.0 ], [ -89.334141360595012, 43.120143469535016, 0.0 ], [ -89.334306232630411, 43.120156042389794, 0.0 ], [ -89.334489293395677, 43.120139781497677, 0.0 ], [ -89.334689704700509, 43.120149169229251, 0.0 ], [ -89.334828006102839, 43.12015646148506, 0.0 ], [ -89.334891540928879, 43.120159814246357, 0.0 ], [ -89.335014838724533, 43.120169453435004, 0.0 ], [ -89.33505088090817, 43.120172470920146, 0.0 ], [ -89.335210556163574, 43.120177751519151, 0.0 ], [ -89.335228744893456, 43.12017582368145, 0.0 ], [ -89.335389593615332, 43.12018211010885, 0.0 ], [ -89.335581623016978, 43.120189989097881, 0.0 ], [ -89.33571824803866, 43.120196862258474, 0.0 ], [ -89.335811790078083, 43.120205327980699, 0.0 ], [ -89.335892004891434, 43.12021018948456, 0.0 ], [ -89.336058050393262, 43.120226115100628, 0.0 ], [ -89.336262065916458, 43.120247824229857, 0.0 ], [ -89.336441271006265, 43.120268527530726, 0.0 ], [ -89.336498938500085, 43.120281016566459, 0.0 ], [ -89.336588960140148, 43.120302893333765, 0.0 ], [ -89.336654338984886, 43.120325775929409, 0.0 ], [ -89.336715023963848, 43.120344132297383, 0.0 ], [ -89.336728770285049, 43.120348407068001, 0.0 ], [ -89.336871262638951, 43.120392579697736, 0.0 ], [ -89.337009731679359, 43.120435578861041, 0.0 ], [ -89.337141495197201, 43.120475644358216, 0.0 ], [ -89.337197737767497, 43.120474806167934, 0.0 ], [ -89.337250879033604, 43.120435159765897, 0.0 ], [ -89.337285244836593, 43.12041680339798, 0.0 ], [ -89.337420277296701, 43.120341785364609, 0.0 ], [ -89.337517675011554, 43.120323764272797, 0.0 ], [ -89.33763720095078, 43.120292667412066, 0.0 ], [ -89.337713979183832, 43.120237430670187, 0.0 ], [ -89.33772437274375, 43.120219744854488, 0.0 ], [ -89.337750691919723, 43.120154533647835, 0.0 ], [ -89.337746920063296, 43.120017321892895, 0.0 ], [ -89.337737113236585, 43.119914559760026, 0.0 ], [ -89.337735017760792, 43.119906177856855, 0.0 ], [ -89.33772906660954, 43.119895197563679, 0.0 ], [ -89.33771850541153, 43.119879523404748, 0.0 ], [ -89.337723031639243, 43.119863430150659, 0.0 ], [ -89.337726049124399, 43.119850605838806, 0.0 ], [ -89.337725378572145, 43.119852533676557, 0.0 ], [ -89.33773049153308, 43.11984800744883, 0.0 ], [ -89.337788159026886, 43.119735773765399, 0.0 ], [ -89.33778279460887, 43.119603842609465, 0.0 ], [ -89.337791176512042, 43.119445508458561, 0.0 ], [ -89.337801653890992, 43.1193560735517, 0.0 ], [ -89.337804336100021, 43.119204528742358, 0.0 ], [ -89.337829397990504, 43.119091792144715, 0.0 ], [ -89.337841803207198, 43.119043260925359, 0.0 ], [ -89.337852783500352, 43.119000764676265, 0.0 ], [ -89.337861584498683, 43.118912670873932, 0.0 ], [ -89.337863009422222, 43.118835808821864, 0.0 ], [ -89.33786652982154, 43.118809573464951, 0.0 ], [ -89.33786829002122, 43.118807394170112, 0.0 ], [ -89.33786652982154, 43.118785768859929, 0.0 ], [ -89.337873738258281, 43.118736734726369, 0.0 ], [ -89.337887149303342, 43.118622154110042, 0.0 ], [ -89.337874073534408, 43.118554093056247, 0.0 ], [ -89.337887149303342, 43.118462395035571, 0.0 ], [ -89.337878096847916, 43.118368936815202, 0.0 ], [ -89.337891004978815, 43.118290230744421, 0.0 ], [ -89.337884047999182, 43.11817221354778, 0.0 ], [ -89.337885472922721, 43.118111696206874, 0.0 ], [ -89.337886478751102, 43.118073893823592, 0.0 ], [ -89.337883880361119, 43.118048831933073, 0.0 ], [ -89.337882539256611, 43.117979345955789, 0.0 ], [ -89.337887987493673, 43.117950512208893, 0.0 ], [ -89.33789368718783, 43.117940202467992, 0.0 ], [ -89.337894273921037, 43.117922851928434, 0.0 ], [ -89.337898967786828, 43.117896700390524, 0.0 ], [ -89.337899386881986, 43.117883289345457, 0.0 ], [ -89.33789586648264, 43.117865100615568, 0.0 ], [ -89.337899973615208, 43.117824532204239, 0.0 ], [ -89.337910786270299, 43.117736103125786, 0.0 ], [ -89.337915563955107, 43.117690589391543, 0.0 ], [ -89.337912630288997, 43.117643566914765, 0.0 ], [ -89.33789662085394, 43.117588330172858, 0.0 ], [ -89.337885305284644, 43.117496967428281, 0.0 ], [ -89.337883209808851, 43.117423374318456, 0.0 ], [ -89.337876169010201, 43.117376351841628, 0.0 ], [ -89.337874073534408, 43.117338633277349, 0.0 ], [ -89.337878432124043, 43.117323881127788, 0.0 ], [ -89.337899219243923, 43.117280965783543, 0.0 ], [ -89.337897039949098, 43.117270488404586, 0.0 ], [ -89.337884718551436, 43.117210138701765, 0.0 ], [ -89.337890837340737, 43.117129169517128, 0.0 ], [ -89.337934255599166, 43.1170735974991, 0.0 ], [ -89.337947163730064, 43.117043255009612, 0.0 ], [ -89.337955629452253, 43.116958178692435, 0.0 ], [ -89.337954707442918, 43.116945522018646, 0.0 ], [ -89.337952444329048, 43.116843765714123, 0.0 ], [ -89.33794816955843, 43.116779644154889, 0.0 ], [ -89.337958311661282, 43.116745697447016, 0.0 ], [ -89.337933417408863, 43.116660788767902, 0.0 ], [ -89.337940542026558, 43.116615694128832, 0.0 ], [ -89.337952444329062, 43.116577305012328, 0.0 ], [ -89.337932243942419, 43.116494910904144, 0.0 ], [ -89.337940961121717, 43.116403967254712, 0.0 ], [ -89.337977338581481, 43.116268431880428, 0.0 ], [ -89.337977925314689, 43.116159718596315, 0.0 ], [ -89.337976919486323, 43.116060309224693, 0.0 ], [ -89.337983708827892, 43.116027200707165, 0.0 ], [ -89.337994856759096, 43.11598629701971, 0.0 ], [ -89.338013632222214, 43.115891162418698, 0.0 ], [ -89.338019834830561, 43.115833662562956, 0.0 ], [ -89.338011872022548, 43.115794602894184, 0.0 ], [ -89.33799971826295, 43.115710700043415, 0.0 ], [ -89.337987899779478, 43.115607351177296, 0.0 ], [ -89.338005501776124, 43.115527136363937, 0.0 ], [ -89.338009273632565, 43.115506433063125, 0.0 ], [ -89.338014554231563, 43.115429319553954, 0.0 ], [ -89.338004663585806, 43.115355055891847, 0.0 ], [ -89.338007513432885, 43.115256819986698, 0.0 ], [ -89.338008351623202, 43.115246510245761, 0.0 ], [ -89.338013799860278, 43.115206528567647, 0.0 ], [ -89.338014135136405, 43.115178533011054, 0.0 ], [ -89.338010950013199, 43.115149950721232, 0.0 ], [ -89.337997874244252, 43.115045931302859, 0.0 ], [ -89.338024696334401, 43.114945348464829, 0.0 ], [ -89.338023774325052, 43.114930847772328, 0.0 ], [ -89.338015811517025, 43.114850549139959, 0.0 ], [ -89.33801488950769, 43.114837473370997, 0.0 ], [ -89.33801488950769, 43.114769328498227, 0.0 ], [ -89.338022600858608, 43.114758767300231, 0.0 ], [ -89.338042633607188, 43.11466799128889, 0.0 ], [ -89.338039029388824, 43.114583836981041, 0.0 ], [ -89.338049758224884, 43.11450772930025, 0.0 ], [ -89.338062163441577, 43.114489540570375, 0.0 ], [ -89.338060151784816, 43.114470094554996, 0.0 ], [ -89.338058391585136, 43.114376971610774, 0.0 ], [ -89.338043639435568, 43.114313101508579, 0.0 ], [ -89.338036766274968, 43.114283261933295, 0.0 ], [ -89.338044477625886, 43.114193910845515, 0.0 ], [ -89.338036347179809, 43.114101374634494, 0.0 ], [ -89.338036430998827, 43.114084443190087, 0.0 ], [ -89.33802142739215, 43.114040270560345, 0.0 ], [ -89.338021930306354, 43.114007245861849, 0.0 ], [ -89.338045483454266, 43.113938095160712, 0.0 ], [ -89.338040454312363, 43.113805409633493, 0.0 ], [ -89.338018912821212, 43.113723350801465, 0.0 ] ] } }
]
}
