{
"type": "FeatureCollection",
"name": "R_5fk9xxsez2yV5uV_dog_GPX-2",
"crs": { "type": "name", "properties": { "name": "urn:ogc:def:crs:OGC:1.3:CRS84" } },
"features": [
{ "type": "Feature", "properties": { "name": "bongo-v2", "cmt": null, "desc": null, "src": null, "link1_href": "https://www.strava.com/routes/3519447921922357638", "link1_text": null, "link1_type": null, "link2_href": null, "link2_text": null, "link2_type": null, "number": null, "type": "walking" }, "geometry": { "type": "MultiLineString", "coordinates": [ [ [ -89.4108, 43.06225, 262.83 ], [ -89.4108, 43.06273, 268.25 ], [ -89.41105, 43.06275, 269.24 ], [ -89.41129, 43.0628, 270.6 ], [ -89.41136, 43.06282, 270.98 ], [ -89.41151, 43.06295, 271.62 ], [ -89.41157, 43.06312, 271.4 ], [ -89.41153, 43.06323, 270.57 ], [ -89.41198, 43.06323, 270.69 ], [ -89.41197, 43.06323, 270.69 ], [ -89.41229, 43.06323, 270.7 ], [ -89.41229, 43.06388, 268.84 ], [ -89.41229, 43.06387, 268.84 ], [ -89.4123, 43.0643, 266.37 ], [ -89.41248, 43.06431, 265.26 ], [ -89.41268, 43.06444, 264.39 ], [ -89.41314, 43.06483, 263.62 ], [ -89.41362999686929, 43.065230001099579, 263.95 ], [ -89.41412, 43.06563, 264.66 ], [ -89.41363, 43.06595, 263.14 ], [ -89.41364, 43.06595, 263.17 ], [ -89.41278, 43.06651, 261.77 ], [ -89.41279, 43.06651, 261.78 ], [ -89.4126, 43.06663, 261.69 ], [ -89.41216, 43.06628, 261.08 ], [ -89.411574995587173, 43.065815001509471, 260.62 ], [ -89.41099, 43.06535, 261.18 ], [ -89.41093, 43.06529, 261.18 ], [ -89.41093, 43.0649, 263.96 ], [ -89.410924999945166, 43.064229999971872, 267.46 ], [ -89.41092, 43.06356, 268.58 ], [ -89.4107, 43.06354, 268.91 ], [ -89.41051, 43.0635, 269.97 ], [ -89.41035, 43.06345, 270.44 ], [ -89.4102, 43.06334, 270.33 ], [ -89.41012, 43.06322, 269.73 ], [ -89.4101, 43.06312, 269.58 ], [ -89.41011, 43.06302, 269.34 ], [ -89.41018, 43.06302, 269.51 ], [ -89.41024, 43.06295, 269.51 ], [ -89.41037, 43.06283, 268.66 ], [ -89.41062, 43.06276, 268.21 ], [ -89.41063, 43.06276, 268.21 ], [ -89.4108, 43.06273, 268.25 ], [ -89.4108, 43.06236, 263.9 ] ] ] } }
]
}
