{
"type": "FeatureCollection",
"name": "bongo",
"crs": { "type": "name", "properties": { "name": "urn:ogc:def:crs:OGC:1.3:CRS84" } },
"features": [
{ "type": "Feature", "properties": { "name": "bongo", "cmt": null, "desc": null, "src": null, "link1_href": "https://www.strava.com/routes/3511839297001576186", "link1_text": null, "link1_type": null, "link2_href": null, "link2_text": null, "link2_type": null, "number": null, "type": "walking" }, "geometry": { "type": "MultiLineString", "coordinates": [ [ [ -89.4108, 43.06232, 263.51 ], [ -89.4108, 43.06212, 261.87 ], [ -89.41027, 43.06213, 261.69 ], [ -89.41028, 43.06213, 261.69 ], [ -89.409120000149258, 43.062135005857634, 261.81 ], [ -89.40796, 43.06214, 263.08 ], [ -89.406746666684569, 43.062140012817807, 262.84 ], [ -89.405533333368865, 43.062140012817807, 263.27 ], [ -89.40432, 43.06214, 264.71 ], [ -89.40433, 43.06214, 264.71 ], [ -89.40414, 43.06214, 264.75 ], [ -89.40414, 43.06237, 264.57 ], [ -89.40414, 43.06304, 264.06 ], [ -89.405025000240968, 43.0630350034087, 264.1 ], [ -89.40591, 43.06303, 263.77 ], [ -89.406900000141974, 43.0630266752, 261.41 ], [ -89.407890000176423, 43.06302334186654, 261.66 ], [ -89.40888, 43.06302, 262.62 ], [ -89.40889, 43.06231, 262.12 ], [ -89.40889, 43.0623, 262.11 ], [ -89.40889, 43.06214, 261.96 ], [ -89.40899, 43.06214, 261.96 ], [ -89.409895000137539, 43.062130003565606, 261.67 ], [ -89.4108, 43.06212, 261.87 ], [ -89.4108, 43.06226, 262.94 ] ] ] } }
]
}
