{
"type": "FeatureCollection",
"name": "R_1Okpu5ZyiqE6orn_dog_hrt",
"features": [
{ "type": "Feature", "properties": { "id": 1, "hrt": 100, "maxHrt": [ 0 ] }, "geometry": { "type": "LineString", "coordinates": [ [ -89.293520495638688, 43.075694367319294, 0.0 ], [ -89.293479340495111, 43.076060488840966, 0.0 ], [ -89.293477077381311, 43.076118156333386, 0.0 ], [ -89.293479424314143, 43.076241789402175, 0.0 ], [ -89.293481687427942, 43.076277161032699, 0.0 ], [ -89.293482357980182, 43.076296774685645, 0.0 ], [ -89.293481519789879, 43.076380090801152, 0.0 ], [ -89.293485207827189, 43.076389478532477, 0.0 ], [ -89.293484285817868, 43.076439434674171, 0.0 ], [ -89.293479508133174, 43.076620399959261, 0.0 ], [ -89.293478334666759, 43.07663230226148, 0.0 ], [ -89.293482022704055, 43.076672116300578, 0.0 ], [ -89.293488057674196, 43.076738500972091, 0.0 ], [ -89.293479256676079, 43.076784685257451, 0.0 ], [ -89.29347858612384, 43.076898930594908, 0.0 ], [ -89.29350565967043, 43.076966824008956, 0.0 ], [ -89.293555448174061, 43.076975205911921, 0.0 ], [ -89.293627700177652, 43.076956514268304, 0.0 ], [ -89.293737335468478, 43.076945617794443, 0.0 ], [ -89.293763151729621, 43.07694452814706, 0.0 ], [ -89.293831212781726, 43.076944779604148, 0.0 ], [ -89.293919558039022, 43.076939750462365, 0.0 ], [ -89.294115778387521, 43.076956011354127, 0.0 ], [ -89.294136230230762, 43.076944947242204, 0.0 ], [ -89.294196999027278, 43.076970344408203, 0.0 ], [ -89.29431535149719, 43.076959531753374, 0.0 ], [ -89.294373186627681, 43.076963471247765, 0.0 ], [ -89.294388190233988, 43.076962549238438, 0.0 ], [ -89.294444265164856, 43.076956765725392, 0.0 ], [ -89.294454407267452, 43.076958358286959, 0.0 ], [ -89.294467734493168, 43.076958777382103, 0.0 ], [ -89.294529173841923, 43.07694913819369, 0.0 ], [ -89.294673677849104, 43.076939415186246, 0.0 ], [ -89.294680551009534, 43.076941510661989, 0.0 ], [ -89.294700164662487, 43.076956095173152, 0.0 ], [ -89.294699494110247, 43.076959867029494, 0.0 ], [ -89.294697482453529, 43.076964057980973, 0.0 ], [ -89.29476587878176, 43.076953161507113, 0.0 ], [ -89.294939970906412, 43.076942013576165, 0.0 ], [ -89.294980204040669, 43.07693790644371, 0.0 ], [ -89.295015324214106, 43.076940756290725, 0.0 ], [ -89.295066789098328, 43.076939666643334, 0.0 ] ] } },
{ "type": "Feature", "properties": { "id": 2, "hrt": 100, "maxHrt": [ 0 ] }, "geometry": { "type": "LineString", "coordinates": [ [ -89.295066789098328, 43.076939666643334, 0.0 ], [ -89.295253537896471, 43.076940421014605, 0.0 ] ] } },
{ "type": "Feature", "properties": { "id": 3, "hrt": 90, "maxHrt": [ 0 ] }, "geometry": { "type": "LineString", "coordinates": [ [ -89.295253537896471, 43.076940421014605, 0.0 ], [ -89.295443304179685, 43.076953999697416, 0.0 ] ] } },
{ "type": "Feature", "properties": { "id": 4, "hrt": 100, "maxHrt": [ 0 ] }, "geometry": { "type": "LineString", "coordinates": [ [ -89.295443304179685, 43.076953999697416, 0.0 ], [ -89.295497702729946, 43.076961711048142, 0.0 ], [ -89.295485465151614, 43.076966153456716, 0.0 ], [ -89.295446992216981, 43.076959615572399, 0.0 ], [ -89.2954467407599, 43.076959364115311, 0.0 ], [ -89.295446824578931, 43.076959364115311, 0.0 ], [ -89.295447327493108, 43.076956765725392, 0.0 ] ] } },
{ "type": "Feature", "properties": { "id": 5, "hrt": 90, "maxHrt": [ 0 ] }, "geometry": { "type": "LineString", "coordinates": [ [ -89.295447327493108, 43.076956765725392, 0.0 ], [ -89.295498289463154, 43.076952658592937, 0.0 ], [ -89.295526955571304, 43.0769550893448, 0.0 ], [ -89.295670118474007, 43.076965818180597, 0.0 ], [ -89.295691073231424, 43.076968668027611, 0.0 ], [ -89.295694174535527, 43.076968416570516, 0.0 ], [ -89.295725690490684, 43.076972356064914, 0.0 ], [ -89.295800373246138, 43.076951820402641, 0.0 ], [ -89.295821747098714, 43.076953245326145, 0.0 ], [ -89.295875139820623, 43.076960453762702, 0.0 ] ] } },
{ "type": "Feature", "properties": { "id": 6, "hrt": 100, "maxHrt": [ 0 ] }, "geometry": { "type": "LineString", "coordinates": [ [ -89.295875139820623, 43.076960453762702, 0.0 ], [ -89.296109581646647, 43.076924746856051, 0.0 ] ] } },
{ "type": "Feature", "properties": { "id": 7, "hrt": 100, "maxHrt": [ 0 ] }, "geometry": { "type": "LineString", "coordinates": [ [ -89.296109581646647, 43.076924746856051, 0.0 ], [ -89.296172613556976, 43.076945114880267, 0.0 ], [ -89.296210415939356, 43.076958861201135, 0.0 ] ] } },
{ "type": "Feature", "properties": { "id": 8, "hrt": 90, "maxHrt": [ 0 ] }, "geometry": { "type": "LineString", "coordinates": [ [ -89.296210415939356, 43.076958861201135, 0.0 ], [ -89.296331115342113, 43.076979983596615, 0.0 ], [ -89.296355087584601, 43.07698073796788, 0.0 ] ] } },
{ "type": "Feature", "properties": { "id": 9, "hrt": 100, "maxHrt": [ 0 ] }, "geometry": { "type": "LineString", "coordinates": [ [ -89.296355087584601, 43.07698073796788, 0.0 ], [ -89.296437230233693, 43.076969506217907, 0.0 ], [ -89.296460531923941, 43.076967746018283, 0.0 ], [ -89.296506548571244, 43.076961711048142, 0.0 ], [ -89.296567065910679, 43.076932290568728, 0.0 ], [ -89.296596486390101, 43.07692768052209, 0.0 ] ] } },
{ "type": "Feature", "properties": { "id": 10, "hrt": 110, "maxHrt": [ 0 ] }, "geometry": { "type": "LineString", "coordinates": [ [ -89.296596486390101, 43.07692768052209, 0.0 ], [ -89.296980545184113, 43.076926590874706, 0.0 ], [ -89.297137957321866, 43.076929692178801, 0.0 ], [ -89.29716176192629, 43.076936230063119, 0.0 ], [ -89.297251951202242, 43.076937738805654, 0.0 ] ] } },
{ "type": "Feature", "properties": { "id": 11, "hrt": 110, "maxHrt": [ 0 ] }, "geometry": { "type": "LineString", "coordinates": [ [ -89.297251951202242, 43.076937738805654, 0.0 ], [ -89.297448506826854, 43.076938409357894, 0.0 ], [ -89.297477089115972, 43.076940001919453, 0.0 ], [ -89.297488572323047, 43.076943941413852, 0.0 ], [ -89.29752788344797, 43.076930362731041, 0.0 ], [ -89.297671968359992, 43.076924663037026, 0.0 ], [ -89.297753272818781, 43.076912676915775, 0.0 ], [ -89.297825860098499, 43.076900942251619, 0.0 ], [ -89.297827704117154, 43.076900020242299, 0.0 ] ] } },
{ "type": "Feature", "properties": { "id": 12, "hrt": 120, "maxHrt": [ 0 ] }, "geometry": { "type": "LineString", "coordinates": [ [ -89.297827704117154, 43.076900020242299, 0.0 ], [ -89.297982685503044, 43.076896499843052, 0.0 ] ] } },
{ "type": "Feature", "properties": { "id": 13, "hrt": 120, "maxHrt": [ 0 ] }, "geometry": { "type": "LineString", "coordinates": [ [ -89.297982685503044, 43.076896499843052, 0.0 ], [ -89.298209332159303, 43.076912509277719, 0.0 ] ] } },
{ "type": "Feature", "properties": { "id": 14, "hrt": 110, "maxHrt": [ 0 ] }, "geometry": { "type": "LineString", "coordinates": [ [ -89.298209332159303, 43.076912509277719, 0.0 ], [ -89.298300108168462, 43.076909407973623, 0.0 ], [ -89.298493646308003, 43.076905803755345, 0.0 ], [ -89.29855516947579, 43.076907647774, 0.0 ], [ -89.298616273548433, 43.076901109889683, 0.0 ], [ -89.298652902464411, 43.076890045777766, 0.0 ], [ -89.298687938818816, 43.076891889796414, 0.0 ], [ -89.298713084527719, 43.076896835119165, 0.0 ], [ -89.298869742294201, 43.076882921160241, 0.0 ], [ -89.298933360937738, 43.076882502065089, 0.0 ], [ -89.298948448363078, 43.076883843169568, 0.0 ], [ -89.29905791601584, 43.076876718552043, 0.0 ], [ -89.299114410041852, 43.07687529362854, 0.0 ], [ -89.299237959291617, 43.076875712723684, 0.0 ], [ -89.299376344509625, 43.076880490408378, 0.0 ], [ -89.299462342834076, 43.076883088798297, 0.0 ], [ -89.299520010326503, 43.07691292837287, 0.0 ], [ -89.299522021983222, 43.077038070184187, 0.0 ], [ -89.299521519069046, 43.0771849211242, 0.0 ], [ -89.299530655343275, 43.07717964052533, 0.0 ], [ -89.299520764697775, 43.077197913073796, 0.0 ], [ -89.29951892067912, 43.077214173965558, 0.0 ], [ -89.299513304804123, 43.077246109015867, 0.0 ], [ -89.299512550432866, 43.077248120672579, 0.0 ], [ -89.299511963699658, 43.077247869215491, 0.0 ], [ -89.29951892067912, 43.077299250280689, 0.0 ], [ -89.299535181570874, 43.077425733196485, 0.0 ], [ -89.299534678656698, 43.077516425386605, 0.0 ], [ -89.299538785789153, 43.077519778147796, 0.0 ], [ -89.299544820759294, 43.077529584974265, 0.0 ], [ -89.299527721677237, 43.077598065121521, 0.0 ], [ -89.299520429421648, 43.077675597723982, 0.0 ], [ -89.299523279268669, 43.077735109235057, 0.0 ], [ -89.299505174358245, 43.077748939374956, 0.0 ], [ -89.299554124671587, 43.077798560240524, 0.0 ], [ -89.299520429421648, 43.077881624898943, 0.0 ] ] } },
{ "type": "Feature", "properties": { "id": 15, "hrt": 100, "maxHrt": [ 0 ] }, "geometry": { "type": "LineString", "coordinates": [ [ -89.299520429421648, 43.077881624898943, 0.0 ], [ -89.299457816606477, 43.077906686788822, 0.0 ] ] } },
{ "type": "Feature", "properties": { "id": 16, "hrt": 110, "maxHrt": [ 0 ] }, "geometry": { "type": "LineString", "coordinates": [ [ -89.299457816606477, 43.077906686788822, 0.0 ], [ -89.299343906545133, 43.077915571605971, 0.0 ], [ -89.299261260981865, 43.077916912710442, 0.0 ] ] } },
{ "type": "Feature", "properties": { "id": 17, "hrt": 100, "maxHrt": [ 0 ] }, "geometry": { "type": "LineString", "coordinates": [ [ -89.299261260981865, 43.077916912710442, 0.0 ], [ -89.299184315112612, 43.077943734799945, 0.0 ], [ -89.299162522164892, 43.077941723143233, 0.0 ], [ -89.299009636254752, 43.07794088495293, 0.0 ], [ -89.298847362613273, 43.077926468079831, 0.0 ], [ -89.298711491966159, 43.07791749944365, 0.0 ], [ -89.298702858606092, 43.077920181652601, 0.0 ], [ -89.298670672098694, 43.07793032375519, 0.0 ], [ -89.298643682371136, 43.077936526363388, 0.0 ], [ -89.298626834746173, 43.077938118924955, 0.0 ], [ -89.298561372083995, 43.077941471686138, 0.0 ], [ -89.298406893612281, 43.077950943236495, 0.0 ], [ -89.29836624138288, 43.077955637102157, 0.0 ], [ -89.298304634396061, 43.077966282118929, 0.0 ], [ -89.298189467049269, 43.077978100602117, 0.0 ], [ -89.298139343269526, 43.077977849145022, 0.0 ] ] } },
{ "type": "Feature", "properties": { "id": 18, "hrt": 100, "maxHrt": [ 0 ] }, "geometry": { "type": "LineString", "coordinates": [ [ -89.298139343269526, 43.077977849145022, 0.0 ], [ -89.297830302507066, 43.077962426443563, 0.0 ], [ -89.297596363595218, 43.077971143622648, 0.0 ] ] } },
{ "type": "Feature", "properties": { "id": 19, "hrt": 110, "maxHrt": [ 0 ] }, "geometry": { "type": "LineString", "coordinates": [ [ -89.297596363595218, 43.077971143622648, 0.0 ], [ -89.297282042233888, 43.077985057581579, 0.0 ], [ -89.297267206265644, 43.077987488333441, 0.0 ] ] } },
{ "type": "Feature", "properties": { "id": 20, "hrt": 100, "maxHrt": [ 0 ] }, "geometry": { "type": "LineString", "coordinates": [ [ -89.297267206265644, 43.077987488333441, 0.0 ], [ -89.297139130788281, 43.078007018167355, 0.0 ] ] } },
{ "type": "Feature", "properties": { "id": 21, "hrt": 110, "maxHrt": [ 0 ] }, "geometry": { "type": "LineString", "coordinates": [ [ -89.297139130788281, 43.078007018167355, 0.0 ], [ -89.296841321775801, 43.078015232432264, 0.0 ], [ -89.296728752818936, 43.078017747003159, 0.0 ], [ -89.296725651514834, 43.078017160269951, 0.0 ] ] } },
{ "type": "Feature", "properties": { "id": 22, "hrt": 120, "maxHrt": [ 0 ] }, "geometry": { "type": "LineString", "coordinates": [ [ -89.296725651514834, 43.078017160269951, 0.0 ], [ -89.296705618766751, 43.078032331514322, 0.0 ] ] } },
{ "type": "Feature", "properties": { "id": 23, "hrt": 110, "maxHrt": [ 0 ] }, "geometry": { "type": "LineString", "coordinates": [ [ -89.296705618766751, 43.078032331514322, 0.0 ], [ -89.296627834707195, 43.078033337342674, 0.0 ], [ -89.296537645431258, 43.07804347944527, 0.0 ], [ -89.296502776714902, 43.078046161654221, 0.0 ], [ -89.296416862209483, 43.07803979140796, 0.0 ], [ -89.296337317950304, 43.078041132512439, 0.0 ], [ -89.296245955207951, 43.07804876004414, 0.0 ] ] } },
{ "type": "Feature", "properties": { "id": 24, "hrt": 120, "maxHrt": [ 0 ] }, "geometry": { "type": "LineString", "coordinates": [ [ -89.296245955207951, 43.07804876004414, 0.0 ], [ -89.296157358493573, 43.078049179139285, 0.0 ], [ -89.296078149510521, 43.078040797236319, 0.0 ], [ -89.295984607473386, 43.078077845247442, 0.0 ], [ -89.295976728484604, 43.078184798329318, 0.0 ] ] } },
{ "type": "Feature", "properties": { "id": 25, "hrt": 110, "maxHrt": [ 0 ] }, "geometry": { "type": "LineString", "coordinates": [ [ -89.295976728484604, 43.078184798329318, 0.0 ], [ -89.295978488684227, 43.078364925424111, 0.0 ], [ -89.295974130094677, 43.078440949284037, 0.0 ], [ -89.295975219742061, 43.078462658412725, 0.0 ], [ -89.295976728484604, 43.078552680050613, 0.0 ], [ -89.295978907779372, 43.078568773304312, 0.0 ], [ -89.295983098730858, 43.078635493251937, 0.0 ], [ -89.295984942749513, 43.078755522102448, 0.0 ], [ -89.295988630786809, 43.078805478244142, 0.0 ], [ -89.295986200034946, 43.078818051098594, 0.0 ], [ -89.295984272197273, 43.078878903714148, 0.0 ], [ -89.295983769283097, 43.078891895663752, 0.0 ], [ -89.295986954406217, 43.078940426881935, 0.0 ], [ -89.295981087074139, 43.078989880109454, 0.0 ], [ -89.29598318254989, 43.079002033868754, 0.0 ], [ -89.296003550574099, 43.079047212325754, 0.0 ], [ -89.296032468139344, 43.079098677209984, 0.0 ], [ -89.296075634939626, 43.079138742706171, 0.0 ], [ -89.296082340462007, 43.079140586724826, 0.0 ], [ -89.296132548060783, 43.079183250610939, 0.0 ], [ -89.296146713476801, 43.079198505674341, 0.0 ], [ -89.296232711801252, 43.079280396866345, 0.0 ], [ -89.296274872773196, 43.079332280845719, 0.0 ], [ -89.296186946611044, 43.079413250028395, 0.0 ], [ -89.296170434262208, 43.079428002177622, 0.0 ], [ -89.296091812012364, 43.07950771407485, 0.0 ], [ -89.296072198359411, 43.079529087927419, 0.0 ], [ -89.295953510613373, 43.079652972453296, 0.0 ], [ -89.29588025278143, 43.07976386502957, 0.0 ], [ -89.295834571410253, 43.079798649926886, 0.0 ], [ -89.295754021322722, 43.079885737898735, 0.0 ], [ -89.295740442639911, 43.079902417885641, 0.0 ] ] } },
{ "type": "Feature", "properties": { "id": 26, "hrt": 120, "maxHrt": [ 1 ] }, "geometry": { "type": "LineString", "coordinates": [ [ -89.295740442639911, 43.079902417885641, 0.0 ], [ -89.295709681056024, 43.079924797566569, 0.0 ], [ -89.295675650529972, 43.07995807372135, 0.0 ], [ -89.29565008572591, 43.07998246505899, 0.0 ], [ -89.295636171766986, 43.080015908851834, 0.0 ], [ -89.295563584487283, 43.08006787665024, 0.0 ], [ -89.295467946974412, 43.080180529426137, 0.0 ], [ -89.29546576767963, 43.080192012633205, 0.0 ], [ -89.295448500959523, 43.080245740631234, 0.0 ], [ -89.295442298351318, 43.080245740631234, 0.0 ], [ -89.295422181784204, 43.080276418396096, 0.0 ], [ -89.295368872881312, 43.080332409507925, 0.0 ], [ -89.295324616433646, 43.080373899927622, 0.0 ], [ -89.295279018881487, 43.08041371396672, 0.0 ], [ -89.29522570997861, 43.080396950160782, 0.0 ], [ -89.295195535127931, 43.080348335123567, 0.0 ] ] } },
{ "type": "Feature", "properties": { "id": 27, "hrt": 110, "maxHrt": [ 0 ] }, "geometry": { "type": "LineString", "coordinates": [ [ -89.295195535127931, 43.080348335123567, 0.0 ], [ -89.295202240650298, 43.080356465569444, 0.0 ], [ -89.295201318640977, 43.080354705369821, 0.0 ], [ -89.295199893717466, 43.080366523853009, 0.0 ], [ -89.29526929587405, 43.080418743108503, 0.0 ], [ -89.295244066346115, 43.080469872716613, 0.0 ], [ -89.295115739411671, 43.080586632624964, 0.0 ], [ -89.295069974221462, 43.080630218520405, 0.0 ] ] } },
{ "type": "Feature", "properties": { "id": 28, "hrt": 120, "maxHrt": [ 0 ] }, "geometry": { "type": "LineString", "coordinates": [ [ -89.295069974221462, 43.080630218520405, 0.0 ], [ -89.295014318385739, 43.080716300663887, 0.0 ] ] } },
{ "type": "Feature", "properties": { "id": 29, "hrt": 110, "maxHrt": [ 0 ] }, "geometry": { "type": "LineString", "coordinates": [ [ -89.295014318385739, 43.080716300663887, 0.0 ], [ -89.294978695298127, 43.080752845760834, 0.0 ] ] } },
{ "type": "Feature", "properties": { "id": 30, "hrt": 120, "maxHrt": [ 0 ] }, "geometry": { "type": "LineString", "coordinates": [ [ -89.294978695298127, 43.080752845760834, 0.0 ], [ -89.29484634505026, 43.080898858510544, 0.0 ], [ -89.294833101643562, 43.080901959814639, 0.0 ], [ -89.294792533233192, 43.080943701691425, 0.0 ], [ -89.294725561828486, 43.081007739430106, 0.0 ], [ -89.294633612352911, 43.081132043051127, 0.0 ] ] } },
{ "type": "Feature", "properties": { "id": 31, "hrt": 110, "maxHrt": [ 0 ] }, "geometry": { "type": "LineString", "coordinates": [ [ -89.294633612352911, 43.081132043051127, 0.0 ], [ -89.29460033619813, 43.081264393299001, 0.0 ], [ -89.294615591261532, 43.081308063013473, 0.0 ], [ -89.29459597760858, 43.081433959196055, 0.0 ], [ -89.294592541028365, 43.081522807367527, 0.0 ], [ -89.294626320097336, 43.081610146796457, 0.0 ], [ -89.294623218793234, 43.081625988593068, 0.0 ] ] } },
{ "type": "Feature", "properties": { "id": 32, "hrt": 100, "maxHrt": [ 0 ] }, "geometry": { "type": "LineString", "coordinates": [ [ -89.294623218793234, 43.081625988593068, 0.0 ], [ -89.294665295946132, 43.081792620824082, 0.0 ] ] } },
{ "type": "Feature", "properties": { "id": 33, "hrt": 110, "maxHrt": [ 0 ] }, "geometry": { "type": "LineString", "coordinates": [ [ -89.294665295946132, 43.081792620824082, 0.0 ], [ -89.294670911821129, 43.081795889766241, 0.0 ], [ -89.294671414735305, 43.081795638309153, 0.0 ], [ -89.294651968720416, 43.08175791974579, 0.0 ], [ -89.294646017569306, 43.081748615833497, 0.0 ], [ -89.294625398088002, 43.081711651641406, 0.0 ] ] } },
{ "type": "Feature", "properties": { "id": 34, "hrt": 100, "maxHrt": [ 0 ] }, "geometry": { "type": "LineString", "coordinates": [ [ -89.294625398088002, 43.081711651641406, 0.0 ], [ -89.294595809970531, 43.081616600861743, 0.0 ], [ -89.294596145246643, 43.081599920874837, 0.0 ], [ -89.294599246550746, 43.081539906449578, 0.0 ], [ -89.294593127761573, 43.081473186501952, 0.0 ] ] } },
{ "type": "Feature", "properties": { "id": 35, "hrt": 110, "maxHrt": [ 0 ] }, "geometry": { "type": "LineString", "coordinates": [ [ -89.294593127761573, 43.081473186501952, 0.0 ], [ -89.294614501614149, 43.081360114630904, 0.0 ], [ -89.294617016185029, 43.081319210944422, 0.0 ], [ -89.294662278461061, 43.081190129638699, 0.0 ], [ -89.29470259541435, 43.081096922877691, 0.0 ] ] } },
{ "type": "Feature", "properties": { "id": 36, "hrt": 100, "maxHrt": [ 0 ] }, "geometry": { "type": "LineString", "coordinates": [ [ -89.29470259541435, 43.081096922877691, 0.0 ], [ -89.294754982307893, 43.080994244566327, 0.0 ], [ -89.294793203785432, 43.080943031139192, 0.0 ], [ -89.294834945662217, 43.0808868723893, 0.0 ] ] } },
{ "type": "Feature", "properties": { "id": 37, "hrt": 110, "maxHrt": [ 0 ] }, "geometry": { "type": "LineString", "coordinates": [ [ -89.294834945662217, 43.0808868723893, 0.0 ], [ -89.294939300354173, 43.080755444150753, 0.0 ], [ -89.295024209031254, 43.080687718374769, 0.0 ], [ -89.295018844613352, 43.080692663697519, 0.0 ] ] } },
{ "type": "Feature", "properties": { "id": 38, "hrt": 100, "maxHrt": [ 0 ] }, "geometry": { "type": "LineString", "coordinates": [ [ -89.295018844613352, 43.080692663697519, 0.0 ], [ -89.295193691109276, 43.080474147487124, 0.0 ], [ -89.295238199014037, 43.080420168032006, 0.0 ], [ -89.295250855687513, 43.080411534671953, 0.0 ], [ -89.295331489594076, 43.080346323466856, 0.0 ], [ -89.295339787678017, 43.080337438649707, 0.0 ] ] } },
{ "type": "Feature", "properties": { "id": 39, "hrt": 90, "maxHrt": [ 0 ] }, "geometry": { "type": "LineString", "coordinates": [ [ -89.295339787678017, 43.080337438649707, 0.0 ], [ -89.295350348875758, 43.080334924078819, 0.0 ], [ -89.295365017205953, 43.080315561882962, 0.0 ] ] } },
{ "type": "Feature", "properties": { "id": 40, "hrt": 100, "maxHrt": [ 0 ] }, "geometry": { "type": "LineString", "coordinates": [ [ -89.295365017205953, 43.080315561882962, 0.0 ], [ -89.295455374119953, 43.080203998754449, 0.0 ] ] } },
{ "type": "Feature", "properties": { "id": 41, "hrt": 110, "maxHrt": [ 0 ] }, "geometry": { "type": "LineString", "coordinates": [ [ -89.295455374119953, 43.080203998754449, 0.0 ], [ -89.295490997207565, 43.080174410636971, 0.0 ], [ -89.295494098511668, 43.080167705114597, 0.0 ] ] } },
{ "type": "Feature", "properties": { "id": 42, "hrt": 110, "maxHrt": [ 0 ] }, "geometry": { "type": "LineString", "coordinates": [ [ -89.295494098511668, 43.080167705114597, 0.0 ], [ -89.295483453494896, 43.080158233564241, 0.0 ], [ -89.29552444100041, 43.080116407868431, 0.0 ], [ -89.295613624447995, 43.080029990448821, 0.0 ], [ -89.295627873683046, 43.080001408159696, 0.0 ], [ -89.295689480669864, 43.079927228318425, 0.0 ] ] } },
{ "type": "Feature", "properties": { "id": 43, "hrt": 120, "maxHrt": [ 0 ] }, "geometry": { "type": "LineString", "coordinates": [ [ -89.295689480669864, 43.079927228318425, 0.0 ], [ -89.295771371861875, 43.07983276427197, 0.0 ], [ -89.295823423479305, 43.079791860585487, 0.0 ], [ -89.295819651622963, 43.079787837272058, 0.0 ], [ -89.295820825089379, 43.079786496167586, 0.0 ], [ -89.295823591117369, 43.07978725053885, 0.0 ], [ -89.295879917505317, 43.07973754585425, 0.0 ], [ -89.29588117479075, 43.079684823684573, 0.0 ] ] } },
{ "type": "Feature", "properties": { "id": 44, "hrt": 110, "maxHrt": [ 0 ] }, "geometry": { "type": "LineString", "coordinates": [ [ -89.29588117479075, 43.079684823684573, 0.0 ], [ -89.295973794818565, 43.079611649671662, 0.0 ], [ -89.296002460926715, 43.079605614701521, 0.0 ], [ -89.296065157560918, 43.079557334940425, 0.0 ], [ -89.296064822284791, 43.079522885319221, 0.0 ] ] } },
{ "type": "Feature", "properties": { "id": 45, "hrt": 120, "maxHrt": [ 0 ] }, "geometry": { "type": "LineString", "coordinates": [ [ -89.296064822284791, 43.079522885319221, 0.0 ], [ -89.296130452585047, 43.079451220048838, 0.0 ], [ -89.296128189471247, 43.079445185078704, 0.0 ], [ -89.29602467296958, 43.079381566435174, 0.0 ], [ -89.295970274419318, 43.079348038823298, 0.0 ], [ -89.29595040930927, 43.079330855922215, 0.0 ], [ -89.295912104012714, 43.079299842881227, 0.0 ], [ -89.295903554471678, 43.079292131530501, 0.0 ], [ -89.295908248337341, 43.079288862588342, 0.0 ] ] } },
{ "type": "Feature", "properties": { "id": 46, "hrt": 120, "maxHrt": [ 0 ] }, "geometry": { "type": "LineString", "coordinates": [ [ -89.295908248337341, 43.079288862588342, 0.0 ], [ -89.295809006606191, 43.079147208428168, 0.0 ], [ -89.295785704915943, 43.07909356424917, 0.0 ] ] } },
{ "type": "Feature", "properties": { "id": 47, "hrt": 110, "maxHrt": [ 0 ] }, "geometry": { "type": "LineString", "coordinates": [ [ -89.295785704915943, 43.07909356424917, 0.0 ], [ -89.295769192567093, 43.078936906482689, 0.0 ], [ -89.295761816492487, 43.078880412456684, 0.0 ], [ -89.295763325235015, 43.078858954785083, 0.0 ], [ -89.295753518408546, 43.078808663367269, 0.0 ], [ -89.295738933897383, 43.078710259826423, 0.0 ], [ -89.295738347164175, 43.078656531828393, 0.0 ], [ -89.29571613512131, 43.078567683656921, 0.0 ], [ -89.29571085452244, 43.07856407943865, 0.0 ], [ -89.295716805673536, 43.078521834647688, 0.0 ], [ -89.295715883664215, 43.07844304475978, 0.0 ], [ -89.295714877835863, 43.078435081951959, 0.0 ] ] } },
{ "type": "Feature", "properties": { "id": 48, "hrt": 110, "maxHrt": [ 0 ] }, "geometry": { "type": "LineString", "coordinates": [ [ -89.295714877835863, 43.078435081951959, 0.0 ], [ -89.29571035160825, 43.078314298730184, 0.0 ], [ -89.295721080444054, 43.078140541881645, 0.0 ], [ -89.295743543944013, 43.078040881055351, 0.0 ], [ -89.295742286658566, 43.077918924367154, 0.0 ], [ -89.295728456518674, 43.077882379270214, 0.0 ], [ -89.295757876998096, 43.077885983488493, 0.0 ], [ -89.295773132061498, 43.077811971285279, 0.0 ], [ -89.295793164809581, 43.077743323499966, 0.0 ], [ -89.295802720178969, 43.077667970192273, 0.0 ], [ -89.295810850624846, 43.077578954382751, 0.0 ] ] } },
{ "type": "Feature", "properties": { "id": 49, "hrt": 100, "maxHrt": [ 0 ] }, "geometry": { "type": "LineString", "coordinates": [ [ -89.295810850624846, 43.077578954382751, 0.0 ], [ -89.295762989958902, 43.07740913702861, 0.0 ], [ -89.29575460805593, 43.077306039622094, 0.0 ], [ -89.2957246008433, 43.07721358723235, 0.0 ] ] } },
{ "type": "Feature", "properties": { "id": 50, "hrt": 110, "maxHrt": [ 0 ] }, "geometry": { "type": "LineString", "coordinates": [ [ -89.2957246008433, 43.07721358723235, 0.0 ], [ -89.295678248919884, 43.077127756545949, 0.0 ], [ -89.295647487335998, 43.077122643585142, 0.0 ], [ -89.295520752963114, 43.07711568660568, 0.0 ] ] } },
{ "type": "Feature", "properties": { "id": 51, "hrt": 100, "maxHrt": [ 0 ] }, "geometry": { "type": "LineString", "coordinates": [ [ -89.295520752963114, 43.07711568660568, 0.0 ], [ -89.29530827172286, 43.077098084609446, 0.0 ], [ -89.295224787969289, 43.077084589745667, 0.0 ], [ -89.295178436045873, 43.077084086831483, 0.0 ], [ -89.295169886504837, 43.077084757383723, 0.0 ], [ -89.295096461034845, 43.077103281389284, 0.0 ], [ -89.295039715551738, 43.077098336066534, 0.0 ], [ -89.294885907632263, 43.077104538674732, 0.0 ], [ -89.294873250958787, 43.077101269732573, 0.0 ], [ -89.294794293432815, 43.077077716585229, 0.0 ], [ -89.294777948722029, 43.077076878394934, 0.0 ], [ -89.294758586526171, 43.077083332460219, 0.0 ], [ -89.294645095559986, 43.077097833152351, 0.0 ], [ -89.294609723929455, 43.077092804010576, 0.0 ], [ -89.294579129983617, 43.077086601402378, 0.0 ] ] } },
{ "type": "Feature", "properties": { "id": 52, "hrt": 110, "maxHrt": [ 0 ] }, "geometry": { "type": "LineString", "coordinates": [ [ -89.294579129983617, 43.077086601402378, 0.0 ], [ -89.294569658433261, 43.077048212286783, 0.0 ], [ -89.294554906284034, 43.076996831221585, 0.0 ], [ -89.294543758353086, 43.076991885898835, 0.0 ], [ -89.294435212709644, 43.076966488732836, 0.0 ], [ -89.294418951817889, 43.076961124314934, 0.0 ] ] } },
{ "type": "Feature", "properties": { "id": 53, "hrt": 100, "maxHrt": [ 0 ] }, "geometry": { "type": "LineString", "coordinates": [ [ -89.294418951817889, 43.076961124314934, 0.0 ], [ -89.294243183312631, 43.076968500389548, 0.0 ], [ -89.29414436067664, 43.076958609744047, 0.0 ], [ -89.294045621859667, 43.076971350236555, 0.0 ], [ -89.293852838091397, 43.076971350236555, 0.0 ], [ -89.293595262213159, 43.076976211740281, 0.0 ], [ -89.293581683530363, 43.076977217568633, 0.0 ], [ -89.293458972470901, 43.076956430449272, 0.0 ], [ -89.293456206442912, 43.076947294175035, 0.0 ], [ -89.293476071552959, 43.076888872311351, 0.0 ], [ -89.293477664114519, 43.076887028292695, 0.0 ], [ -89.293450003834721, 43.076840760188311, 0.0 ] ] } },
{ "type": "Feature", "properties": { "id": 54, "hrt": 100, "maxHrt": [ 0 ] }, "geometry": { "type": "LineString", "coordinates": [ [ -89.293450003834721, 43.076840760188311, 0.0 ], [ -89.293456038804862, 43.07672986761203, 0.0 ], [ -89.293473724620128, 43.076555775487378, 0.0 ], [ -89.293469952763786, 43.07651193813485, 0.0 ] ] } },
{ "type": "Feature", "properties": { "id": 55, "hrt": 110, "maxHrt": [ 0 ] }, "geometry": { "type": "LineString", "coordinates": [ [ -89.293469952763786, 43.07651193813485, 0.0 ], [ -89.293479172857047, 43.07639031672278, 0.0 ], [ -89.293469366030578, 43.076347569017635, 0.0 ], [ -89.293461319403733, 43.076275987566284, 0.0 ], [ -89.293467689649987, 43.076218068616775, 0.0 ] ] } },
{ "type": "Feature", "properties": { "id": 56, "hrt": 100, "maxHrt": [ 0 ] }, "geometry": { "type": "LineString", "coordinates": [ [ -89.293467689649987, 43.076218068616775, 0.0 ], [ -89.293474227534304, 43.076097369214025, 0.0 ], [ -89.293468360202226, 43.076070547124523, 0.0 ], [ -89.293476909743248, 43.075951859378492, 0.0 ], [ -89.29347699356228, 43.075927887135997, 0.0 ], [ -89.293473892258177, 43.075914476091249, 0.0 ], [ -89.293472215877586, 43.075868878539104, 0.0 ], [ -89.293469114573483, 43.075830824699622, 0.0 ], [ -89.293470120401849, 43.075816910740699, 0.0 ], [ -89.293475233362656, 43.075724374531923, 0.0 ], [ -89.293468863116402, 43.075569141688945, 0.0 ], [ -89.293469198392515, 43.075558915767324, 0.0 ], [ -89.293461822317909, 43.075515246052859, 0.0 ] ] } },
{ "type": "Feature", "properties": { "id": 57, "hrt": 110, "maxHrt": [ 0 ] }, "geometry": { "type": "LineString", "coordinates": [ [ -89.293461822317909, 43.075515246052859, 0.0 ], [ -89.29346877929737, 43.075447185000755, 0.0 ] ] } }
]
}
