{
"type": "FeatureCollection",
"name": "R_1Okpu5ZyiqE6orn_human_fit.geojson_hrt",
"features": [
{ "type": "Feature", "properties": { "id": 2, "hrt": 120, "maxHrt": [ 0 ] }, "geometry": { "type": "LineString", "coordinates": [ [ -89.293517712503672, 43.075696332380176, 0.0 ], [ -89.293522657826543, 43.075695410370827, 0.0 ], [ -89.293522657826543, 43.075695410370827, 0.0 ], [ -89.293481502681971, 43.07606153190136, 0.0 ], [ -89.293481502681971, 43.07606153190136, 0.0 ], [ -89.293479239568114, 43.07611919939518, 0.0 ], [ -89.293479239568114, 43.07611919939518, 0.0 ], [ -89.293481586501002, 43.07624283246696, 0.0 ], [ -89.293481586501002, 43.07624283246696, 0.0 ], [ -89.293483849614859, 43.076278204098344, 0.0 ], [ -89.293483849614859, 43.076278204098344, 0.0 ], [ -89.293484520167112, 43.076297817751765, 0.0 ], [ -89.293484520167112, 43.076297817751765, 0.0 ], [ -89.293483681976795, 43.07638113386929, 0.0 ], [ -89.293483681976795, 43.07638113386929, 0.0 ], [ -89.293487370014191, 43.076390521600842, 0.0 ], [ -89.293487370014191, 43.076390521600842, 0.0 ], [ -89.293486448004842, 43.076440477743745, 0.0 ], [ -89.293486448004842, 43.076440477743745, 0.0 ], [ -89.293481670320034, 43.076621443033218, 0.0 ], [ -89.293481670320034, 43.076621443033218, 0.0 ], [ -89.29348049685359, 43.076633345335722, 0.0 ], [ -89.29348049685359, 43.076633345335722, 0.0 ], [ -89.293484184890985, 43.076673159375787, 0.0 ], [ -89.293484184890985, 43.076673159375787, 0.0 ], [ -89.293490219861269, 43.076739544048905, 0.0 ], [ -89.293490219861269, 43.076739544048905, 0.0 ], [ -89.293481418862939, 43.076785728335381, 0.0 ], [ -89.293481418862939, 43.076785728335381, 0.0 ], [ -89.293480748310685, 43.076899973675609, 0.0 ], [ -89.293480748310685, 43.076899973675609, 0.0 ], [ -89.293507821857929, 43.076967867091298, 0.0 ], [ -89.293507821857929, 43.076967867091298, 0.0 ], [ -89.293557610362768, 43.07697624899447, 0.0 ], [ -89.293557610362768, 43.07697624899447, 0.0 ], [ -89.293629862368107, 43.076957557350397, 0.0 ] ] } },
{ "type": "Feature", "properties": { "id": 3, "hrt": 110, "maxHrt": [ 0 ] }, "geometry": { "type": "LineString", "coordinates": [ [ -89.293629862368107, 43.076957557350397, 0.0 ], [ -89.293739497661591, 43.076946660876274, 0.0 ], [ -89.293739497661591, 43.076946660876274, 0.0 ], [ -89.293765313923359, 43.076945571228862, 0.0 ], [ -89.293765313923359, 43.076945571228862, 0.0 ], [ -89.293833374977112, 43.076945822685957, 0.0 ], [ -89.293833374977112, 43.076945822685957, 0.0 ], [ -89.29392172023654, 43.076940793544054, 0.0 ] ] } },
{ "type": "Feature", "properties": { "id": 4, "hrt": 100, "maxHrt": [ 0 ] }, "geometry": { "type": "LineString", "coordinates": [ [ -89.29392172023654, 43.076940793544054, 0.0 ], [ -89.294117940589786, 43.076957054436207, 0.0 ], [ -89.294117940589786, 43.076957054436207, 0.0 ], [ -89.294138392433524, 43.07694599032402, 0.0 ], [ -89.294138392433524, 43.07694599032402, 0.0 ], [ -89.294199161231518, 43.07697138749063, 0.0 ], [ -89.294199161231518, 43.07697138749063, 0.0 ], [ -89.2943175137043, 43.076960574835539, 0.0 ], [ -89.2943175137043, 43.076960574835539, 0.0 ], [ -89.294375348836184, 43.076964514330029, 0.0 ], [ -89.294375348836184, 43.076964514330029, 0.0 ], [ -89.294390352442861, 43.076963592320681, 0.0 ], [ -89.294390352442861, 43.076963592320681, 0.0 ], [ -89.294446427375078, 43.076957808807492, 0.0 ], [ -89.294446427375078, 43.076957808807492, 0.0 ], [ -89.294456569477916, 43.076959401369095, 0.0 ], [ -89.294456569477916, 43.076959401369095, 0.0 ], [ -89.294469896703959, 43.076959820464253, 0.0 ], [ -89.294469896703959, 43.076959820464253, 0.0 ], [ -89.294531336054206, 43.076950181275606, 0.0 ] ] } },
{ "type": "Feature", "properties": { "id": 5, "hrt": 90, "maxHrt": [ 0 ] }, "geometry": { "type": "LineString", "coordinates": [ [ -89.294531336054206, 43.076950181275606, 0.0 ], [ -89.294675840064883, 43.076940458267927, 0.0 ], [ -89.294675840064883, 43.076940458267927, 0.0 ], [ -89.294682713225484, 43.07694255374372, 0.0 ], [ -89.294682713225484, 43.07694255374372, 0.0 ], [ -89.294702326878905, 43.076957138255239, 0.0 ], [ -89.294702326878905, 43.076957138255239, 0.0 ], [ -89.294701656326652, 43.076960910111666, 0.0 ], [ -89.294701656326652, 43.076960910111666, 0.0 ], [ -89.29469964466989, 43.076965101063251, 0.0 ], [ -89.29469964466989, 43.076965101063251, 0.0 ], [ -89.29476804099977, 43.076954204589128, 0.0 ], [ -89.29476804099977, 43.076954204589128, 0.0 ], [ -89.294942133128643, 43.07694305665791, 0.0 ], [ -89.294942133128643, 43.07694305665791, 0.0 ], [ -89.294982366263866, 43.076938949525356, 0.0 ] ] } },
{ "type": "Feature", "properties": { "id": 6, "hrt": 100, "maxHrt": [ 0 ] }, "geometry": { "type": "LineString", "coordinates": [ [ -89.294982366263866, 43.076938949525356, 0.0 ], [ -89.295017486438155, 43.076941799372435, 0.0 ], [ -89.295017486438155, 43.076941799372435, 0.0 ], [ -89.295068951323628, 43.076940709725022, 0.0 ], [ -89.295068951323628, 43.076940709725022, 0.0 ], [ -89.295130977407098, 43.076942805200815, 0.0 ] ] } },
{ "type": "Feature", "properties": { "id": 7, "hrt": 110, "maxHrt": [ 0 ] }, "geometry": { "type": "LineString", "coordinates": [ [ -89.295130977407098, 43.076942805200815, 0.0 ], [ -89.295154195278883, 43.076949007809162, 0.0 ], [ -89.295154195278883, 43.076949007809162, 0.0 ], [ -89.29525570012629, 43.076941464096308, 0.0 ], [ -89.29525570012629, 43.076941464096308, 0.0 ], [ -89.295433647930622, 43.076952612027526, 0.0 ], [ -89.295433647930622, 43.076952612027526, 0.0 ], [ -89.295445466414094, 43.076955042779446, 0.0 ], [ -89.295445466414094, 43.076955042779446, 0.0 ], [ -89.295478658750653, 43.076958982273936, 0.0 ], [ -89.295478658750653, 43.076958982273936, 0.0 ], [ -89.295499864965677, 43.076962754130363, 0.0 ], [ -89.295499864965677, 43.076962754130363, 0.0 ], [ -89.295487627387047, 43.076967196539044, 0.0 ], [ -89.295487627387047, 43.076967196539044, 0.0 ], [ -89.295449154451489, 43.076960658654571, 0.0 ], [ -89.295449154451489, 43.076960658654571, 0.0 ], [ -89.295448902994394, 43.076960407197475, 0.0 ], [ -89.295448902994394, 43.076960407197475, 0.0 ], [ -89.295448986813426, 43.076960407197475, 0.0 ], [ -89.295448986813426, 43.076960407197475, 0.0 ], [ -89.295449489727616, 43.076957808807492, 0.0 ], [ -89.295449489727616, 43.076957808807492, 0.0 ], [ -89.295447980985045, 43.076952528208494, 0.0 ], [ -89.295447980985045, 43.076952528208494, 0.0 ], [ -89.295500451698899, 43.076953701674938, 0.0 ], [ -89.295500451698899, 43.076953701674938, 0.0 ], [ -89.295529117807746, 43.076956132426858, 0.0 ], [ -89.295529117807746, 43.076956132426858, 0.0 ], [ -89.295672280713916, 43.076966861262918, 0.0 ], [ -89.295672280713916, 43.076966861262918, 0.0 ], [ -89.295693235471845, 43.076969711109996, 0.0 ], [ -89.295693235471845, 43.076969711109996, 0.0 ], [ -89.295696336776018, 43.076969459652901, 0.0 ], [ -89.295696336776018, 43.076969459652901, 0.0 ], [ -89.295727852731943, 43.076973399147391, 0.0 ], [ -89.295727852731943, 43.076973399147391, 0.0 ], [ -89.295802535489202, 43.076952863484621, 0.0 ], [ -89.295802535489202, 43.076952863484621, 0.0 ], [ -89.295823909342289, 43.07695428840816, 0.0 ], [ -89.295823909342289, 43.07695428840816, 0.0 ], [ -89.295877302065492, 43.076961496844888, 0.0 ], [ -89.295877302065492, 43.076961496844888, 0.0 ], [ -89.29595542140305, 43.076976165175438, 0.0 ], [ -89.29595542140305, 43.076976165175438, 0.0 ], [ -89.295967239886522, 43.076949091628194, 0.0 ], [ -89.295967239886522, 43.076949091628194, 0.0 ], [ -89.296005042269826, 43.076938278973103, 0.0 ], [ -89.296005042269826, 43.076938278973103, 0.0 ], [ -89.2961117438972, 43.076925789937377, 0.0 ], [ -89.2961117438972, 43.076925789937377, 0.0 ], [ -89.296112498268485, 43.076913971453905, 0.0 ], [ -89.296112498268485, 43.076913971453905, 0.0 ], [ -89.296115767210722, 43.076917491853237, 0.0 ], [ -89.296115767210722, 43.076917491853237, 0.0 ], [ -89.29617477580905, 43.076946157962084, 0.0 ], [ -89.29617477580905, 43.076946157962084, 0.0 ], [ -89.296212578192353, 43.076959904283285, 0.0 ], [ -89.296212578192353, 43.076959904283285, 0.0 ], [ -89.296280555427074, 43.076969375833869, 0.0 ], [ -89.296280555427074, 43.076969375833869, 0.0 ], [ -89.296333277598023, 43.076981026679277, 0.0 ], [ -89.296333277598023, 43.076981026679277, 0.0 ], [ -89.296357249841094, 43.076981781050563, 0.0 ], [ -89.296357249841094, 43.076981781050563, 0.0 ], [ -89.296400584280491, 43.076977171003819, 0.0 ], [ -89.296400584280491, 43.076977171003819, 0.0 ], [ -89.296439392492175, 43.076970549300313, 0.0 ], [ -89.296439392492175, 43.076970549300313, 0.0 ], [ -89.296462694182992, 43.076968789100647, 0.0 ], [ -89.296462694182992, 43.076968789100647, 0.0 ], [ -89.296508710831404, 43.076962754130363, 0.0 ], [ -89.296508710831404, 43.076962754130363, 0.0 ], [ -89.296569228172302, 43.076933333650231, 0.0 ], [ -89.296569228172302, 43.076933333650231, 0.0 ], [ -89.296598648652434, 43.076928723603487, 0.0 ], [ -89.296598648652434, 43.076928723603487, 0.0 ], [ -89.296644162386656, 43.076920006424189, 0.0 ], [ -89.296644162386656, 43.076920006424189, 0.0 ], [ -89.296811548992991, 43.076901398599148, 0.0 ] ] } },
{ "type": "Feature", "properties": { "id": 8, "hrt": 100, "maxHrt": [ 0 ] }, "geometry": { "type": "LineString", "coordinates": [ [ -89.296811548992991, 43.076901398599148, 0.0 ], [ -89.296848513185978, 43.076901314780116, 0.0 ], [ -89.296848513185978, 43.076901314780116, 0.0 ], [ -89.296982707455754, 43.076927633956075, 0.0 ], [ -89.296982707455754, 43.076927633956075, 0.0 ], [ -89.297140119597316, 43.076930735260248, 0.0 ], [ -89.297140119597316, 43.076930735260248, 0.0 ], [ -89.297163924202323, 43.076937273144722, 0.0 ], [ -89.297163924202323, 43.076937273144722, 0.0 ], [ -89.297254113480449, 43.076938781887293, 0.0 ], [ -89.297254113480449, 43.076938781887293, 0.0 ], [ -89.297294178977609, 43.076937356963754, 0.0 ], [ -89.297294178977609, 43.076937356963754, 0.0 ], [ -89.297315971925855, 43.07693618349731, 0.0 ], [ -89.297315971925855, 43.07693618349731, 0.0 ], [ -89.297450669109821, 43.076939452439547, 0.0 ], [ -89.297450669109821, 43.076939452439547, 0.0 ], [ -89.297479251399636, 43.076941045001149, 0.0 ], [ -89.297479251399636, 43.076941045001149, 0.0 ], [ -89.297490734606981, 43.07694498449564, 0.0 ], [ -89.297490734606981, 43.07694498449564, 0.0 ], [ -89.297530045732856, 43.076931405812502, 0.0 ], [ -89.297530045732856, 43.076931405812502, 0.0 ], [ -89.297674130648375, 43.076925706118345, 0.0 ], [ -89.297674130648375, 43.076925706118345, 0.0 ], [ -89.297755435109138, 43.07691371999681, 0.0 ], [ -89.297755435109138, 43.07691371999681, 0.0 ], [ -89.297828022390604, 43.07690198533237, 0.0 ] ] } },
{ "type": "Feature", "properties": { "id": 9, "hrt": 90, "maxHrt": [ 0 ] }, "geometry": { "type": "LineString", "coordinates": [ [ -89.297828022390604, 43.07690198533237, 0.0 ], [ -89.297829866409302, 43.076901063323021, 0.0 ], [ -89.297829866409302, 43.076901063323021, 0.0 ], [ -89.297956768423319, 43.076910451054573, 0.0 ] ] } },
{ "type": "Feature", "properties": { "id": 10, "hrt": 100, "maxHrt": [ 0 ] }, "geometry": { "type": "LineString", "coordinates": [ [ -89.297956768423319, 43.076910451054573, 0.0 ], [ -89.297984847798944, 43.076897542923689, 0.0 ], [ -89.297984847798944, 43.076897542923689, 0.0 ], [ -89.298106301575899, 43.076917575672269, 0.0 ], [ -89.298106301575899, 43.076917575672269, 0.0 ], [ -89.298194646835327, 43.076924365013838, 0.0 ], [ -89.298194646835327, 43.076924365013838, 0.0 ], [ -89.298211494460702, 43.076913552358747, 0.0 ] ] } },
{ "type": "Feature", "properties": { "id": 11, "hrt": 90, "maxHrt": [ 0 ] }, "geometry": { "type": "LineString", "coordinates": [ [ -89.298211494460702, 43.076913552358747, 0.0 ], [ -89.298218116164207, 43.07692252099514, 0.0 ], [ -89.298218116164207, 43.07692252099514, 0.0 ], [ -89.29830227047205, 43.076910451054573, 0.0 ], [ -89.29830227047205, 43.076910451054573, 0.0 ], [ -89.298495808616281, 43.076906846836209, 0.0 ], [ -89.298495808616281, 43.076906846836209, 0.0 ], [ -89.29855733178556, 43.076908690854907, 0.0 ], [ -89.29855733178556, 43.076908690854907, 0.0 ], [ -89.29861843585968, 43.076902152970433, 0.0 ] ] } },
{ "type": "Feature", "properties": { "id": 12, "hrt": 100, "maxHrt": [ 0 ] }, "geometry": { "type": "LineString", "coordinates": [ [ -89.29861843585968, 43.076902152970433, 0.0 ], [ -89.29865506477654, 43.076891088858247, 0.0 ], [ -89.29865506477654, 43.076891088858247, 0.0 ], [ -89.298690101131797, 43.076892932876945, 0.0 ], [ -89.298690101131797, 43.076892932876945, 0.0 ], [ -89.298715246841311, 43.076897878199816, 0.0 ], [ -89.298715246841311, 43.076897878199816, 0.0 ], [ -89.298871904611588, 43.076883964240551, 0.0 ], [ -89.298871904611588, 43.076883964240551, 0.0 ], [ -89.29893552325666, 43.076883545145392, 0.0 ], [ -89.29893552325666, 43.076883545145392, 0.0 ], [ -89.298950610682368, 43.0768848862499, 0.0 ], [ -89.298950610682368, 43.0768848862499, 0.0 ], [ -89.299060078337789, 43.076877761632204, 0.0 ], [ -89.299060078337789, 43.076877761632204, 0.0 ], [ -89.299116572365165, 43.076876336708665, 0.0 ], [ -89.299116572365165, 43.076876336708665, 0.0 ], [ -89.299240121617913, 43.076876755803823, 0.0 ], [ -89.299240121617913, 43.076876755803823, 0.0 ], [ -89.299378506839275, 43.076881533488631, 0.0 ], [ -89.299378506839275, 43.076881533488631, 0.0 ], [ -89.299464505165815, 43.076884131878614, 0.0 ], [ -89.299464505165815, 43.076884131878614, 0.0 ], [ -89.299522172659636, 43.076913971453905, 0.0 ], [ -89.299522172659636, 43.076913971453905, 0.0 ], [ -89.299524184316397, 43.077039113268256, 0.0 ], [ -89.299524184316397, 43.077039113268256, 0.0 ], [ -89.299523681402206, 43.077185964211822, 0.0 ], [ -89.299523681402206, 43.077185964211822, 0.0 ], [ -89.299532817676663, 43.077180683612823, 0.0 ], [ -89.299532817676663, 43.077180683612823, 0.0 ], [ -89.299522927030921, 43.077198956161737, 0.0 ], [ -89.299522927030921, 43.077198956161737, 0.0 ], [ -89.299521083012223, 43.07721521705389, 0.0 ], [ -89.299521083012223, 43.07721521705389, 0.0 ], [ -89.299515467137098, 43.077247152104974, 0.0 ], [ -89.299515467137098, 43.077247152104974, 0.0 ], [ -89.299514712765813, 43.077249163761735, 0.0 ], [ -89.299514712765813, 43.077249163761735, 0.0 ], [ -89.299514126032591, 43.07724891230464, 0.0 ], [ -89.299514126032591, 43.07724891230464, 0.0 ], [ -89.299521083012223, 43.077300293371081, 0.0 ] ] } },
{ "type": "Feature", "properties": { "id": 13, "hrt": 110, "maxHrt": [ 0 ] }, "geometry": { "type": "LineString", "coordinates": [ [ -89.299521083012223, 43.077300293371081, 0.0 ], [ -89.299537343904376, 43.07742677628994, 0.0 ], [ -89.299537343904376, 43.07742677628994, 0.0 ], [ -89.299536840990186, 43.077517468482256, 0.0 ], [ -89.299536840990186, 43.077517468482256, 0.0 ], [ -89.29954094812274, 43.077520821243525, 0.0 ], [ -89.29954094812274, 43.077520821243525, 0.0 ], [ -89.299546983093023, 43.077530628070235, 0.0 ], [ -89.299546983093023, 43.077530628070235, 0.0 ], [ -89.299529884010553, 43.077599108219147, 0.0 ], [ -89.299529884010553, 43.077599108219147, 0.0 ], [ -89.299522591754794, 43.077676640823483, 0.0 ], [ -89.299522591754794, 43.077676640823483, 0.0 ], [ -89.299525441601872, 43.077736152336001, 0.0 ] ] } },
{ "type": "Feature", "properties": { "id": 14, "hrt": 100, "maxHrt": [ 0 ] }, "geometry": { "type": "LineString", "coordinates": [ [ -89.299525441601872, 43.077736152336001, 0.0 ], [ -89.299507336691022, 43.077749982476234, 0.0 ], [ -89.299507336691022, 43.077749982476234, 0.0 ], [ -89.299556287005544, 43.07779960334301, 0.0 ], [ -89.299556287005544, 43.07779960334301, 0.0 ], [ -89.299522591754794, 43.07788266800344, 0.0 ], [ -89.299522591754794, 43.07788266800344, 0.0 ], [ -89.299518233165145, 43.077890882268548, 0.0 ], [ -89.299518233165145, 43.077890882268548, 0.0 ], [ -89.299491578713059, 43.07790320366621, 0.0 ] ] } },
{ "type": "Feature", "properties": { "id": 15, "hrt": 110, "maxHrt": [ 0 ] }, "geometry": { "type": "LineString", "coordinates": [ [ -89.299491578713059, 43.07790320366621, 0.0 ], [ -89.299474898725748, 43.077905215322971, 0.0 ], [ -89.299474898725748, 43.077905215322971, 0.0 ], [ -89.299459978938103, 43.077907729893923, 0.0 ], [ -89.299459978938103, 43.077907729893923, 0.0 ], [ -89.29944028146565, 43.077912088483572, 0.0 ], [ -89.29944028146565, 43.077912088483572, 0.0 ], [ -89.299346068874002, 43.077916614711285, 0.0 ], [ -89.299346068874002, 43.077916614711285, 0.0 ], [ -89.29926342330873, 43.077917955815792, 0.0 ], [ -89.29926342330873, 43.077917955815792, 0.0 ], [ -89.299194356426597, 43.077943436801434, 0.0 ], [ -89.299194356426597, 43.077943436801434, 0.0 ], [ -89.299186477437615, 43.077944777905941, 0.0 ], [ -89.299186477437615, 43.077944777905941, 0.0 ], [ -89.299164684489369, 43.07794276624918, 0.0 ], [ -89.299164684489369, 43.07794276624918, 0.0 ], [ -89.299011798575521, 43.077941928058863, 0.0 ], [ -89.299011798575521, 43.077941928058863, 0.0 ], [ -89.29884952493012, 43.077927511185408, 0.0 ], [ -89.29884952493012, 43.077927511185408, 0.0 ], [ -89.298713654279709, 43.077918542549014, 0.0 ] ] } },
{ "type": "Feature", "properties": { "id": 16, "hrt": 120, "maxHrt": [ 0 ] }, "geometry": { "type": "LineString", "coordinates": [ [ -89.298713654279709, 43.077918542549014, 0.0 ], [ -89.298705020919442, 43.077921224758029, 0.0 ], [ -89.298705020919442, 43.077921224758029, 0.0 ], [ -89.298672834411263, 43.077931366860867, 0.0 ], [ -89.298672834411263, 43.077931366860867, 0.0 ], [ -89.298645844683051, 43.077937569469213, 0.0 ] ] } },
{ "type": "Feature", "properties": { "id": 17, "hrt": 110, "maxHrt": [ 0 ] }, "geometry": { "type": "LineString", "coordinates": [ [ -89.298645844683051, 43.077937569469213, 0.0 ], [ -89.298628997057676, 43.077939162030816, 0.0 ], [ -89.298628997057676, 43.077939162030816, 0.0 ], [ -89.298563534393907, 43.077942514792085, 0.0 ], [ -89.298563534393907, 43.077942514792085, 0.0 ], [ -89.298409055918455, 43.077951986342669, 0.0 ] ] } },
{ "type": "Feature", "properties": { "id": 18, "hrt": 120, "maxHrt": [ 0 ] }, "geometry": { "type": "LineString", "coordinates": [ [ -89.298409055918455, 43.077951986342669, 0.0 ], [ -89.298368403688073, 43.077956680208445, 0.0 ], [ -89.298368403688073, 43.077956680208445, 0.0 ], [ -89.298306796699762, 43.077967325225472, 0.0 ], [ -89.298306796699762, 43.077967325225472, 0.0 ], [ -89.298191629350185, 43.077979143708944, 0.0 ], [ -89.298191629350185, 43.077979143708944, 0.0 ], [ -89.29814150556922, 43.077978892251849, 0.0 ], [ -89.29814150556922, 43.077978892251849, 0.0 ], [ -89.298043521121144, 43.07797696441412, 0.0 ], [ -89.298043521121144, 43.07797696441412, 0.0 ], [ -89.297915361821651, 43.077967073768377, 0.0 ], [ -89.297915361821651, 43.077967073768377, 0.0 ], [ -89.297832464799285, 43.077963469550014, 0.0 ], [ -89.297832464799285, 43.077963469550014, 0.0 ], [ -89.297598525881767, 43.077972186729312, 0.0 ] ] } },
{ "type": "Feature", "properties": { "id": 19, "hrt": 130, "maxHrt": [ 0 ] }, "geometry": { "type": "LineString", "coordinates": [ [ -89.297598525881767, 43.077972186729312, 0.0 ], [ -89.297419236972928, 43.07798677124083, 0.0 ], [ -89.297419236972928, 43.07798677124083, 0.0 ], [ -89.297284204512835, 43.077986100688577, 0.0 ], [ -89.297284204512835, 43.077986100688577, 0.0 ], [ -89.297269368544221, 43.077988531440496, 0.0 ], [ -89.297269368544221, 43.077988531440496, 0.0 ], [ -89.297176999971271, 43.078005462884903, 0.0 ], [ -89.297176999971271, 43.078005462884903, 0.0 ], [ -89.29714129306376, 43.078008061274886, 0.0 ], [ -89.29714129306376, 43.078008061274886, 0.0 ], [ -89.297030316665769, 43.078013677150011, 0.0 ], [ -89.297030316665769, 43.078013677150011, 0.0 ], [ -89.296843484044075, 43.078016275539994, 0.0 ] ] } },
{ "type": "Feature", "properties": { "id": 20, "hrt": 120, "maxHrt": [ 0 ] }, "geometry": { "type": "LineString", "coordinates": [ [ -89.296843484044075, 43.078016275539994, 0.0 ], [ -89.296730915084481, 43.078018790110946, 0.0 ] ] } },
{ "type": "Feature", "properties": { "id": 21, "hrt": 110, "maxHrt": [ 0 ] }, "geometry": { "type": "LineString", "coordinates": [ [ -89.296730915084481, 43.078018790110946, 0.0 ], [ -89.296727813780308, 43.078018203377724, 0.0 ], [ -89.296727813780308, 43.078018203377724, 0.0 ], [ -89.296727310866117, 43.078017700463533, 0.0 ], [ -89.296727310866117, 43.078017700463533, 0.0 ], [ -89.296707781031728, 43.078033374622464, 0.0 ], [ -89.296707781031728, 43.078033374622464, 0.0 ], [ -89.296707781031728, 43.078033374622464, 0.0 ], [ -89.296707781031728, 43.078033374622464, 0.0 ], [ -89.296629996970296, 43.078034380450845, 0.0 ] ] } },
{ "type": "Feature", "properties": { "id": 22, "hrt": 100, "maxHrt": [ 0 ] }, "geometry": { "type": "LineString", "coordinates": [ [ -89.296629996970296, 43.078034380450845, 0.0 ], [ -89.29653980769217, 43.078044522553682, 0.0 ], [ -89.29653980769217, 43.078044522553682, 0.0 ], [ -89.296504938974977, 43.078047204762697, 0.0 ], [ -89.296504938974977, 43.078047204762697, 0.0 ], [ -89.296419024467468, 43.078040834516287, 0.0 ] ] } },
{ "type": "Feature", "properties": { "id": 23, "hrt": 90, "maxHrt": [ 0 ] }, "geometry": { "type": "LineString", "coordinates": [ [ -89.296419024467468, 43.078040834516287, 0.0 ], [ -89.29633948020637, 43.078042175620794, 0.0 ], [ -89.29633948020637, 43.078042175620794, 0.0 ], [ -89.296248117461801, 43.07804980315268, 0.0 ], [ -89.296248117461801, 43.07804980315268, 0.0 ], [ -89.296160191297531, 43.078048881143332, 0.0 ], [ -89.296160191297531, 43.078048881143332, 0.0 ], [ -89.296159520745277, 43.078050222247839, 0.0 ], [ -89.296159520745277, 43.078050222247839, 0.0 ], [ -89.296080311760306, 43.078041840344667, 0.0 ], [ -89.296080311760306, 43.078041840344667, 0.0 ], [ -89.295986769720912, 43.078078888356686, 0.0 ], [ -89.295986769720912, 43.078078888356686, 0.0 ], [ -89.295978890731931, 43.078185841441154, 0.0 ], [ -89.295978890731931, 43.078185841441154, 0.0 ], [ -89.295981992036104, 43.078276449814439, 0.0 ], [ -89.295981992036104, 43.078276449814439, 0.0 ], [ -89.295980650931597, 43.078365968540311, 0.0 ], [ -89.295980650931597, 43.078365968540311, 0.0 ], [ -89.295976292341948, 43.078441992402077, 0.0 ], [ -89.295976292341948, 43.078441992402077, 0.0 ], [ -89.29597738198936, 43.078463701531291, 0.0 ], [ -89.29597738198936, 43.078463701531291, 0.0 ], [ -89.295978890731931, 43.078553723171353, 0.0 ], [ -89.295978890731931, 43.078553723171353, 0.0 ], [ -89.295981070026755, 43.078569816425443, 0.0 ], [ -89.295981070026755, 43.078569816425443, 0.0 ], [ -89.295985260978341, 43.078636536374688, 0.0 ], [ -89.295985260978341, 43.078636536374688, 0.0 ], [ -89.295987104997039, 43.078756565228105, 0.0 ], [ -89.295987104997039, 43.078756565228105, 0.0 ], [ -89.295990793034434, 43.078806521371007, 0.0 ], [ -89.295990793034434, 43.078806521371007, 0.0 ], [ -89.295988362282515, 43.078819094225764, 0.0 ], [ -89.295988362282515, 43.078819094225764, 0.0 ], [ -89.295986434444785, 43.07887994684279, 0.0 ], [ -89.295986434444785, 43.07887994684279, 0.0 ], [ -89.295985931530595, 43.078892938792706, 0.0 ], [ -89.295985931530595, 43.078892938792706, 0.0 ], [ -89.2959891166538, 43.078941470012069, 0.0 ], [ -89.2959891166538, 43.078941470012069, 0.0 ], [ -89.29598324932158, 43.078990923240781, 0.0 ], [ -89.29598324932158, 43.078990923240781, 0.0 ], [ -89.295985344797373, 43.07900307700038, 0.0 ], [ -89.295985344797373, 43.07900307700038, 0.0 ], [ -89.29600571282208, 43.079048255458474, 0.0 ] ] } },
{ "type": "Feature", "properties": { "id": 24, "hrt": 100, "maxHrt": [ 0 ] }, "geometry": { "type": "LineString", "coordinates": [ [ -89.29600571282208, 43.079048255458474, 0.0 ], [ -89.296034630388021, 43.079099720343947, 0.0 ], [ -89.296034630388021, 43.079099720343947, 0.0 ], [ -89.296077797189355, 43.079139785841107, 0.0 ], [ -89.296077797189355, 43.079139785841107, 0.0 ], [ -89.296084502711892, 43.079141629859805, 0.0 ], [ -89.296084502711892, 43.079141629859805, 0.0 ], [ -89.29613471031189, 43.079184293746948, 0.0 ], [ -89.29613471031189, 43.079184293746948, 0.0 ], [ -89.29614887572825, 43.07919954881072, 0.0 ], [ -89.29614887572825, 43.07919954881072, 0.0 ], [ -89.29623487405479, 43.079281440004706, 0.0 ] ] } },
{ "type": "Feature", "properties": { "id": 25, "hrt": 90, "maxHrt": [ 0 ] }, "geometry": { "type": "LineString", "coordinates": [ [ -89.29623487405479, 43.079281440004706, 0.0 ], [ -89.296277035027742, 43.079333323985338, 0.0 ], [ -89.296277035027742, 43.079333323985338, 0.0 ], [ -89.296189108863473, 43.079414293169975, 0.0 ] ] } },
{ "type": "Feature", "properties": { "id": 26, "hrt": 100, "maxHrt": [ 0 ] }, "geometry": { "type": "LineString", "coordinates": [ [ -89.296189108863473, 43.079414293169975, 0.0 ], [ -89.296172596514225, 43.079429045319557, 0.0 ], [ -89.296172596514225, 43.079429045319557, 0.0 ], [ -89.296093974262476, 43.079508757218719, 0.0 ], [ -89.296093974262476, 43.079508757218719, 0.0 ], [ -89.296074360609055, 43.079530131071806, 0.0 ], [ -89.296074360609055, 43.079530131071806, 0.0 ], [ -89.295955672860146, 43.079654015600681, 0.0 ], [ -89.295955672860146, 43.079654015600681, 0.0 ], [ -89.295882415026426, 43.079764908179641, 0.0 ] ] } },
{ "type": "Feature", "properties": { "id": 27, "hrt": 110, "maxHrt": [ 0 ] }, "geometry": { "type": "LineString", "coordinates": [ [ -89.295882415026426, 43.079764908179641, 0.0 ], [ -89.295836733654141, 43.079799693077803, 0.0 ], [ -89.295836733654141, 43.079799693077803, 0.0 ], [ -89.295756183564663, 43.079886781051755, 0.0 ], [ -89.295756183564663, 43.079886781051755, 0.0 ], [ -89.295742604881525, 43.079903461039066, 0.0 ], [ -89.295742604881525, 43.079903461039066, 0.0 ], [ -89.295743526890874, 43.079897845163941, 0.0 ], [ -89.295743526890874, 43.079897845163941, 0.0 ], [ -89.295711843296885, 43.079925840720534, 0.0 ], [ -89.295711843296885, 43.079925840720534, 0.0 ], [ -89.295677812770009, 43.079959116876125, 0.0 ], [ -89.295677812770009, 43.079959116876125, 0.0 ], [ -89.295652247965336, 43.079983508214355, 0.0 ], [ -89.295652247965336, 43.079983508214355, 0.0 ], [ -89.295638334006071, 43.080016952008009, 0.0 ], [ -89.295638334006071, 43.080016952008009, 0.0 ], [ -89.295565746724606, 43.080068919807673, 0.0 ], [ -89.295565746724606, 43.080068919807673, 0.0 ], [ -89.295470109209418, 43.080181572586298, 0.0 ] ] } },
{ "type": "Feature", "properties": { "id": 28, "hrt": 100, "maxHrt": [ 0 ] }, "geometry": { "type": "LineString", "coordinates": [ [ -89.295470109209418, 43.080181572586298, 0.0 ], [ -89.295467929914594, 43.080193055793643, 0.0 ], [ -89.295467929914594, 43.080193055793643, 0.0 ], [ -89.29545066319406, 43.080246783792973, 0.0 ], [ -89.29545066319406, 43.080246783792973, 0.0 ], [ -89.295444460585713, 43.080246783792973, 0.0 ], [ -89.295444460585713, 43.080246783792973, 0.0 ], [ -89.295424344018102, 43.08027746155858, 0.0 ], [ -89.295424344018102, 43.08027746155858, 0.0 ], [ -89.295371035113931, 43.080333452671766, 0.0 ], [ -89.295371035113931, 43.080333452671766, 0.0 ], [ -89.295326778665185, 43.080374943092465, 0.0 ], [ -89.295326778665185, 43.080374943092465, 0.0 ], [ -89.295281181111932, 43.08041475713253, 0.0 ], [ -89.295281181111932, 43.08041475713253, 0.0 ], [ -89.295227872207761, 43.080397993326187, 0.0 ], [ -89.295227872207761, 43.080397993326187, 0.0 ], [ -89.295197697356343, 43.080349378287792, 0.0 ], [ -89.295197697356343, 43.080349378287792, 0.0 ], [ -89.295202475041151, 43.080355245620012, 0.0 ], [ -89.295202475041151, 43.080355245620012, 0.0 ], [ -89.295204402878881, 43.080357508733869, 0.0 ], [ -89.295204402878881, 43.080357508733869, 0.0 ], [ -89.295203480869532, 43.080355748534203, 0.0 ], [ -89.295203480869532, 43.080355748534203, 0.0 ], [ -89.295202055945992, 43.080367567017674, 0.0 ] ] } },
{ "type": "Feature", "properties": { "id": 29, "hrt": 110, "maxHrt": [ 0 ] }, "geometry": { "type": "LineString", "coordinates": [ [ -89.295202055945992, 43.080367567017674, 0.0 ], [ -89.295271458104253, 43.080419786274433, 0.0 ], [ -89.295271458104253, 43.080419786274433, 0.0 ], [ -89.295246228575706, 43.08047091588378, 0.0 ], [ -89.295246228575706, 43.08047091588378, 0.0 ], [ -89.29511790163815, 43.080587675794959, 0.0 ], [ -89.29511790163815, 43.080587675794959, 0.0 ], [ -89.295072136446834, 43.080631261691451, 0.0 ], [ -89.295072136446834, 43.080631261691451, 0.0 ], [ -89.295027628540993, 43.08069278486073, 0.0 ], [ -89.295027628540993, 43.08069278486073, 0.0 ], [ -89.295016480609775, 43.080717343837023, 0.0 ], [ -89.295016480609775, 43.080717343837023, 0.0 ], [ -89.295003991574049, 43.08072698302567, 0.0 ], [ -89.295003991574049, 43.08072698302567, 0.0 ], [ -89.294980857521296, 43.080753888934851, 0.0 ], [ -89.294980857521296, 43.080753888934851, 0.0 ], [ -89.294898714870214, 43.080838713794947, 0.0 ], [ -89.294898714870214, 43.080838713794947, 0.0 ], [ -89.294848507270217, 43.080899901688099, 0.0 ], [ -89.294848507270217, 43.080899901688099, 0.0 ], [ -89.294835263863206, 43.080903002992272, 0.0 ], [ -89.294835263863206, 43.080903002992272, 0.0 ], [ -89.294794695451856, 43.080944744870067, 0.0 ], [ -89.294794695451856, 43.080944744870067, 0.0 ], [ -89.294727724045515, 43.081008782610297, 0.0 ] ] } },
{ "type": "Feature", "properties": { "id": 30, "hrt": 100, "maxHrt": [ 0 ] }, "geometry": { "type": "LineString", "coordinates": [ [ -89.294727724045515, 43.081008782610297, 0.0 ], [ -89.294635774567723, 43.081133086234331, 0.0 ], [ -89.294635774567723, 43.081133086234331, 0.0 ], [ -89.294603336602449, 43.08124540373683, 0.0 ], [ -89.294603336602449, 43.08124540373683, 0.0 ], [ -89.294602498412132, 43.08126543648541, 0.0 ], [ -89.294602498412132, 43.08126543648541, 0.0 ], [ -89.294617753475904, 43.081309106200933, 0.0 ], [ -89.294617753475904, 43.081309106200933, 0.0 ], [ -89.294598139822483, 43.08143500238657, 0.0 ] ] } },
{ "type": "Feature", "properties": { "id": 31, "hrt": 90, "maxHrt": [ 0 ] }, "geometry": { "type": "LineString", "coordinates": [ [ -89.294598139822483, 43.08143500238657, 0.0 ], [ -89.294594703242183, 43.081523850560188, 0.0 ], [ -89.294594703242183, 43.081523850560188, 0.0 ], [ -89.294628482311964, 43.081611189991236, 0.0 ] ] } },
{ "type": "Feature", "properties": { "id": 32, "hrt": 100, "maxHrt": [ 0 ] }, "geometry": { "type": "LineString", "coordinates": [ [ -89.294628482311964, 43.081611189991236, 0.0 ], [ -89.294625381007791, 43.08162703178823, 0.0 ], [ -89.294625381007791, 43.08162703178823, 0.0 ], [ -89.294632002711296, 43.081704061478376, 0.0 ], [ -89.294632002711296, 43.081704061478376, 0.0 ], [ -89.294633846729994, 43.08171059936285, 0.0 ], [ -89.294633846729994, 43.08171059936285, 0.0 ], [ -89.294663015753031, 43.081788383424282, 0.0 ] ] } },
{ "type": "Feature", "properties": { "id": 33, "hrt": 110, "maxHrt": [ 0 ] }, "geometry": { "type": "LineString", "coordinates": [ [ -89.294663015753031, 43.081788383424282, 0.0 ], [ -89.294667458161712, 43.08179366402328, 0.0 ], [ -89.294667458161712, 43.08179366402328, 0.0 ], [ -89.294668044894934, 43.081793915480375, 0.0 ], [ -89.294668044894934, 43.081793915480375, 0.0 ], [ -89.294667793437839, 43.081793747842312, 0.0 ], [ -89.294667793437839, 43.081793747842312, 0.0 ], [ -89.294672403484583, 43.081797016784549, 0.0 ], [ -89.294672403484583, 43.081797016784549, 0.0 ], [ -89.294673074036837, 43.081796932965517, 0.0 ], [ -89.294673074036837, 43.081796932965517, 0.0 ], [ -89.294673576951027, 43.081796681508422, 0.0 ], [ -89.294673576951027, 43.081796681508422, 0.0 ], [ -89.294654130935669, 43.08175896294415, 0.0 ], [ -89.294654130935669, 43.08175896294415, 0.0 ], [ -89.294648179784417, 43.08174965903163, 0.0 ], [ -89.294648179784417, 43.08174965903163, 0.0 ], [ -89.294627560302615, 43.081712694838643, 0.0 ], [ -89.294627560302615, 43.081712694838643, 0.0 ], [ -89.294611131772399, 43.081672210246325, 0.0 ], [ -89.294611131772399, 43.081672210246325, 0.0 ], [ -89.29459797218442, 43.081617644056678, 0.0 ], [ -89.29459797218442, 43.081617644056678, 0.0 ], [ -89.294598307460546, 43.081600964069366, 0.0 ], [ -89.294598307460546, 43.081600964069366, 0.0 ], [ -89.29460140876472, 43.081540949642658, 0.0 ], [ -89.29460140876472, 43.081540949642658, 0.0 ], [ -89.294595289975405, 43.081474229693413, 0.0 ], [ -89.294595289975405, 43.081474229693413, 0.0 ], [ -89.29459311068058, 43.081420501694083, 0.0 ], [ -89.29459311068058, 43.081420501694083, 0.0 ], [ -89.294616663828492, 43.081361157819629, 0.0 ], [ -89.294616663828492, 43.081361157819629, 0.0 ], [ -89.294619178399444, 43.081320254132152, 0.0 ], [ -89.294619178399444, 43.081320254132152, 0.0 ], [ -89.29466444067657, 43.08119117282331, 0.0 ], [ -89.29466444067657, 43.08119117282331, 0.0 ], [ -89.294704757630825, 43.081097966060042, 0.0 ], [ -89.294704757630825, 43.081097966060042, 0.0 ], [ -89.294733423739672, 43.081043316051364, 0.0 ], [ -89.294733423739672, 43.081043316051364, 0.0 ], [ -89.294757144525647, 43.080995287746191, 0.0 ], [ -89.294757144525647, 43.080995287746191, 0.0 ], [ -89.294795366004109, 43.080944074317813, 0.0 ] ] } },
{ "type": "Feature", "properties": { "id": 34, "hrt": 100, "maxHrt": [ 0 ] }, "geometry": { "type": "LineString", "coordinates": [ [ -89.294795366004109, 43.080944074317813, 0.0 ], [ -89.294837107881904, 43.080887915566564, 0.0 ], [ -89.294837107881904, 43.080887915566564, 0.0 ], [ -89.294926626607776, 43.080774424597621, 0.0 ], [ -89.294926626607776, 43.080774424597621, 0.0 ], [ -89.294941462576389, 43.080756487324834, 0.0 ], [ -89.294941462576389, 43.080756487324834, 0.0 ], [ -89.295026371255517, 43.080688761547208, 0.0 ], [ -89.295026371255517, 43.080688761547208, 0.0 ], [ -89.295021006837487, 43.080693706870079, 0.0 ], [ -89.295021006837487, 43.080693706870079, 0.0 ], [ -89.295059395954013, 43.080638637766242, 0.0 ] ] } },
{ "type": "Feature", "properties": { "id": 35, "hrt": 110, "maxHrt": [ 0 ] }, "geometry": { "type": "LineString", "coordinates": [ [ -89.295059395954013, 43.080638637766242, 0.0 ], [ -89.295195853337646, 43.080475190654397, 0.0 ], [ -89.295195853337646, 43.080475190654397, 0.0 ], [ -89.295240361243486, 43.080421211197972, 0.0 ], [ -89.295240361243486, 43.080421211197972, 0.0 ], [ -89.295253017917275, 43.080412577837706, 0.0 ], [ -89.295253017917275, 43.080412577837706, 0.0 ], [ -89.295333651825786, 43.080347366631031, 0.0 ], [ -89.295333651825786, 43.080347366631031, 0.0 ], [ -89.295341949909925, 43.080338481813669, 0.0 ], [ -89.295341949909925, 43.080338481813669, 0.0 ], [ -89.295354271307588, 43.080341164022684, 0.0 ], [ -89.295354271307588, 43.080341164022684, 0.0 ], [ -89.295352511107922, 43.080335967242718, 0.0 ], [ -89.295352511107922, 43.080335967242718, 0.0 ], [ -89.295367179438472, 43.080316605046391, 0.0 ], [ -89.295367179438472, 43.080316605046391, 0.0 ], [ -89.295430043712258, 43.080232115462422, 0.0 ], [ -89.295430043712258, 43.080232115462422, 0.0 ], [ -89.295457536354661, 43.080205041915178, 0.0 ], [ -89.295457536354661, 43.080205041915178, 0.0 ], [ -89.295487459748983, 43.080186937004328, 0.0 ], [ -89.295487459748983, 43.080186937004328, 0.0 ], [ -89.29549315944314, 43.080175453796983, 0.0 ], [ -89.29549315944314, 43.080175453796983, 0.0 ], [ -89.295496260747313, 43.080168748274446, 0.0 ], [ -89.295496260747313, 43.080168748274446, 0.0 ], [ -89.295494500547647, 43.080165646970272, 0.0 ], [ -89.295494500547647, 43.080165646970272, 0.0 ], [ -89.295485615730286, 43.080159276723862, 0.0 ], [ -89.295485615730286, 43.080159276723862, 0.0 ], [ -89.295485615730286, 43.080159276723862, 0.0 ], [ -89.295485615730286, 43.080159276723862, 0.0 ], [ -89.295526603236794, 43.080117451027036, 0.0 ], [ -89.295526603236794, 43.080117451027036, 0.0 ], [ -89.29561578668654, 43.080031033605337, 0.0 ], [ -89.29561578668654, 43.080031033605337, 0.0 ], [ -89.295630035921931, 43.080002451315522, 0.0 ], [ -89.295630035921931, 43.080002451315522, 0.0 ], [ -89.295691642910242, 43.079928271472454, 0.0 ] ] } },
{ "type": "Feature", "properties": { "id": 36, "hrt": 100, "maxHrt": [ 0 ] }, "geometry": { "type": "LineString", "coordinates": [ [ -89.295691642910242, 43.079928271472454, 0.0 ], [ -89.295722069218755, 43.079891139641404, 0.0 ], [ -89.295722069218755, 43.079891139641404, 0.0 ], [ -89.295773534104228, 43.079833807423711, 0.0 ], [ -89.295773534104228, 43.079833807423711, 0.0 ], [ -89.295825585722923, 43.079792903736234, 0.0 ] ] } },
{ "type": "Feature", "properties": { "id": 37, "hrt": 110, "maxHrt": [ 0 ] }, "geometry": { "type": "LineString", "coordinates": [ [ -89.295825585722923, 43.079792903736234, 0.0 ], [ -89.295821813866496, 43.079788880422711, 0.0 ], [ -89.295821813866496, 43.079788880422711, 0.0 ], [ -89.29582298733294, 43.079787539318204, 0.0 ], [ -89.29582298733294, 43.079787539318204, 0.0 ], [ -89.295825753360987, 43.079788293689489, 0.0 ], [ -89.295825753360987, 43.079788293689489, 0.0 ], [ -89.295882079750299, 43.079738589003682, 0.0 ] ] } },
{ "type": "Feature", "properties": { "id": 38, "hrt": 120, "maxHrt": [ 0 ] }, "geometry": { "type": "LineString", "coordinates": [ [ -89.295882079750299, 43.079738589003682, 0.0 ], [ -89.295883337035775, 43.079685866832733, 0.0 ], [ -89.295883337035775, 43.079685866832733, 0.0 ], [ -89.295907812193036, 43.07965150102973, 0.0 ], [ -89.295907812193036, 43.07965150102973, 0.0 ], [ -89.295975957065821, 43.079612692818046, 0.0 ], [ -89.295975957065821, 43.079612692818046, 0.0 ], [ -89.296004623174667, 43.079606657847762, 0.0 ], [ -89.296004623174667, 43.079606657847762, 0.0 ], [ -89.29606731981039, 43.079558378085494, 0.0 ], [ -89.29606731981039, 43.079558378085494, 0.0 ], [ -89.296066984534264, 43.079523928463459, 0.0 ], [ -89.296066984534264, 43.079523928463459, 0.0 ], [ -89.296098751947284, 43.079467937350273, 0.0 ], [ -89.296098751947284, 43.079467937350273, 0.0 ], [ -89.296132614836097, 43.079452263191342, 0.0 ], [ -89.296132614836097, 43.079452263191342, 0.0 ], [ -89.29613035172224, 43.079446228221059, 0.0 ], [ -89.29613035172224, 43.079446228221059, 0.0 ], [ -89.296026835218072, 43.079382609575987, 0.0 ], [ -89.296026835218072, 43.079382609575987, 0.0 ], [ -89.295972436666489, 43.079349081963301, 0.0 ] ] } },
{ "type": "Feature", "properties": { "id": 39, "hrt": 130, "maxHrt": [ 0 ] }, "geometry": { "type": "LineString", "coordinates": [ [ -89.295972436666489, 43.079349081963301, 0.0 ], [ -89.295952571555972, 43.079331899061799, 0.0 ], [ -89.295952571555972, 43.079331899061799, 0.0 ], [ -89.295914266258478, 43.079300886020064, 0.0 ], [ -89.295914266258478, 43.079300886020064, 0.0 ], [ -89.295905716717243, 43.079293174669147, 0.0 ], [ -89.295905716717243, 43.079293174669147, 0.0 ], [ -89.295910410583019, 43.07928990572691, 0.0 ], [ -89.295910410583019, 43.07928990572691, 0.0 ], [ -89.295910410583019, 43.079290995374322, 0.0 ], [ -89.295910410583019, 43.079290995374322, 0.0 ], [ -89.295869171619415, 43.079237937927246, 0.0 ], [ -89.295869171619415, 43.079237937927246, 0.0 ], [ -89.295811168849468, 43.079148251563311, 0.0 ], [ -89.295811168849468, 43.079148251563311, 0.0 ], [ -89.295787867158651, 43.079094607383013, 0.0 ], [ -89.295787867158651, 43.079094607383013, 0.0 ], [ -89.295776383951306, 43.078969633206725, 0.0 ], [ -89.295776383951306, 43.078969633206725, 0.0 ], [ -89.295771354809403, 43.078937949612737, 0.0 ], [ -89.295771354809403, 43.078937949612737, 0.0 ], [ -89.295763978734612, 43.078881455585361, 0.0 ] ] } },
{ "type": "Feature", "properties": { "id": 40, "hrt": 120, "maxHrt": [ 0 ] }, "geometry": { "type": "LineString", "coordinates": [ [ -89.295763978734612, 43.078881455585361, 0.0 ], [ -89.295765487477183, 43.078859997913241, 0.0 ] ] } },
{ "type": "Feature", "properties": { "id": 41, "hrt": 130, "maxHrt": [ 0 ] }, "geometry": { "type": "LineString", "coordinates": [ [ -89.295765487477183, 43.078859997913241, 0.0 ], [ -89.295755680650473, 43.078809706494212, 0.0 ] ] } },
{ "type": "Feature", "properties": { "id": 42, "hrt": 120, "maxHrt": [ 0 ] }, "geometry": { "type": "LineString", "coordinates": [ [ -89.295755680650473, 43.078809706494212, 0.0 ], [ -89.295741096138954, 43.078711302950978, 0.0 ], [ -89.295741096138954, 43.078711302950978, 0.0 ], [ -89.295740509405732, 43.078657574951649, 0.0 ], [ -89.295740509405732, 43.078657574951649, 0.0 ], [ -89.295718297362328, 43.07856872677803, 0.0 ], [ -89.295718297362328, 43.07856872677803, 0.0 ], [ -89.29571301676333, 43.078565122559667, 0.0 ], [ -89.29571301676333, 43.078565122559667, 0.0 ], [ -89.295718967914581, 43.078522877767682, 0.0 ], [ -89.295718967914581, 43.078522877767682, 0.0 ], [ -89.295718045905232, 43.07844408787787, 0.0 ], [ -89.295718045905232, 43.07844408787787, 0.0 ], [ -89.295717040076852, 43.078436125069857, 0.0 ], [ -89.295717040076852, 43.078436125069857, 0.0 ], [ -89.295716034248471, 43.07841869071126, 0.0 ], [ -89.295716034248471, 43.07841869071126, 0.0 ], [ -89.295715028420091, 43.078362448140979, 0.0 ], [ -89.295715028420091, 43.078362448140979, 0.0 ], [ -89.295712513849139, 43.078315341845155, 0.0 ], [ -89.295712513849139, 43.078315341845155, 0.0 ], [ -89.295723242685199, 43.078141584992409, 0.0 ], [ -89.295723242685199, 43.078141584992409, 0.0 ], [ -89.295745706185699, 43.078041924163699, 0.0 ], [ -89.295745706185699, 43.078041924163699, 0.0 ], [ -89.295744448900223, 43.077919967472553, 0.0 ] ] } },
{ "type": "Feature", "properties": { "id": 43, "hrt": 110, "maxHrt": [ 0 ] }, "geometry": { "type": "LineString", "coordinates": [ [ -89.295744448900223, 43.077919967472553, 0.0 ], [ -89.29573061875999, 43.077883422374725, 0.0 ], [ -89.29573061875999, 43.077883422374725, 0.0 ], [ -89.295760039240122, 43.077887026593089, 0.0 ], [ -89.295760039240122, 43.077887026593089, 0.0 ], [ -89.295775294303894, 43.077813014388084, 0.0 ], [ -89.295775294303894, 43.077813014388084, 0.0 ], [ -89.295795327052474, 43.07774436660111, 0.0 ], [ -89.295795327052474, 43.07774436660111, 0.0 ], [ -89.29580488242209, 43.077669013291597, 0.0 ], [ -89.29580488242209, 43.077669013291597, 0.0 ], [ -89.295813012868166, 43.077579997479916, 0.0 ], [ -89.295813012868166, 43.077579997479916, 0.0 ], [ -89.295809241011739, 43.077520234510303, 0.0 ], [ -89.295809241011739, 43.077520234510303, 0.0 ], [ -89.295765152201056, 43.07741018012166, 0.0 ], [ -89.295765152201056, 43.07741018012166, 0.0 ], [ -89.295756770297885, 43.07730708271265, 0.0 ], [ -89.295756770297885, 43.07730708271265, 0.0 ], [ -89.295726763084531, 43.077214630320668, 0.0 ], [ -89.295726763084531, 43.077214630320668, 0.0 ], [ -89.295722404494882, 43.077152436599135, 0.0 ], [ -89.295722404494882, 43.077152436599135, 0.0 ], [ -89.295680411159992, 43.077128799632192, 0.0 ], [ -89.295680411159992, 43.077128799632192, 0.0 ], [ -89.295649649575353, 43.077123686671257, 0.0 ], [ -89.295649649575353, 43.077123686671257, 0.0 ], [ -89.295522915199399, 43.077116729691625, 0.0 ], [ -89.295522915199399, 43.077116729691625, 0.0 ], [ -89.295498607680202, 43.077112874016166, 0.0 ], [ -89.295498607680202, 43.077112874016166, 0.0 ], [ -89.295310433954, 43.077099127694964, 0.0 ], [ -89.295310433954, 43.077099127694964, 0.0 ], [ -89.295226950198412, 43.077085632830858, 0.0 ], [ -89.295226950198412, 43.077085632830858, 0.0 ], [ -89.295180598273873, 43.077085129916668, 0.0 ], [ -89.295180598273873, 43.077085129916668, 0.0 ], [ -89.295172048732638, 43.077085800468922, 0.0 ], [ -89.295172048732638, 43.077085800468922, 0.0 ], [ -89.295098623260856, 43.077104324474931, 0.0 ], [ -89.295098623260856, 43.077104324474931, 0.0 ], [ -89.295041877776384, 43.07709937915206, 0.0 ], [ -89.295041877776384, 43.07709937915206, 0.0 ], [ -89.294888069853187, 43.077105581760406, 0.0 ] ] } },
{ "type": "Feature", "properties": { "id": 44, "hrt": 120, "maxHrt": [ 0 ] }, "geometry": { "type": "LineString", "coordinates": [ [ -89.294888069853187, 43.077105581760406, 0.0 ], [ -89.294875413179398, 43.07710231281817, 0.0 ], [ -89.294875413179398, 43.07710231281817, 0.0 ], [ -89.294796455651522, 43.077078759670258, 0.0 ], [ -89.294796455651522, 43.077078759670258, 0.0 ], [ -89.294780110940337, 43.07707792147994, 0.0 ], [ -89.294780110940337, 43.07707792147994, 0.0 ], [ -89.294760748744011, 43.077084375545382, 0.0 ], [ -89.294760748744011, 43.077084375545382, 0.0 ], [ -89.294647257775068, 43.077098876237869, 0.0 ] ] } },
{ "type": "Feature", "properties": { "id": 45, "hrt": 110, "maxHrt": [ 0 ] }, "geometry": { "type": "LineString", "coordinates": [ [ -89.294647257775068, 43.077098876237869, 0.0 ], [ -89.294611886143684, 43.077093847095966, 0.0 ], [ -89.294611886143684, 43.077093847095966, 0.0 ], [ -89.294581292197108, 43.077087644487619, 0.0 ], [ -89.294581292197108, 43.077087644487619, 0.0 ], [ -89.294576179236174, 43.07707641273737, 0.0 ], [ -89.294576179236174, 43.07707641273737, 0.0 ], [ -89.294571820646524, 43.077049255371094, 0.0 ], [ -89.294571820646524, 43.077049255371094, 0.0 ], [ -89.294557068496943, 43.076997874304652, 0.0 ], [ -89.294557068496943, 43.076997874304652, 0.0 ], [ -89.294545920565724, 43.076992928981781, 0.0 ], [ -89.294545920565724, 43.076992928981781, 0.0 ], [ -89.294437374919653, 43.076967531815171, 0.0 ], [ -89.294437374919653, 43.076967531815171, 0.0 ], [ -89.2944211140275, 43.076962167397141, 0.0 ], [ -89.2944211140275, 43.076962167397141, 0.0 ], [ -89.294365542009473, 43.076949343085289, 0.0 ], [ -89.294365542009473, 43.076949343085289, 0.0 ], [ -89.294245345517993, 43.076969543471932, 0.0 ], [ -89.294245345517993, 43.076969543471932, 0.0 ], [ -89.294146522879601, 43.07695965282619, 0.0 ], [ -89.294146522879601, 43.07695965282619, 0.0 ], [ -89.29404778406024, 43.076972393319011, 0.0 ], [ -89.29404778406024, 43.076972393319011, 0.0 ], [ -89.293855000287294, 43.076972393319011, 0.0 ], [ -89.293855000287294, 43.076972393319011, 0.0 ], [ -89.293597424402833, 43.07697725482285, 0.0 ], [ -89.293597424402833, 43.07697725482285, 0.0 ], [ -89.293583845719695, 43.076978260651231, 0.0 ], [ -89.293583845719695, 43.076978260651231, 0.0 ], [ -89.293461134657264, 43.076957473531365, 0.0 ], [ -89.293461134657264, 43.076957473531365, 0.0 ], [ -89.293458368629217, 43.076948337256908, 0.0 ], [ -89.293458368629217, 43.076948337256908, 0.0 ], [ -89.293478233739734, 43.076889915391803, 0.0 ], [ -89.293478233739734, 43.076889915391803, 0.0 ], [ -89.293479826301336, 43.076888071373105, 0.0 ], [ -89.293479826301336, 43.076888071373105, 0.0 ], [ -89.29345216602087, 43.076841803267598, 0.0 ], [ -89.29345216602087, 43.076841803267598, 0.0 ], [ -89.293456356972456, 43.076800815761089, 0.0 ] ] } },
{ "type": "Feature", "properties": { "id": 46, "hrt": 100, "maxHrt": [ 0 ] }, "geometry": { "type": "LineString", "coordinates": [ [ -89.293456356972456, 43.076800815761089, 0.0 ], [ -89.293454932048917, 43.076789164915681, 0.0 ], [ -89.293454932048917, 43.076789164915681, 0.0 ], [ -89.293458200991154, 43.076730910688639, 0.0 ], [ -89.293458200991154, 43.076730910688639, 0.0 ], [ -89.293475886806846, 43.076556818559766, 0.0 ] ] } },
{ "type": "Feature", "properties": { "id": 47, "hrt": 110, "maxHrt": [ 0 ] }, "geometry": { "type": "LineString", "coordinates": [ [ -89.293475886806846, 43.076556818559766, 0.0 ], [ -89.293472114950418, 43.076512981206179, 0.0 ] ] } },
{ "type": "Feature", "properties": { "id": 48, "hrt": 120, "maxHrt": [ 0 ] }, "geometry": { "type": "LineString", "coordinates": [ [ -89.293472114950418, 43.076512981206179, 0.0 ], [ -89.293478652834892, 43.076408375054598, 0.0 ], [ -89.293478652834892, 43.076408375054598, 0.0 ], [ -89.293481335043907, 43.07639135979116, 0.0 ], [ -89.293481335043907, 43.07639135979116, 0.0 ], [ -89.293471528217196, 43.076348612084985, 0.0 ] ] } },
{ "type": "Feature", "properties": { "id": 49, "hrt": 110, "maxHrt": [ 0 ] }, "geometry": { "type": "LineString", "coordinates": [ [ -89.293471528217196, 43.076348612084985, 0.0 ], [ -89.293463481590152, 43.0762770306319, 0.0 ] ] } },
{ "type": "Feature", "properties": { "id": 50, "hrt": 120, "maxHrt": [ 0 ] }, "geometry": { "type": "LineString", "coordinates": [ [ -89.293463481590152, 43.0762770306319, 0.0 ], [ -89.293469851836562, 43.076219111680984, 0.0 ], [ -89.293469851836562, 43.076219111680984, 0.0 ], [ -89.293462727218866, 43.076160186901689, 0.0 ], [ -89.293462727218866, 43.076160186901689, 0.0 ], [ -89.293476389721036, 43.076098412275314, 0.0 ], [ -89.293476389721036, 43.076098412275314, 0.0 ], [ -89.293470522388816, 43.076071590185165, 0.0 ], [ -89.293470522388816, 43.076071590185165, 0.0 ], [ -89.293479071930051, 43.075952902436256, 0.0 ], [ -89.293479071930051, 43.075952902436256, 0.0 ], [ -89.293479155749083, 43.075928930193186, 0.0 ], [ -89.293479155749083, 43.075928930193186, 0.0 ], [ -89.293476054444909, 43.075915519148111, 0.0 ], [ -89.293476054444909, 43.075915519148111, 0.0 ], [ -89.293474378064275, 43.075869921594858, 0.0 ], [ -89.293474378064275, 43.075869921594858, 0.0 ], [ -89.293471276760101, 43.075831867754459, 0.0 ], [ -89.293471276760101, 43.075831867754459, 0.0 ], [ -89.293472282588482, 43.075817953795195, 0.0 ], [ -89.293472282588482, 43.075817953795195, 0.0 ], [ -89.293477395549417, 43.075725417584181, 0.0 ] ] } },
{ "type": "Feature", "properties": { "id": 51, "hrt": 110, "maxHrt": [ 0 ] }, "geometry": { "type": "LineString", "coordinates": [ [ -89.293477395549417, 43.075725417584181, 0.0 ], [ -89.293471025303006, 43.075570184737444, 0.0 ] ] } }
]
}
