{
"type": "FeatureCollection",
"name": "human_GPS",
"features": [
{ "type": "Feature", "properties": { "id": 1 }, "geometry": { "type": "LineString", "coordinates": [ [ -89.509768970309892, 42.961110184121956, 0.0 ], [ -89.509766288100877, 42.961114123616454, 0.0 ], [ -89.509720522909561, 42.96111253105483, 0.0 ], [ -89.509733347221413, 42.961087972078545, 0.0 ], [ -89.50973778963008, 42.961090654287545, 0.0 ], [ -89.509732425212064, 42.961089732278204, 0.0 ], [ -89.509718762709895, 42.96109040283045, 0.0 ], [ -89.509642487391019, 42.961087552983372, 0.0 ] ] } },
{ "type": "Feature", "properties": { "id": 2 }, "geometry": { "type": "LineString", "coordinates": [ [ -89.509768970309892, 42.961110184121956, 0.0 ], [ -89.509766288100877, 42.961114123616454, 0.0 ], [ -89.509720522909561, 42.96111253105483, 0.0 ], [ -89.509733347221413, 42.961087972078545, 0.0 ], [ -89.50973778963008, 42.961090654287545, 0.0 ], [ -89.509732425212064, 42.961089732278204, 0.0 ], [ -89.509718762709895, 42.96109040283045, 0.0 ], [ -89.509642487391019, 42.961087552983372, 0.0 ], [ -89.509639805182019, 42.961087552983344, 0.0 ], [ -89.509590184315243, 42.961088139716551, 0.0 ], [ -89.509581802412072, 42.961092079211042, 0.0 ], [ -89.50958121567885, 42.961097192171984, 0.0 ], [ -89.509578114374676, 42.961110351759942, 0.0 ], [ -89.509556153788367, 42.961036926288159, 0.0 ], [ -89.509517848490859, 42.960915640149246, 0.0 ], [ -89.509510975330272, 42.960909102264772, 0.0 ], [ -89.509503096341291, 42.960888818059111, 0.0 ], [ -89.509499911218086, 42.960821176100517, 0.0 ], [ -89.509511813520589, 42.960765771720546, 0.0 ], [ -89.509522039442444, 42.960771639052787, 0.0 ], [ -89.509511729701543, 42.960789743963637, 0.0 ], [ -89.509511729701543, 42.960785972107203, 0.0 ], [ -89.509510220958987, 42.960783625174315, 0.0 ], [ -89.509506365283528, 42.960746074248085, 0.0 ], [ -89.50950401835064, 42.960705002922552, 0.0 ], [ -89.509492451324263, 42.960590841401356, 0.0 ], [ -89.509516591205397, 42.960539041239755, 0.0 ], [ -89.509503683074513, 42.960587153363981, 0.0 ], [ -89.509489685296217, 42.960596205819385, 0.0 ], [ -89.509478034450808, 42.960611125607045, 0.0 ], [ -89.509451882912899, 42.960615316558616, 0.0 ], [ -89.509448194875503, 42.960616070929916, 0.0 ], [ -89.509473256766, 42.960554128665464, 0.0 ], [ -89.50948348268787, 42.960520098138595, 0.0 ], [ -89.509491696952978, 42.96044851668551, 0.0 ], [ -89.509490607305565, 42.960436530563982, 0.0 ], [ -89.509494882076183, 42.960398392904544, 0.0 ], [ -89.509501168503547, 42.960354723189013, 0.0 ], [ -89.509496474637785, 42.960313819501543, 0.0 ], [ -89.509495636447468, 42.96022178620472, 0.0 ], [ -89.509500497951308, 42.960229329917574, 0.0 ], [ -89.509494965895215, 42.960212733749287, 0.0 ], [ -89.509484404697218, 42.96017426081373, 0.0 ], [ -89.509495636447468, 42.960104858655463, 0.0 ], [ -89.509504437445798, 42.959978878650823, 0.0 ], [ -89.509510807692209, 42.95992976069823, 0.0 ], [ -89.509504772721925, 42.959887683544309, 0.0 ], [ -89.509500330313244, 42.959768073786044, 0.0 ], [ -89.509497312828103, 42.959745694104555, 0.0 ], [ -89.509507287292877, 42.959701605293908, 0.0 ], [ -89.509507371111908, 42.959648044932635, 0.0 ], [ -89.509504688902894, 42.959637986648822, 0.0 ], [ -89.50950619764545, 42.959537990543993, 0.0 ], [ -89.509518602862144, 42.95951720342412, 0.0 ], [ -89.509517261757637, 42.95951678432899, 0.0 ], [ -89.509517513214746, 42.959517203424141, 0.0 ], [ -89.509512400253811, 42.959475210089238, 0.0 ], [ -89.509509969501892, 42.959445957247155, 0.0 ], [ -89.5095216203473, 42.959386026639493, 0.0 ], [ -89.509496139361644, 42.959278989735971, 0.0 ], [ -89.50950209051291, 42.95914806440846, 0.0 ], [ -89.509506616740623, 42.959140017781401, 0.0 ], [ -89.509505862369338, 42.959067681957031, 0.0 ], [ -89.509497815742293, 42.959059383872884, 0.0 ], [ -89.509485326706567, 42.959056869301953, 0.0 ], [ -89.509405363350311, 42.95902837083112, 0.0 ], [ -89.509360520168343, 42.959014289233799, 0.0 ], [ -89.509349372237125, 42.959004566226099, 0.0 ], [ -89.509308384730616, 42.958997944522579, 0.0 ], [ -89.509269157423773, 42.958953688073827, 0.0 ], [ -89.509185338392044, 42.958893925104185, 0.0 ], [ -89.509102692826787, 42.958811195719854, 0.0 ], [ -89.509096071123281, 42.958803149092816, 0.0 ], [ -89.50902096927085, 42.958747325617672, 0.0 ], [ -89.508992889895225, 42.958717318404311, 0.0 ], [ -89.508945448323288, 42.958666691709134, 0.0 ], [ -89.50892206281344, 42.958658980358223, 0.0 ], [ -89.508859701453844, 42.958566192690085, 0.0 ], [ -89.508859366177717, 42.958519254032311, 0.0 ], [ -89.508862216024795, 42.958515230718803, 0.0 ], [ -89.508863976224461, 42.958513135243003, 0.0 ], [ -89.508864814414764, 42.9585122970527, 0.0 ], [ -89.508863389491239, 42.958509531024639, 0.0 ], [ -89.508871519937315, 42.958438201028635, 0.0 ], [ -89.508862216024795, 42.95829067953283, 0.0 ], [ -89.508824665098587, 42.958205854672713, 0.0 ], [ -89.508793987332979, 42.958161346766879, 0.0 ], [ -89.508746964856186, 42.958125556040343, 0.0 ], [ -89.508733972906271, 42.958117928508436, 0.0 ], [ -89.508721483870545, 42.958115078661358, 0.0 ], [ -89.508706983178058, 42.958113402280723, 0.0 ], [ -89.508646884932318, 42.958109462786211, 0.0 ], [ -89.508491149171391, 42.958117425594168, 0.0 ], [ -89.508328121154705, 42.958118431422513, 0.0 ], [ -89.508310770615125, 42.958114575747032, 0.0 ], [ -89.508293755351701, 42.958110552433503, 0.0 ], [ -89.508276488631168, 42.958109546605108, 0.0 ], [ -89.508172553031841, 42.95810787022446, 0.0 ], [ -89.508053781463886, 42.95808565818102, 0.0 ], [ -89.507941296323324, 42.958089262399334, 0.0 ], [ -89.507824452593127, 42.958097644302477, 0.0 ], [ -89.507758654653216, 42.958089849132477, 0.0 ], [ -89.507668130098963, 42.958101332339822, 0.0 ], [ -89.50756830163219, 42.958099153044955, 0.0 ], [ -89.507444417103315, 42.958119101974475, 0.0 ], [ -89.50732933357277, 42.958114575746741, 0.0 ] ] } },
{ "type": "Feature", "properties": { "id": 3 }, "geometry": { "type": "LineString", "coordinates": [ [ -89.509768970309892, 42.961110184121956, 0.0 ], [ -89.509766288100877, 42.961114123616454, 0.0 ], [ -89.509720522909561, 42.96111253105483, 0.0 ], [ -89.509733347221413, 42.961087972078545, 0.0 ], [ -89.50973778963008, 42.961090654287545, 0.0 ], [ -89.509732425212064, 42.961089732278204, 0.0 ], [ -89.509718762709895, 42.96109040283045, 0.0 ], [ -89.509642487391019, 42.961087552983372, 0.0 ], [ -89.509639805182019, 42.961087552983344, 0.0 ], [ -89.509590184315243, 42.961088139716551, 0.0 ], [ -89.509581802412072, 42.961092079211042, 0.0 ], [ -89.50958121567885, 42.961097192171984, 0.0 ], [ -89.509578114374676, 42.961110351759942, 0.0 ], [ -89.509556153788367, 42.961036926288159, 0.0 ], [ -89.509517848490859, 42.960915640149246, 0.0 ], [ -89.509510975330272, 42.960909102264772, 0.0 ], [ -89.509503096341291, 42.960888818059111, 0.0 ], [ -89.509499911218086, 42.960821176100517, 0.0 ], [ -89.509511813520589, 42.960765771720546, 0.0 ], [ -89.509522039442444, 42.960771639052787, 0.0 ], [ -89.509511729701543, 42.960789743963637, 0.0 ], [ -89.509511729701543, 42.960785972107203, 0.0 ], [ -89.509510220958987, 42.960783625174315, 0.0 ], [ -89.509506365283528, 42.960746074248085, 0.0 ], [ -89.50950401835064, 42.960705002922552, 0.0 ], [ -89.509492451324263, 42.960590841401356, 0.0 ], [ -89.509516591205397, 42.960539041239755, 0.0 ], [ -89.509503683074513, 42.960587153363981, 0.0 ], [ -89.509489685296217, 42.960596205819385, 0.0 ], [ -89.509478034450808, 42.960611125607045, 0.0 ], [ -89.509451882912899, 42.960615316558616, 0.0 ], [ -89.509448194875503, 42.960616070929916, 0.0 ], [ -89.509473256766, 42.960554128665464, 0.0 ], [ -89.50948348268787, 42.960520098138595, 0.0 ], [ -89.509491696952978, 42.96044851668551, 0.0 ], [ -89.509490607305565, 42.960436530563982, 0.0 ], [ -89.509494882076183, 42.960398392904544, 0.0 ], [ -89.509501168503547, 42.960354723189013, 0.0 ], [ -89.509496474637785, 42.960313819501543, 0.0 ], [ -89.509495636447468, 42.96022178620472, 0.0 ], [ -89.509500497951308, 42.960229329917574, 0.0 ], [ -89.509494965895215, 42.960212733749287, 0.0 ], [ -89.509484404697218, 42.96017426081373, 0.0 ], [ -89.509495636447468, 42.960104858655463, 0.0 ], [ -89.509504437445798, 42.959978878650823, 0.0 ], [ -89.509510807692209, 42.95992976069823, 0.0 ], [ -89.509504772721925, 42.959887683544309, 0.0 ], [ -89.509500330313244, 42.959768073786044, 0.0 ], [ -89.509497312828103, 42.959745694104555, 0.0 ], [ -89.509507287292877, 42.959701605293908, 0.0 ], [ -89.509507371111908, 42.959648044932635, 0.0 ], [ -89.509504688902894, 42.959637986648822, 0.0 ], [ -89.50950619764545, 42.959537990543993, 0.0 ], [ -89.509518602862144, 42.95951720342412, 0.0 ], [ -89.509517261757637, 42.95951678432899, 0.0 ], [ -89.509517513214746, 42.959517203424141, 0.0 ], [ -89.509512400253811, 42.959475210089238, 0.0 ], [ -89.509509969501892, 42.959445957247155, 0.0 ], [ -89.5095216203473, 42.959386026639493, 0.0 ], [ -89.509496139361644, 42.959278989735971, 0.0 ], [ -89.50950209051291, 42.95914806440846, 0.0 ], [ -89.509506616740623, 42.959140017781401, 0.0 ], [ -89.509505862369338, 42.959067681957031, 0.0 ], [ -89.509497815742293, 42.959059383872884, 0.0 ], [ -89.509485326706567, 42.959056869301953, 0.0 ], [ -89.509405363350311, 42.95902837083112, 0.0 ], [ -89.509360520168343, 42.959014289233799, 0.0 ], [ -89.509349372237125, 42.959004566226099, 0.0 ], [ -89.509308384730616, 42.958997944522579, 0.0 ], [ -89.509269157423773, 42.958953688073827, 0.0 ], [ -89.509185338392044, 42.958893925104185, 0.0 ], [ -89.509102692826787, 42.958811195719854, 0.0 ], [ -89.509096071123281, 42.958803149092816, 0.0 ], [ -89.50902096927085, 42.958747325617672, 0.0 ], [ -89.508992889895225, 42.958717318404311, 0.0 ], [ -89.508945448323288, 42.958666691709134, 0.0 ], [ -89.50892206281344, 42.958658980358223, 0.0 ], [ -89.508859701453844, 42.958566192690085, 0.0 ], [ -89.508859366177717, 42.958519254032311, 0.0 ], [ -89.508862216024795, 42.958515230718803, 0.0 ], [ -89.508863976224461, 42.958513135243003, 0.0 ], [ -89.508864814414764, 42.9585122970527, 0.0 ], [ -89.508863389491239, 42.958509531024639, 0.0 ], [ -89.508871519937315, 42.958438201028635, 0.0 ], [ -89.508862216024795, 42.95829067953283, 0.0 ], [ -89.508824665098587, 42.958205854672713, 0.0 ], [ -89.508793987332979, 42.958161346766879, 0.0 ], [ -89.508746964856186, 42.958125556040343, 0.0 ], [ -89.508733972906271, 42.958117928508436, 0.0 ], [ -89.508721483870545, 42.958115078661358, 0.0 ], [ -89.508706983178058, 42.958113402280723, 0.0 ], [ -89.508646884932318, 42.958109462786211, 0.0 ], [ -89.508491149171391, 42.958117425594168, 0.0 ], [ -89.508328121154705, 42.958118431422513, 0.0 ], [ -89.508310770615125, 42.958114575747032, 0.0 ], [ -89.508293755351701, 42.958110552433503, 0.0 ], [ -89.508276488631168, 42.958109546605108, 0.0 ], [ -89.508172553031841, 42.95810787022446, 0.0 ], [ -89.508053781463886, 42.95808565818102, 0.0 ], [ -89.507941296323324, 42.958089262399334, 0.0 ], [ -89.507824452593127, 42.958097644302477, 0.0 ], [ -89.507758654653216, 42.958089849132477, 0.0 ], [ -89.507668130098963, 42.958101332339822, 0.0 ], [ -89.50756830163219, 42.958099153044955, 0.0 ], [ -89.507444417103315, 42.958119101974475, 0.0 ], [ -89.50732933357277, 42.958114575746741, 0.0 ], [ -89.507212489842573, 42.958125472220814, 0.0 ], [ -89.50717275962154, 42.958107786405101, 0.0 ], [ -89.50718206353406, 42.958100158873215, 0.0 ], [ -89.507181895895982, 42.958100158873243, 0.0 ], [ -89.507132526486316, 42.958104852738977, 0.0 ], [ -89.507111907004514, 42.958107786405094, 0.0 ], [ -89.507064968346754, 42.958110636252144, 0.0 ], [ -89.506998751311698, 42.958118012326914, 0.0 ], [ -89.506939994170466, 42.958117928507853, 0.0 ], [ -89.506858857347765, 42.958109211328562, 0.0 ], [ -89.50679674744525, 42.958105690929209, 0.0 ], [ -89.506726926191845, 42.958104936557895, 0.0 ], [ -89.506635144352117, 42.958114994841686, 0.0 ], [ -89.506582673638263, 42.95811960488841, 0.0 ], [ -89.506466332822242, 42.958118431421916, 0.0 ], [ -89.506333144380847, 42.95811910197412, 0.0 ], [ -89.506178162991191, 42.958106696757376, 0.0 ], [ -89.50616131536583, 42.958104768919647, 0.0 ], [ -89.506072048097053, 42.958101080882237, 0.0 ], [ -89.506002729757824, 42.95809320189322, 0.0 ], [ -89.505836600436965, 42.958066463622039, 0.0 ], [ -89.505666531621614, 42.958067469450377, 0.0 ], [ -89.505514064802938, 42.958066966536144, 0.0 ], [ -89.505481794475713, 42.958076857181894, 0.0 ], [ -89.505401495843316, 42.958092112245616, 0.0 ], [ -89.505285993217626, 42.958074845525061, 0.0 ], [ -89.505216339602271, 42.958058919909, 0.0 ], [ -89.505214244126478, 42.958057494985461, 0.0 ], [ -89.505125228314796, 42.958063697593779, 0.0 ], [ -89.505018191411295, 42.958066966535995, 0.0 ], [ -89.504968235268379, 42.958060763927641, 0.0 ], [ -89.504905454813624, 42.958060596289542, 0.0 ], [ -89.504830520599285, 42.958060763927591, 0.0 ], [ -89.504654081537524, 42.958055148052424, 0.0 ], [ -89.504510331898132, 42.958054058404954, 0.0 ], [ -89.50441544875423, 42.95806487106001, 0.0 ], [ -89.504360882564583, 42.95806445196483, 0.0 ], [ -89.504272621124173, 42.958060680108389, 0.0 ], [ -89.504202632232705, 42.958055064233228, 0.0 ], [ -89.504175307228365, 42.958052382024228, 0.0 ], [ -89.503993922843733, 42.958057578804102, 0.0 ], [ -89.503976237028041, 42.958061853574726, 0.0 ], [ -89.503947403281131, 42.958060763927342, 0.0 ], [ -89.503933070226708, 42.958057914080236, 0.0 ], [ -89.503877498208681, 42.95805699207088, 0.0 ], [ -89.503815472125197, 42.958064451964653, 0.0 ], [ -89.503751099108854, 42.958082892151623, 0.0 ], [ -89.50367029756228, 42.958108289318211, 0.0 ], [ -89.503612881525555, 42.958130920456746, 0.0 ], [ -89.503447087480822, 42.958208369242008, 0.0 ], [ -89.503424121066132, 42.958230832742515, 0.0 ], [ -89.503420433028737, 42.958239801378916, 0.0 ], [ -89.503415320067802, 42.958244830520798, 0.0 ], [ -89.503411548211361, 42.958244579063688, 0.0 ], [ -89.503410207106853, 42.958244495244685, 0.0 ], [ -89.503410039468804, 42.958244746701752, 0.0 ], [ -89.503408195450106, 42.958244411425639, 0.0 ], [ -89.50340811163106, 42.958243657054346, 0.0 ], [ -89.503407943993025, 42.958243657054354, 0.0 ], [ -89.50340769253593, 42.958243154140149, 0.0 ], [ -89.503407524897852, 42.958242651225973, 0.0 ], [ -89.503407021983662, 42.958242064492751, 0.0 ], [ -89.503405429422045, 42.958237957360204, 0.0 ], [ -89.503405429422045, 42.958237538265038, 0.0 ], [ -89.503405261783996, 42.958237286807936, 0.0 ], [ -89.503354551269808, 42.958268970401932, 0.0 ], [ -89.503267882391015, 42.958338624017244, 0.0 ], [ -89.503262266515875, 42.958343150244978, 0.0 ], [ -89.503263439982334, 42.958382712827905, 0.0 ], [ -89.50325447134594, 42.958426214905373, 0.0 ], [ -89.50325153767983, 42.958434764446608, 0.0 ], [ -89.503246257080832, 42.958445409463657, 0.0 ], [ -89.50323150493125, 42.958466112764491, 0.0 ], [ -89.503165287896209, 42.958517661468939, 0.0 ], [ -89.503143578766981, 42.958522187696651, 0.0 ], [ -89.503142489119568, 42.958530821056918, 0.0 ], [ -89.503145841880851, 42.958546076120705, 0.0 ], [ -89.503152631222392, 42.958591003121711, 0.0 ], [ -89.503150451927596, 42.958637355046243, 0.0 ] ] } },
{ "type": "Feature", "properties": { "id": 4 }, "geometry": { "type": "LineString", "coordinates": [ [ -89.509768970309892, 42.961110184121956, 0.0 ] ] } },
{ "type": "Feature", "properties": { "id": 5 }, "geometry": { "type": "LineString", "coordinates": [ [ -89.509768970309892, 42.961110184121956, 0.0 ], [ -89.509766288100877, 42.961114123616454, 0.0 ], [ -89.509720522909561, 42.96111253105483, 0.0 ], [ -89.509733347221413, 42.961087972078545, 0.0 ], [ -89.50973778963008, 42.961090654287545, 0.0 ], [ -89.509732425212064, 42.961089732278204, 0.0 ], [ -89.509718762709895, 42.96109040283045, 0.0 ], [ -89.509642487391019, 42.961087552983372, 0.0 ], [ -89.509639805182019, 42.961087552983344, 0.0 ], [ -89.509590184315243, 42.961088139716551, 0.0 ], [ -89.509581802412072, 42.961092079211042, 0.0 ], [ -89.50958121567885, 42.961097192171984, 0.0 ], [ -89.509578114374676, 42.961110351759942, 0.0 ], [ -89.509556153788367, 42.961036926288159, 0.0 ], [ -89.509517848490859, 42.960915640149246, 0.0 ], [ -89.509510975330272, 42.960909102264772, 0.0 ], [ -89.509503096341291, 42.960888818059111, 0.0 ], [ -89.509499911218086, 42.960821176100517, 0.0 ], [ -89.509511813520589, 42.960765771720546, 0.0 ], [ -89.509522039442444, 42.960771639052787, 0.0 ], [ -89.509511729701543, 42.960789743963637, 0.0 ], [ -89.509511729701543, 42.960785972107203, 0.0 ], [ -89.509510220958987, 42.960783625174315, 0.0 ], [ -89.509506365283528, 42.960746074248085, 0.0 ], [ -89.50950401835064, 42.960705002922552, 0.0 ], [ -89.509492451324263, 42.960590841401356, 0.0 ], [ -89.509516591205397, 42.960539041239755, 0.0 ], [ -89.509503683074513, 42.960587153363981, 0.0 ], [ -89.509489685296217, 42.960596205819385, 0.0 ], [ -89.509478034450808, 42.960611125607045, 0.0 ], [ -89.509451882912899, 42.960615316558616, 0.0 ], [ -89.509448194875503, 42.960616070929916, 0.0 ], [ -89.509473256766, 42.960554128665464, 0.0 ], [ -89.50948348268787, 42.960520098138595, 0.0 ], [ -89.509491696952978, 42.96044851668551, 0.0 ], [ -89.509490607305565, 42.960436530563982, 0.0 ], [ -89.509494882076183, 42.960398392904544, 0.0 ], [ -89.509501168503547, 42.960354723189013, 0.0 ], [ -89.509496474637785, 42.960313819501543, 0.0 ], [ -89.509495636447468, 42.96022178620472, 0.0 ], [ -89.509500497951308, 42.960229329917574, 0.0 ], [ -89.509494965895215, 42.960212733749287, 0.0 ], [ -89.509484404697218, 42.96017426081373, 0.0 ], [ -89.509495636447468, 42.960104858655463, 0.0 ], [ -89.509504437445798, 42.959978878650823, 0.0 ], [ -89.509510807692209, 42.95992976069823, 0.0 ], [ -89.509504772721925, 42.959887683544309, 0.0 ], [ -89.509500330313244, 42.959768073786044, 0.0 ], [ -89.509497312828103, 42.959745694104555, 0.0 ], [ -89.509507287292877, 42.959701605293908, 0.0 ], [ -89.509507371111908, 42.959648044932635, 0.0 ], [ -89.509504688902894, 42.959637986648822, 0.0 ], [ -89.50950619764545, 42.959537990543993, 0.0 ], [ -89.509518602862144, 42.95951720342412, 0.0 ], [ -89.509517261757637, 42.95951678432899, 0.0 ], [ -89.509517513214746, 42.959517203424141, 0.0 ], [ -89.509512400253811, 42.959475210089238, 0.0 ], [ -89.509509969501892, 42.959445957247155, 0.0 ], [ -89.5095216203473, 42.959386026639493, 0.0 ], [ -89.509496139361644, 42.959278989735971, 0.0 ], [ -89.50950209051291, 42.95914806440846, 0.0 ], [ -89.509506616740623, 42.959140017781401, 0.0 ], [ -89.509505862369338, 42.959067681957031, 0.0 ], [ -89.509497815742293, 42.959059383872884, 0.0 ], [ -89.509485326706567, 42.959056869301953, 0.0 ], [ -89.509405363350311, 42.95902837083112, 0.0 ], [ -89.509360520168343, 42.959014289233799, 0.0 ], [ -89.509349372237125, 42.959004566226099, 0.0 ], [ -89.509308384730616, 42.958997944522579, 0.0 ], [ -89.509269157423773, 42.958953688073827, 0.0 ], [ -89.509185338392044, 42.958893925104185, 0.0 ], [ -89.509102692826787, 42.958811195719854, 0.0 ], [ -89.509096071123281, 42.958803149092816, 0.0 ], [ -89.50902096927085, 42.958747325617672, 0.0 ], [ -89.508992889895225, 42.958717318404311, 0.0 ], [ -89.508945448323288, 42.958666691709134, 0.0 ], [ -89.50892206281344, 42.958658980358223, 0.0 ], [ -89.508859701453844, 42.958566192690085, 0.0 ], [ -89.508859366177717, 42.958519254032311, 0.0 ], [ -89.508862216024795, 42.958515230718803, 0.0 ], [ -89.508863976224461, 42.958513135243003, 0.0 ], [ -89.508864814414764, 42.9585122970527, 0.0 ], [ -89.508863389491239, 42.958509531024639, 0.0 ], [ -89.508871519937315, 42.958438201028635, 0.0 ], [ -89.508862216024795, 42.95829067953283, 0.0 ], [ -89.508824665098587, 42.958205854672713, 0.0 ], [ -89.508793987332979, 42.958161346766879, 0.0 ], [ -89.508746964856186, 42.958125556040343, 0.0 ], [ -89.508733972906271, 42.958117928508436, 0.0 ], [ -89.508721483870545, 42.958115078661358, 0.0 ], [ -89.508706983178058, 42.958113402280723, 0.0 ], [ -89.508646884932318, 42.958109462786211, 0.0 ], [ -89.508491149171391, 42.958117425594168, 0.0 ], [ -89.508328121154705, 42.958118431422513, 0.0 ], [ -89.508310770615125, 42.958114575747032, 0.0 ], [ -89.508293755351701, 42.958110552433503, 0.0 ], [ -89.508276488631168, 42.958109546605108, 0.0 ], [ -89.508172553031841, 42.95810787022446, 0.0 ], [ -89.508053781463886, 42.95808565818102, 0.0 ], [ -89.507941296323324, 42.958089262399334, 0.0 ], [ -89.507824452593127, 42.958097644302477, 0.0 ], [ -89.507758654653216, 42.958089849132477, 0.0 ], [ -89.507668130098963, 42.958101332339822, 0.0 ], [ -89.50756830163219, 42.958099153044955, 0.0 ], [ -89.507444417103315, 42.958119101974475, 0.0 ], [ -89.50732933357277, 42.958114575746741, 0.0 ], [ -89.507212489842573, 42.958125472220814, 0.0 ], [ -89.50717275962154, 42.958107786405101, 0.0 ], [ -89.50718206353406, 42.958100158873215, 0.0 ], [ -89.507181895895982, 42.958100158873243, 0.0 ], [ -89.507132526486316, 42.958104852738977, 0.0 ], [ -89.507111907004514, 42.958107786405094, 0.0 ], [ -89.507064968346754, 42.958110636252144, 0.0 ], [ -89.506998751311698, 42.958118012326914, 0.0 ], [ -89.506939994170466, 42.958117928507853, 0.0 ], [ -89.506858857347765, 42.958109211328562, 0.0 ], [ -89.50679674744525, 42.958105690929209, 0.0 ], [ -89.506726926191845, 42.958104936557895, 0.0 ], [ -89.506635144352117, 42.958114994841686, 0.0 ], [ -89.506582673638263, 42.95811960488841, 0.0 ], [ -89.506466332822242, 42.958118431421916, 0.0 ], [ -89.506333144380847, 42.95811910197412, 0.0 ], [ -89.506178162991191, 42.958106696757376, 0.0 ], [ -89.50616131536583, 42.958104768919647, 0.0 ], [ -89.506072048097053, 42.958101080882237, 0.0 ], [ -89.506002729757824, 42.95809320189322, 0.0 ], [ -89.505836600436965, 42.958066463622039, 0.0 ], [ -89.505666531621614, 42.958067469450377, 0.0 ], [ -89.505514064802938, 42.958066966536144, 0.0 ], [ -89.505481794475713, 42.958076857181894, 0.0 ], [ -89.505401495843316, 42.958092112245616, 0.0 ], [ -89.505285993217626, 42.958074845525061, 0.0 ], [ -89.505216339602271, 42.958058919909, 0.0 ], [ -89.505214244126478, 42.958057494985461, 0.0 ], [ -89.505125228314796, 42.958063697593779, 0.0 ], [ -89.505018191411295, 42.958066966535995, 0.0 ], [ -89.504968235268379, 42.958060763927641, 0.0 ], [ -89.504905454813624, 42.958060596289542, 0.0 ], [ -89.504830520599285, 42.958060763927591, 0.0 ], [ -89.504654081537524, 42.958055148052424, 0.0 ], [ -89.504510331898132, 42.958054058404954, 0.0 ], [ -89.50441544875423, 42.95806487106001, 0.0 ], [ -89.504360882564583, 42.95806445196483, 0.0 ], [ -89.504272621124173, 42.958060680108389, 0.0 ], [ -89.504202632232705, 42.958055064233228, 0.0 ], [ -89.504175307228365, 42.958052382024228, 0.0 ], [ -89.503993922843733, 42.958057578804102, 0.0 ], [ -89.503976237028041, 42.958061853574726, 0.0 ], [ -89.503947403281131, 42.958060763927342, 0.0 ], [ -89.503933070226708, 42.958057914080236, 0.0 ], [ -89.503877498208681, 42.95805699207088, 0.0 ], [ -89.503815472125197, 42.958064451964653, 0.0 ], [ -89.503751099108854, 42.958082892151623, 0.0 ], [ -89.50367029756228, 42.958108289318211, 0.0 ], [ -89.503612881525555, 42.958130920456746, 0.0 ], [ -89.503447087480822, 42.958208369242008, 0.0 ], [ -89.503424121066132, 42.958230832742515, 0.0 ], [ -89.503420433028737, 42.958239801378916, 0.0 ], [ -89.503415320067802, 42.958244830520798, 0.0 ], [ -89.503411548211361, 42.958244579063688, 0.0 ], [ -89.503410207106853, 42.958244495244685, 0.0 ], [ -89.503410039468804, 42.958244746701752, 0.0 ], [ -89.503408195450106, 42.958244411425639, 0.0 ], [ -89.50340811163106, 42.958243657054346, 0.0 ], [ -89.503407943993025, 42.958243657054354, 0.0 ], [ -89.50340769253593, 42.958243154140149, 0.0 ], [ -89.503407524897852, 42.958242651225973, 0.0 ], [ -89.503407021983662, 42.958242064492751, 0.0 ], [ -89.503405429422045, 42.958237957360204, 0.0 ], [ -89.503405429422045, 42.958237538265038, 0.0 ], [ -89.503405261783996, 42.958237286807936, 0.0 ], [ -89.503354551269808, 42.958268970401932, 0.0 ], [ -89.503267882391015, 42.958338624017244, 0.0 ], [ -89.503262266515875, 42.958343150244978, 0.0 ], [ -89.503263439982334, 42.958382712827905, 0.0 ], [ -89.50325447134594, 42.958426214905373, 0.0 ], [ -89.50325153767983, 42.958434764446608, 0.0 ], [ -89.503246257080832, 42.958445409463657, 0.0 ], [ -89.50323150493125, 42.958466112764491, 0.0 ], [ -89.503165287896209, 42.958517661468939, 0.0 ], [ -89.503143578766981, 42.958522187696651, 0.0 ], [ -89.503142489119568, 42.958530821056918, 0.0 ], [ -89.503145841880851, 42.958546076120705, 0.0 ], [ -89.503152631222392, 42.958591003121711, 0.0 ], [ -89.503150451927596, 42.958637355046243, 0.0 ], [ -89.503132598473826, 42.958755120785817, 0.0 ], [ -89.50312740169386, 42.958790576236204, 0.0 ], [ -89.503086498006368, 42.958900546805793, 0.0 ], [ -89.503088425844112, 42.958920411916303, 0.0 ], [ -89.5030873361967, 42.958920998649553, 0.0 ], [ -89.503088342025066, 42.95892049573537, 0.0 ], [ -89.503087503834763, 42.958920998649553, 0.0 ], [ -89.5030873361967, 42.958921166287602, 0.0 ], [ -89.503146680071154, 42.958972463535041, 0.0 ] ] } },
{ "type": "Feature", "properties": { "id": 6 }, "geometry": { "type": "LineString", "coordinates": [ [ -89.509768970309892, 42.961110184121956, 0.0 ] ] } },
{ "type": "Feature", "properties": { "id": 7 }, "geometry": { "type": "LineString", "coordinates": [ [ -89.509768970309892, 42.961110184121956, 0.0 ], [ -89.509766288100877, 42.961114123616454, 0.0 ], [ -89.509720522909561, 42.96111253105483, 0.0 ], [ -89.509733347221413, 42.961087972078545, 0.0 ], [ -89.50973778963008, 42.961090654287545, 0.0 ], [ -89.509732425212064, 42.961089732278204, 0.0 ], [ -89.509718762709895, 42.96109040283045, 0.0 ], [ -89.509642487391019, 42.961087552983372, 0.0 ], [ -89.509639805182019, 42.961087552983344, 0.0 ], [ -89.509590184315243, 42.961088139716551, 0.0 ], [ -89.509581802412072, 42.961092079211042, 0.0 ], [ -89.50958121567885, 42.961097192171984, 0.0 ], [ -89.509578114374676, 42.961110351759942, 0.0 ], [ -89.509556153788367, 42.961036926288159, 0.0 ], [ -89.509517848490859, 42.960915640149246, 0.0 ], [ -89.509510975330272, 42.960909102264772, 0.0 ], [ -89.509503096341291, 42.960888818059111, 0.0 ], [ -89.509499911218086, 42.960821176100517, 0.0 ], [ -89.509511813520589, 42.960765771720546, 0.0 ], [ -89.509522039442444, 42.960771639052787, 0.0 ], [ -89.509511729701543, 42.960789743963637, 0.0 ], [ -89.509511729701543, 42.960785972107203, 0.0 ], [ -89.509510220958987, 42.960783625174315, 0.0 ], [ -89.509506365283528, 42.960746074248085, 0.0 ], [ -89.50950401835064, 42.960705002922552, 0.0 ], [ -89.509492451324263, 42.960590841401356, 0.0 ], [ -89.509516591205397, 42.960539041239755, 0.0 ], [ -89.509503683074513, 42.960587153363981, 0.0 ], [ -89.509489685296217, 42.960596205819385, 0.0 ], [ -89.509478034450808, 42.960611125607045, 0.0 ], [ -89.509451882912899, 42.960615316558616, 0.0 ], [ -89.509448194875503, 42.960616070929916, 0.0 ], [ -89.509473256766, 42.960554128665464, 0.0 ], [ -89.50948348268787, 42.960520098138595, 0.0 ], [ -89.509491696952978, 42.96044851668551, 0.0 ], [ -89.509490607305565, 42.960436530563982, 0.0 ], [ -89.509494882076183, 42.960398392904544, 0.0 ], [ -89.509501168503547, 42.960354723189013, 0.0 ], [ -89.509496474637785, 42.960313819501543, 0.0 ], [ -89.509495636447468, 42.96022178620472, 0.0 ], [ -89.509500497951308, 42.960229329917574, 0.0 ], [ -89.509494965895215, 42.960212733749287, 0.0 ], [ -89.509484404697218, 42.96017426081373, 0.0 ], [ -89.509495636447468, 42.960104858655463, 0.0 ], [ -89.509504437445798, 42.959978878650823, 0.0 ], [ -89.509510807692209, 42.95992976069823, 0.0 ], [ -89.509504772721925, 42.959887683544309, 0.0 ], [ -89.509500330313244, 42.959768073786044, 0.0 ], [ -89.509497312828103, 42.959745694104555, 0.0 ], [ -89.509507287292877, 42.959701605293908, 0.0 ], [ -89.509507371111908, 42.959648044932635, 0.0 ], [ -89.509504688902894, 42.959637986648822, 0.0 ], [ -89.50950619764545, 42.959537990543993, 0.0 ], [ -89.509518602862144, 42.95951720342412, 0.0 ], [ -89.509517261757637, 42.95951678432899, 0.0 ], [ -89.509517513214746, 42.959517203424141, 0.0 ], [ -89.509512400253811, 42.959475210089238, 0.0 ], [ -89.509509969501892, 42.959445957247155, 0.0 ], [ -89.5095216203473, 42.959386026639493, 0.0 ], [ -89.509496139361644, 42.959278989735971, 0.0 ], [ -89.50950209051291, 42.95914806440846, 0.0 ], [ -89.509506616740623, 42.959140017781401, 0.0 ], [ -89.509505862369338, 42.959067681957031, 0.0 ], [ -89.509497815742293, 42.959059383872884, 0.0 ], [ -89.509485326706567, 42.959056869301953, 0.0 ] ] } }
]
}
