{
"type": "FeatureCollection",
"name": "dog_GPS",
"features": [
{ "type": "Feature", "properties": { "id": 1 }, "geometry": { "type": "LineString", "coordinates": [ [ -89.50964131392459, 42.961101215485513, 0.0 ] ] } },
{ "type": "Feature", "properties": { "id": 2 }, "geometry": { "type": "LineString", "coordinates": [ [ -89.50964131392459, 42.961101215485513, 0.0 ], [ -89.509548693894544, 42.961103478599348, 0.0 ], [ -89.509496642275835, 42.961089145544918, 0.0 ], [ -89.50950502417902, 42.961117811653772, 0.0 ], [ -89.509492870419422, 42.961169863272445, 0.0 ], [ -89.509468981995383, 42.961200373399983, 0.0 ], [ -89.509497899561325, 42.961245803315194, 0.0 ], [ -89.509510807692209, 42.961252257380636, 0.0 ], [ -89.509508376940289, 42.96125393376127, 0.0 ], [ -89.509421624242464, 42.961223423633697, 0.0 ], [ -89.509302433579364, 42.961200457218986, 0.0 ], [ -89.509252812712589, 42.961134240183902, 0.0 ], [ -89.509246610104242, 42.961100964028319, 0.0 ], [ -89.509255411102572, 42.961015803892074, 0.0 ], [ -89.509253064169684, 42.961004991236997, 0.0 ], [ -89.509248789399066, 42.96097749859458, 0.0 ], [ -89.509250046684542, 42.96091279030211, 0.0 ], [ -89.509279634802738, 42.960885884392937, 0.0 ], [ -89.509305115788379, 42.960874401185578, 0.0 ], [ -89.509304780512252, 42.960840873572899, 0.0 ], [ -89.509306456892887, 42.960834168050383, 0.0 ], [ -89.509321460499564, 42.960791420344215, 0.0 ], [ -89.509365381672168, 42.960761161673759, 0.0 ], [ -89.509311402215758, 42.960728304613326, 0.0 ], [ -89.509320203214088, 42.960698632676085, 0.0 ], [ -89.509286172687212, 42.960690250772906, 0.0 ], [ -89.509279634802738, 42.960675079528173, 0.0 ], [ -89.509337637572685, 42.960644820857745, 0.0 ], [ -89.509446686132947, 42.96058472261204, 0.0 ], [ -89.509456241502562, 42.960569467548268, 0.0 ], [ -89.509493876247802, 42.96042764574662, 0.0 ], [ -89.509473675861159, 42.960329158384333, 0.0 ], [ -89.509483817963996, 42.960308874178679, 0.0 ], [ -89.50953754596334, 42.960307868350306, 0.0 ], [ -89.509522626175681, 42.960259169492893, 0.0 ], [ -89.509514579548636, 42.960230168107906, 0.0 ], [ -89.509546095504561, 42.960178787041471, 0.0 ], [ -89.509545341133261, 42.960079712945976, 0.0 ], [ -89.50952572747984, 42.9599119910635, 0.0 ], [ -89.509516675024429, 42.959813000787051, 0.0 ], [ -89.509487254544297, 42.959787184525268, 0.0 ], [ -89.509468898176351, 42.959776623327265, 0.0 ], [ -89.509484572335282, 42.959717195633793, 0.0 ], [ -89.509487003087202, 42.959669670242796, 0.0 ], [ -89.509485494344617, 42.959621893394718, 0.0 ], [ -89.509486500173011, 42.95958509683981, 0.0 ], [ -89.509516842662492, 42.959530949745314, 0.0 ], [ -89.509491696952978, 42.959458697740004, 0.0 ], [ -89.509490607305565, 42.959455680254855, 0.0 ], [ -89.50951525010089, 42.959381835687914, 0.0 ], [ -89.50951575301508, 42.959277229536319, 0.0 ], [ -89.509504185988703, 42.95922609992698, 0.0 ], [ -89.509519021957317, 42.959183016944685, 0.0 ], [ -89.509538384153643, 42.959089894000442, 0.0 ], [ -89.50952866114595, 42.959086205963068, 0.0 ], [ -89.50947568751792, 42.959061814624803, 0.0 ], [ -89.509387509896555, 42.958998698893893, 0.0 ], [ -89.509384408592368, 42.958999201808076, 0.0 ], [ -89.509400837122584, 42.959007164616118, 0.0 ], [ -89.509358173235441, 42.958977911774021, 0.0 ], [ -89.5092919562004, 42.958922255936947, 0.0 ], [ -89.509292291476527, 42.958916723880854, 0.0 ], [ -89.509240826591054, 42.958885543201028, 0.0 ], [ -89.509121635927954, 42.958794934827715, 0.0 ], [ -89.509041169657507, 42.958718240413674, 0.0 ], [ -89.508949471636811, 42.958642970923158, 0.0 ], [ -89.508916363119283, 42.958621932346198, 0.0 ], [ -89.508886355905929, 42.95856711469942, 0.0 ], [ -89.508889038114944, 42.958559990081746, 0.0 ], [ -89.508912172167683, 42.958484217677082, 0.0 ], [ -89.508921056985059, 42.958479439992274, 0.0 ], [ -89.508926253765011, 42.958466280404309, 0.0 ], [ -89.5089061371974, 42.958374833840693, 0.0 ], [ -89.508891887962022, 42.958320351470078, 0.0 ], [ -89.508889205753007, 42.95831490323301, 0.0 ], [ -89.508864143862525, 42.958229072544526, 0.0 ], [ -89.508814690633812, 42.958179200220641, 0.0 ], [ -89.508805973454514, 42.958172494698118, 0.0 ], [ -89.508822234346667, 42.958156149986927, 0.0 ], [ -89.508827095850521, 42.958133267391254, 0.0 ], [ -89.508825419469872, 42.958128992620665, 0.0 ], [ -89.508728692307272, 42.958118599060676, 0.0 ], [ -89.508630707859197, 42.958102673444628, 0.0 ], [ -89.508577985688248, 42.958097895759806, 0.0 ], [ -89.508575387298265, 42.958096303198204, 0.0 ], [ -89.508461644872213, 42.958084987628872, 0.0 ], [ -89.508294090627828, 42.958080796677251, 0.0 ], [ -89.508236171676899, 42.958086244914284, 0.0 ], [ -89.508212283252874, 42.958087586018785, 0.0 ], [ -89.508147407322326, 42.958070738393388, 0.0 ], [ -89.508065180852199, 42.958066882717915, 0.0 ], [ -89.507908439262891, 42.958061518299822, 0.0 ], [ -89.507882455363074, 42.958062691766266, 0.0 ], [ -89.507824117317, 42.958059171366919, 0.0 ], [ -89.507800815626183, 42.958053471672756, 0.0 ], [ -89.507800061254898, 42.958052382025322, 0.0 ], [ -89.507797043769756, 42.958050873282765, 0.0 ], [ -89.50777181424121, 42.95806009337624, 0.0 ], [ -89.507638290523687, 42.958080545219929, 0.0 ], [ -89.507547095417181, 42.958083227428929, 0.0 ], [ -89.507464868947068, 42.958090603503699, 0.0 ], [ -89.507440645246902, 42.958095967921707, 0.0 ], [ -89.507418684660593, 42.958103092539417, 0.0 ], [ -89.507398903369094, 42.958103092539403, 0.0 ], [ -89.507370237260261, 42.958096554654929, 0.0 ] ] } },
{ "type": "Feature", "properties": { "id": 3 }, "geometry": { "type": "LineString", "coordinates": [ [ -89.50964131392459, 42.961101215485513, 0.0 ], [ -89.509548693894544, 42.961103478599348, 0.0 ], [ -89.509496642275835, 42.961089145544918, 0.0 ], [ -89.50950502417902, 42.961117811653772, 0.0 ], [ -89.509492870419422, 42.961169863272445, 0.0 ], [ -89.509468981995383, 42.961200373399983, 0.0 ], [ -89.509497899561325, 42.961245803315194, 0.0 ], [ -89.509510807692209, 42.961252257380636, 0.0 ], [ -89.509508376940289, 42.96125393376127, 0.0 ], [ -89.509421624242464, 42.961223423633697, 0.0 ], [ -89.509302433579364, 42.961200457218986, 0.0 ], [ -89.509252812712589, 42.961134240183902, 0.0 ], [ -89.509246610104242, 42.961100964028319, 0.0 ], [ -89.509255411102572, 42.961015803892074, 0.0 ], [ -89.509253064169684, 42.961004991236997, 0.0 ], [ -89.509248789399066, 42.96097749859458, 0.0 ], [ -89.509250046684542, 42.96091279030211, 0.0 ], [ -89.509279634802738, 42.960885884392937, 0.0 ], [ -89.509305115788379, 42.960874401185578, 0.0 ], [ -89.509304780512252, 42.960840873572899, 0.0 ], [ -89.509306456892887, 42.960834168050383, 0.0 ], [ -89.509321460499564, 42.960791420344215, 0.0 ], [ -89.509365381672168, 42.960761161673759, 0.0 ], [ -89.509311402215758, 42.960728304613326, 0.0 ], [ -89.509320203214088, 42.960698632676085, 0.0 ], [ -89.509286172687212, 42.960690250772906, 0.0 ], [ -89.509279634802738, 42.960675079528173, 0.0 ], [ -89.509337637572685, 42.960644820857745, 0.0 ], [ -89.509446686132947, 42.96058472261204, 0.0 ], [ -89.509456241502562, 42.960569467548268, 0.0 ], [ -89.509493876247802, 42.96042764574662, 0.0 ], [ -89.509473675861159, 42.960329158384333, 0.0 ], [ -89.509483817963996, 42.960308874178679, 0.0 ], [ -89.50953754596334, 42.960307868350306, 0.0 ], [ -89.509522626175681, 42.960259169492893, 0.0 ], [ -89.509514579548636, 42.960230168107906, 0.0 ], [ -89.509546095504561, 42.960178787041471, 0.0 ], [ -89.509545341133261, 42.960079712945976, 0.0 ], [ -89.50952572747984, 42.9599119910635, 0.0 ], [ -89.509516675024429, 42.959813000787051, 0.0 ], [ -89.509487254544297, 42.959787184525268, 0.0 ], [ -89.509468898176351, 42.959776623327265, 0.0 ], [ -89.509484572335282, 42.959717195633793, 0.0 ], [ -89.509487003087202, 42.959669670242796, 0.0 ], [ -89.509485494344617, 42.959621893394718, 0.0 ], [ -89.509486500173011, 42.95958509683981, 0.0 ], [ -89.509516842662492, 42.959530949745314, 0.0 ], [ -89.509491696952978, 42.959458697740004, 0.0 ], [ -89.509490607305565, 42.959455680254855, 0.0 ], [ -89.50951525010089, 42.959381835687914, 0.0 ], [ -89.50951575301508, 42.959277229536319, 0.0 ], [ -89.509504185988703, 42.95922609992698, 0.0 ], [ -89.509519021957317, 42.959183016944685, 0.0 ], [ -89.509538384153643, 42.959089894000442, 0.0 ], [ -89.50952866114595, 42.959086205963068, 0.0 ], [ -89.50947568751792, 42.959061814624803, 0.0 ], [ -89.509387509896555, 42.958998698893893, 0.0 ], [ -89.509384408592368, 42.958999201808076, 0.0 ], [ -89.509400837122584, 42.959007164616118, 0.0 ], [ -89.509358173235441, 42.958977911774021, 0.0 ], [ -89.5092919562004, 42.958922255936947, 0.0 ], [ -89.509292291476527, 42.958916723880854, 0.0 ], [ -89.509240826591054, 42.958885543201028, 0.0 ], [ -89.509121635927954, 42.958794934827715, 0.0 ], [ -89.509041169657507, 42.958718240413674, 0.0 ], [ -89.508949471636811, 42.958642970923158, 0.0 ], [ -89.508916363119283, 42.958621932346198, 0.0 ], [ -89.508886355905929, 42.95856711469942, 0.0 ], [ -89.508889038114944, 42.958559990081746, 0.0 ], [ -89.508912172167683, 42.958484217677082, 0.0 ], [ -89.508921056985059, 42.958479439992274, 0.0 ], [ -89.508926253765011, 42.958466280404309, 0.0 ], [ -89.5089061371974, 42.958374833840693, 0.0 ], [ -89.508891887962022, 42.958320351470078, 0.0 ], [ -89.508889205753007, 42.95831490323301, 0.0 ], [ -89.508864143862525, 42.958229072544526, 0.0 ], [ -89.508814690633812, 42.958179200220641, 0.0 ], [ -89.508805973454514, 42.958172494698118, 0.0 ], [ -89.508822234346667, 42.958156149986927, 0.0 ], [ -89.508827095850521, 42.958133267391254, 0.0 ], [ -89.508825419469872, 42.958128992620665, 0.0 ], [ -89.508728692307272, 42.958118599060676, 0.0 ], [ -89.508630707859197, 42.958102673444628, 0.0 ], [ -89.508577985688248, 42.958097895759806, 0.0 ], [ -89.508575387298265, 42.958096303198204, 0.0 ], [ -89.508461644872213, 42.958084987628872, 0.0 ], [ -89.508294090627828, 42.958080796677251, 0.0 ], [ -89.508236171676899, 42.958086244914284, 0.0 ], [ -89.508212283252874, 42.958087586018785, 0.0 ], [ -89.508147407322326, 42.958070738393388, 0.0 ], [ -89.508065180852199, 42.958066882717915, 0.0 ], [ -89.507908439262891, 42.958061518299822, 0.0 ], [ -89.507882455363074, 42.958062691766266, 0.0 ], [ -89.507824117317, 42.958059171366919, 0.0 ], [ -89.507800815626183, 42.958053471672756, 0.0 ], [ -89.507800061254898, 42.958052382025322, 0.0 ], [ -89.507797043769756, 42.958050873282765, 0.0 ], [ -89.50777181424121, 42.95806009337624, 0.0 ], [ -89.507638290523687, 42.958080545219929, 0.0 ], [ -89.507547095417181, 42.958083227428929, 0.0 ], [ -89.507464868947068, 42.958090603503699, 0.0 ], [ -89.507440645246902, 42.958095967921707, 0.0 ], [ -89.507418684660593, 42.958103092539417, 0.0 ], [ -89.507398903369094, 42.958103092539403, 0.0 ], [ -89.507370237260261, 42.958096554654929, 0.0 ], [ -89.507328746839548, 42.958090603503649, 0.0 ], [ -89.507312737404504, 42.958084400895309, 0.0 ], [ -89.507301254197145, 42.958072498592784, 0.0 ], [ -89.507292117922702, 42.958054812777092, 0.0 ], [ -89.507278539239564, 42.958024470287619, 0.0 ], [ -89.507278203963423, 42.95802908033437, 0.0 ], [ -89.507285999133401, 42.958063194680257, 0.0 ], [ -89.507231013848596, 42.958092531341357, 0.0 ], [ -89.507085923104682, 42.958083059790724, 0.0 ], [ -89.50697637163023, 42.958093201893526, 0.0 ], [ -89.506982993333736, 42.958088843303877, 0.0 ], [ -89.506937479599515, 42.95808616109484, 0.0 ], [ -89.506798340006853, 42.958100661787292, 0.0 ], [ -89.506633467971483, 42.958105690929152, 0.0 ], [ -89.506535232066298, 42.958105439472014, 0.0 ], [ -89.506504973395863, 42.958109798061656, 0.0 ], [ -89.506495501845265, 42.95811390519421, 0.0 ], [ -89.506434230133095, 42.958127651515412, 0.0 ], [ -89.506282098590532, 42.958104014548397, 0.0 ], [ -89.506237087770501, 42.958105271833858, 0.0 ], [ -89.506120160221244, 42.95809697374969, 0.0 ], [ -89.506003232672015, 42.958092531340952, 0.0 ], [ -89.505937937646308, 42.958080796676519, 0.0 ], [ -89.50585688464264, 42.958080126124209, 0.0 ], [ -89.505822937934781, 42.958077024820064, 0.0 ], [ -89.50581262819388, 42.958064368146253, 0.0 ], [ -89.505810029803911, 42.958064368146253, 0.0 ], [ -89.505711123346487, 42.958060344832688, 0.0 ], [ -89.505678433924118, 42.95805003509178, 0.0 ], [ -89.505670806392231, 42.958035785856374, 0.0 ], [ -89.505620934068347, 42.958029834705137, 0.0 ], [ -89.505608528851653, 42.958011226880075, 0.0 ], [ -89.505547340958501, 42.958035366761187, 0.0 ], [ -89.505422785877386, 42.958046849968511, 0.0 ], [ -89.505340391769195, 42.958045173587848, 0.0 ], [ -89.505239725112119, 42.958070654573461, 0.0 ], [ -89.505162611602955, 42.958078282105326, 0.0 ], [ -89.505097651853347, 42.958091860788443, 0.0 ], [ -89.5050103124223, 42.958074845524969, 0.0 ], [ -89.504905119537511, 42.958066882716906, 0.0 ], [ -89.50465215369978, 42.958061015384629, 0.0 ], [ -89.50463580898861, 42.958062021213003, 0.0 ], [ -89.504514522849703, 42.958070235478083, 0.0 ], [ -89.504418466239358, 42.958056572975892, 0.0 ], [ -89.504387453197623, 42.958053555490714, 0.0 ], [ -89.504287960006977, 42.958058668451628, 0.0 ], [ -89.504251498728195, 42.958059506641931, 0.0 ], [ -89.504144964738884, 42.958137290703306, 0.0 ], [ -89.504098612814346, 42.95814575642553, 0.0 ], [ -89.504086626692811, 42.958137123065271, 0.0 ], [ -89.503984786569276, 42.958084233256201, 0.0 ], [ -89.503931561484137, 42.958073504420135, 0.0 ], [ -89.503900799899498, 42.958073001505952, 0.0 ], [ -89.503830643369952, 42.958058081718264, 0.0 ], [ -89.503801558165947, 42.958066547440474, 0.0 ], [ -89.503678930922547, 42.958084652351268, 0.0 ], [ -89.503569295629049, 42.958131255732873, 0.0 ], [ -89.503482459112192, 42.958166795002292, 0.0 ], [ -89.503431664778986, 42.958206776680413, 0.0 ], [ -89.503432838245431, 42.958206525223297, 0.0 ], [ -89.503340637310544, 42.958277184667011, 0.0 ], [ -89.50327810831287, 42.958341557683347, 0.0 ], [ -89.503270229323903, 42.958406936528078, 0.0 ], [ -89.503188924863124, 42.958466531859607, 0.0 ], [ -89.503146763890186, 42.958481284009189, 0.0 ], [ -89.503148859365979, 42.958550350891322, 0.0 ], [ -89.50312790460805, 42.958699884043888, 0.0 ] ] } },
{ "type": "Feature", "properties": { "id": 4 }, "geometry": { "type": "LineString", "coordinates": [ [ -89.50964131392459, 42.961101215485513, 0.0 ] ] } },
{ "type": "Feature", "properties": { "id": 5 }, "geometry": { "type": "LineString", "coordinates": [ [ -89.50964131392459, 42.961101215485513, 0.0 ], [ -89.509548693894544, 42.961103478599348, 0.0 ], [ -89.509496642275835, 42.961089145544918, 0.0 ], [ -89.50950502417902, 42.961117811653772, 0.0 ], [ -89.509492870419422, 42.961169863272445, 0.0 ], [ -89.509468981995383, 42.961200373399983, 0.0 ], [ -89.509497899561325, 42.961245803315194, 0.0 ], [ -89.509510807692209, 42.961252257380636, 0.0 ], [ -89.509508376940289, 42.96125393376127, 0.0 ], [ -89.509421624242464, 42.961223423633697, 0.0 ], [ -89.509302433579364, 42.961200457218986, 0.0 ], [ -89.509252812712589, 42.961134240183902, 0.0 ], [ -89.509246610104242, 42.961100964028319, 0.0 ], [ -89.509255411102572, 42.961015803892074, 0.0 ], [ -89.509253064169684, 42.961004991236997, 0.0 ], [ -89.509248789399066, 42.96097749859458, 0.0 ], [ -89.509250046684542, 42.96091279030211, 0.0 ], [ -89.509279634802738, 42.960885884392937, 0.0 ], [ -89.509305115788379, 42.960874401185578, 0.0 ], [ -89.509304780512252, 42.960840873572899, 0.0 ], [ -89.509306456892887, 42.960834168050383, 0.0 ], [ -89.509321460499564, 42.960791420344215, 0.0 ], [ -89.509365381672168, 42.960761161673759, 0.0 ], [ -89.509311402215758, 42.960728304613326, 0.0 ], [ -89.509320203214088, 42.960698632676085, 0.0 ], [ -89.509286172687212, 42.960690250772906, 0.0 ], [ -89.509279634802738, 42.960675079528173, 0.0 ], [ -89.509337637572685, 42.960644820857745, 0.0 ], [ -89.509446686132947, 42.96058472261204, 0.0 ], [ -89.509456241502562, 42.960569467548268, 0.0 ], [ -89.509493876247802, 42.96042764574662, 0.0 ], [ -89.509473675861159, 42.960329158384333, 0.0 ], [ -89.509483817963996, 42.960308874178679, 0.0 ], [ -89.50953754596334, 42.960307868350306, 0.0 ], [ -89.509522626175681, 42.960259169492893, 0.0 ], [ -89.509514579548636, 42.960230168107906, 0.0 ], [ -89.509546095504561, 42.960178787041471, 0.0 ], [ -89.509545341133261, 42.960079712945976, 0.0 ], [ -89.50952572747984, 42.9599119910635, 0.0 ], [ -89.509516675024429, 42.959813000787051, 0.0 ], [ -89.509487254544297, 42.959787184525268, 0.0 ], [ -89.509468898176351, 42.959776623327265, 0.0 ], [ -89.509484572335282, 42.959717195633793, 0.0 ], [ -89.509487003087202, 42.959669670242796, 0.0 ], [ -89.509485494344617, 42.959621893394718, 0.0 ], [ -89.509486500173011, 42.95958509683981, 0.0 ], [ -89.509516842662492, 42.959530949745314, 0.0 ], [ -89.509491696952978, 42.959458697740004, 0.0 ], [ -89.509490607305565, 42.959455680254855, 0.0 ], [ -89.50951525010089, 42.959381835687914, 0.0 ], [ -89.50951575301508, 42.959277229536319, 0.0 ], [ -89.509504185988703, 42.95922609992698, 0.0 ], [ -89.509519021957317, 42.959183016944685, 0.0 ], [ -89.509538384153643, 42.959089894000442, 0.0 ], [ -89.50952866114595, 42.959086205963068, 0.0 ], [ -89.50947568751792, 42.959061814624803, 0.0 ], [ -89.509387509896555, 42.958998698893893, 0.0 ], [ -89.509384408592368, 42.958999201808076, 0.0 ], [ -89.509400837122584, 42.959007164616118, 0.0 ], [ -89.509358173235441, 42.958977911774021, 0.0 ], [ -89.5092919562004, 42.958922255936947, 0.0 ], [ -89.509292291476527, 42.958916723880854, 0.0 ], [ -89.509240826591054, 42.958885543201028, 0.0 ], [ -89.509121635927954, 42.958794934827715, 0.0 ], [ -89.509041169657507, 42.958718240413674, 0.0 ], [ -89.508949471636811, 42.958642970923158, 0.0 ], [ -89.508916363119283, 42.958621932346198, 0.0 ], [ -89.508886355905929, 42.95856711469942, 0.0 ], [ -89.508889038114944, 42.958559990081746, 0.0 ], [ -89.508912172167683, 42.958484217677082, 0.0 ], [ -89.508921056985059, 42.958479439992274, 0.0 ], [ -89.508926253765011, 42.958466280404309, 0.0 ], [ -89.5089061371974, 42.958374833840693, 0.0 ], [ -89.508891887962022, 42.958320351470078, 0.0 ], [ -89.508889205753007, 42.95831490323301, 0.0 ], [ -89.508864143862525, 42.958229072544526, 0.0 ], [ -89.508814690633812, 42.958179200220641, 0.0 ], [ -89.508805973454514, 42.958172494698118, 0.0 ], [ -89.508822234346667, 42.958156149986927, 0.0 ], [ -89.508827095850521, 42.958133267391254, 0.0 ], [ -89.508825419469872, 42.958128992620665, 0.0 ], [ -89.508728692307272, 42.958118599060676, 0.0 ], [ -89.508630707859197, 42.958102673444628, 0.0 ], [ -89.508577985688248, 42.958097895759806, 0.0 ], [ -89.508575387298265, 42.958096303198204, 0.0 ], [ -89.508461644872213, 42.958084987628872, 0.0 ], [ -89.508294090627828, 42.958080796677251, 0.0 ], [ -89.508236171676899, 42.958086244914284, 0.0 ], [ -89.508212283252874, 42.958087586018785, 0.0 ], [ -89.508147407322326, 42.958070738393388, 0.0 ], [ -89.508065180852199, 42.958066882717915, 0.0 ], [ -89.507908439262891, 42.958061518299822, 0.0 ], [ -89.507882455363074, 42.958062691766266, 0.0 ], [ -89.507824117317, 42.958059171366919, 0.0 ], [ -89.507800815626183, 42.958053471672756, 0.0 ], [ -89.507800061254898, 42.958052382025322, 0.0 ], [ -89.507797043769756, 42.958050873282765, 0.0 ], [ -89.50777181424121, 42.95806009337624, 0.0 ], [ -89.507638290523687, 42.958080545219929, 0.0 ], [ -89.507547095417181, 42.958083227428929, 0.0 ], [ -89.507464868947068, 42.958090603503699, 0.0 ], [ -89.507440645246902, 42.958095967921707, 0.0 ], [ -89.507418684660593, 42.958103092539417, 0.0 ], [ -89.507398903369094, 42.958103092539403, 0.0 ], [ -89.507370237260261, 42.958096554654929, 0.0 ], [ -89.507328746839548, 42.958090603503649, 0.0 ], [ -89.507312737404504, 42.958084400895309, 0.0 ], [ -89.507301254197145, 42.958072498592784, 0.0 ], [ -89.507292117922702, 42.958054812777092, 0.0 ], [ -89.507278539239564, 42.958024470287619, 0.0 ], [ -89.507278203963423, 42.95802908033437, 0.0 ], [ -89.507285999133401, 42.958063194680257, 0.0 ], [ -89.507231013848596, 42.958092531341357, 0.0 ], [ -89.507085923104682, 42.958083059790724, 0.0 ], [ -89.50697637163023, 42.958093201893526, 0.0 ], [ -89.506982993333736, 42.958088843303877, 0.0 ], [ -89.506937479599515, 42.95808616109484, 0.0 ], [ -89.506798340006853, 42.958100661787292, 0.0 ], [ -89.506633467971483, 42.958105690929152, 0.0 ], [ -89.506535232066298, 42.958105439472014, 0.0 ], [ -89.506504973395863, 42.958109798061656, 0.0 ], [ -89.506495501845265, 42.95811390519421, 0.0 ], [ -89.506434230133095, 42.958127651515412, 0.0 ], [ -89.506282098590532, 42.958104014548397, 0.0 ], [ -89.506237087770501, 42.958105271833858, 0.0 ], [ -89.506120160221244, 42.95809697374969, 0.0 ], [ -89.506003232672015, 42.958092531340952, 0.0 ], [ -89.505937937646308, 42.958080796676519, 0.0 ], [ -89.50585688464264, 42.958080126124209, 0.0 ], [ -89.505822937934781, 42.958077024820064, 0.0 ], [ -89.50581262819388, 42.958064368146253, 0.0 ], [ -89.505810029803911, 42.958064368146253, 0.0 ], [ -89.505711123346487, 42.958060344832688, 0.0 ], [ -89.505678433924118, 42.95805003509178, 0.0 ], [ -89.505670806392231, 42.958035785856374, 0.0 ], [ -89.505620934068347, 42.958029834705137, 0.0 ], [ -89.505608528851653, 42.958011226880075, 0.0 ], [ -89.505547340958501, 42.958035366761187, 0.0 ], [ -89.505422785877386, 42.958046849968511, 0.0 ], [ -89.505340391769195, 42.958045173587848, 0.0 ], [ -89.505239725112119, 42.958070654573461, 0.0 ], [ -89.505162611602955, 42.958078282105326, 0.0 ], [ -89.505097651853347, 42.958091860788443, 0.0 ], [ -89.5050103124223, 42.958074845524969, 0.0 ], [ -89.504905119537511, 42.958066882716906, 0.0 ], [ -89.50465215369978, 42.958061015384629, 0.0 ], [ -89.50463580898861, 42.958062021213003, 0.0 ], [ -89.504514522849703, 42.958070235478083, 0.0 ], [ -89.504418466239358, 42.958056572975892, 0.0 ], [ -89.504387453197623, 42.958053555490714, 0.0 ], [ -89.504287960006977, 42.958058668451628, 0.0 ], [ -89.504251498728195, 42.958059506641931, 0.0 ], [ -89.504144964738884, 42.958137290703306, 0.0 ], [ -89.504098612814346, 42.95814575642553, 0.0 ], [ -89.504086626692811, 42.958137123065271, 0.0 ], [ -89.503984786569276, 42.958084233256201, 0.0 ], [ -89.503931561484137, 42.958073504420135, 0.0 ], [ -89.503900799899498, 42.958073001505952, 0.0 ], [ -89.503830643369952, 42.958058081718264, 0.0 ], [ -89.503801558165947, 42.958066547440474, 0.0 ], [ -89.503678930922547, 42.958084652351268, 0.0 ], [ -89.503569295629049, 42.958131255732873, 0.0 ], [ -89.503482459112192, 42.958166795002292, 0.0 ], [ -89.503431664778986, 42.958206776680413, 0.0 ], [ -89.503432838245431, 42.958206525223297, 0.0 ], [ -89.503340637310544, 42.958277184667011, 0.0 ], [ -89.50327810831287, 42.958341557683347, 0.0 ], [ -89.503270229323903, 42.958406936528078, 0.0 ], [ -89.503188924863124, 42.958466531859607, 0.0 ], [ -89.503146763890186, 42.958481284009189, 0.0 ], [ -89.503148859365979, 42.958550350891322, 0.0 ], [ -89.50312790460805, 42.958699884043888, 0.0 ], [ -89.50310837477366, 42.958857882918657, 0.0 ], [ -89.50309370644311, 42.958878250943364, 0.0 ], [ -89.503098735585013, 42.958895433844866, 0.0 ], [ -89.503142824395695, 42.958960058318333, 0.0 ] ] } },
{ "type": "Feature", "properties": { "id": 6 }, "geometry": { "type": "LineString", "coordinates": [ [ -89.50964131392459, 42.961101215485513, 0.0 ] ] } },
{ "type": "Feature", "properties": { "id": 7 }, "geometry": { "type": "LineString", "coordinates": [ [ -89.50964131392459, 42.961101215485513, 0.0 ], [ -89.509548693894544, 42.961103478599348, 0.0 ], [ -89.509496642275835, 42.961089145544918, 0.0 ], [ -89.50950502417902, 42.961117811653772, 0.0 ], [ -89.509492870419422, 42.961169863272445, 0.0 ], [ -89.509468981995383, 42.961200373399983, 0.0 ], [ -89.509497899561325, 42.961245803315194, 0.0 ], [ -89.509510807692209, 42.961252257380636, 0.0 ], [ -89.509508376940289, 42.96125393376127, 0.0 ], [ -89.509421624242464, 42.961223423633697, 0.0 ], [ -89.509302433579364, 42.961200457218986, 0.0 ], [ -89.509252812712589, 42.961134240183902, 0.0 ], [ -89.509246610104242, 42.961100964028319, 0.0 ], [ -89.509255411102572, 42.961015803892074, 0.0 ], [ -89.509253064169684, 42.961004991236997, 0.0 ], [ -89.509248789399066, 42.96097749859458, 0.0 ], [ -89.509250046684542, 42.96091279030211, 0.0 ], [ -89.509279634802738, 42.960885884392937, 0.0 ], [ -89.509305115788379, 42.960874401185578, 0.0 ], [ -89.509304780512252, 42.960840873572899, 0.0 ], [ -89.509306456892887, 42.960834168050383, 0.0 ], [ -89.509321460499564, 42.960791420344215, 0.0 ], [ -89.509365381672168, 42.960761161673759, 0.0 ], [ -89.509311402215758, 42.960728304613326, 0.0 ], [ -89.509320203214088, 42.960698632676085, 0.0 ], [ -89.509286172687212, 42.960690250772906, 0.0 ], [ -89.509279634802738, 42.960675079528173, 0.0 ], [ -89.509337637572685, 42.960644820857745, 0.0 ], [ -89.509446686132947, 42.96058472261204, 0.0 ], [ -89.509456241502562, 42.960569467548268, 0.0 ], [ -89.509493876247802, 42.96042764574662, 0.0 ], [ -89.509473675861159, 42.960329158384333, 0.0 ], [ -89.509483817963996, 42.960308874178679, 0.0 ], [ -89.50953754596334, 42.960307868350306, 0.0 ], [ -89.509522626175681, 42.960259169492893, 0.0 ], [ -89.509514579548636, 42.960230168107906, 0.0 ], [ -89.509546095504561, 42.960178787041471, 0.0 ], [ -89.509545341133261, 42.960079712945976, 0.0 ], [ -89.50952572747984, 42.9599119910635, 0.0 ], [ -89.509516675024429, 42.959813000787051, 0.0 ], [ -89.509487254544297, 42.959787184525268, 0.0 ], [ -89.509468898176351, 42.959776623327265, 0.0 ], [ -89.509484572335282, 42.959717195633793, 0.0 ], [ -89.509487003087202, 42.959669670242796, 0.0 ], [ -89.509485494344617, 42.959621893394718, 0.0 ], [ -89.509486500173011, 42.95958509683981, 0.0 ], [ -89.509516842662492, 42.959530949745314, 0.0 ], [ -89.509491696952978, 42.959458697740004, 0.0 ], [ -89.509490607305565, 42.959455680254855, 0.0 ], [ -89.50951525010089, 42.959381835687914, 0.0 ], [ -89.50951575301508, 42.959277229536319, 0.0 ], [ -89.509504185988703, 42.95922609992698, 0.0 ], [ -89.509519021957317, 42.959183016944685, 0.0 ], [ -89.509538384153643, 42.959089894000442, 0.0 ], [ -89.50952866114595, 42.959086205963068, 0.0 ], [ -89.50947568751792, 42.959061814624803, 0.0 ] ] } }
]
}
