{
"type": "FeatureCollection",
"name": "R_6dMNnK8veseggkL_dog_fit",
"crs": { "type": "name", "properties": { "name": "urn:ogc:def:crs:EPSG::4979" } },
"features": [
{ "type": "Feature", "properties": { "id": 8, "hrt": 90 }, "geometry": { "type": "MultiLineString", "coordinates": [ [ [ -89.509641313925385, 42.961101215332747, 326.8 ], [ -89.50954869389534, 42.961103478446603, 319.6 ], [ -89.509496642276645, 42.961089145392179, 320.2 ], [ -89.509505024179816, 42.961117811501026, 320.2 ], [ -89.509492870420218, 42.961169863119721, 320.6 ], [ -89.509468981996179, 42.961200373247266, 320.0 ], [ -89.50949789956212, 42.961245803162456, 319.8 ], [ -89.509510807693005, 42.961252257227898, 319.6 ], [ -89.509508376941085, 42.961253933608532, 319.0 ], [ -89.509421624243259, 42.961223423480988, 320.6 ], [ -89.50930243358016, 42.961200457066298, 322.0 ], [ -89.509252812713385, 42.961134240031242, 325.0 ], [ -89.509246610105038, 42.961100963875651, 334.8 ], [ -89.509255411103368, 42.961015803739429, 332.4 ], [ -89.50925306417048, 42.961004991084337, 332.0 ], [ -89.509248789399862, 42.960977498441935, 330.8 ], [ -89.509250046685338, 42.96091279014945, 328.2 ], [ -89.509279634803534, 42.96088588424027, 327.8 ], [ -89.509305115789175, 42.960874401032925, 327.8 ], [ -89.509304780513048, 42.960840873420238, 327.0 ], [ -89.509306456893682, 42.960834167897701, 326.0 ], [ -89.50932146050036, 42.960791420191526, 321.8 ], [ -89.509365381672978, 42.960761161521077, 321.6 ], [ -89.509311402216554, 42.960728304460645, 320.6 ], [ -89.509320203214884, 42.960698632523417, 320.2 ], [ -89.509286172688007, 42.960690250620246, 321.6 ], [ -89.509279634803534, 42.960675079375505, 320.4 ], [ -89.509337637573481, 42.960644820705056, 318.2 ], [ -89.509446686133742, 42.960584722459316, 316.6 ], [ -89.509456241503358, 42.960569467395544, 316.2 ], [ -89.509493876248598, 42.960427645593882, 316.4 ], [ -89.509473675861955, 42.960329158231616, 319.2 ], [ -89.509483817964792, 42.960308874025941, 321.4 ], [ -89.509537545964122, 42.96030786819756, 325.4 ], [ -89.509522626176476, 42.960259169340134, 326.4 ], [ -89.509514579549432, 42.96023016795516, 325.8 ], [ -89.509546095505357, 42.960178786888719, 323.0 ], [ -89.509545341134071, 42.960079712793231, 321.8 ], [ -89.50952572748065, 42.959911990910769, 320.8 ], [ -89.509516675025225, 42.959813000634313, 318.6 ], [ -89.509487254545093, 42.959787184372544, 317.4 ], [ -89.509468898177147, 42.959776623174548, 315.4 ], [ -89.509484572336078, 42.959717195481062, 314.6 ], [ -89.509487003087997, 42.959669670090079, 315.2 ], [ -89.509485494345427, 42.959621893242002, 317.4 ], [ -89.509486500173807, 42.959585096687078, 317.8 ], [ -89.509516842663288, 42.95953094959259, 317.6 ], [ -89.509491696953773, 42.959458697587252, 316.8 ], [ -89.509490607306361, 42.95945568010211, 316.0 ], [ -89.509515250101686, 42.959381835535169, 316.2 ], [ -89.509515753015876, 42.959277229383588, 317.8 ], [ -89.509504185989499, 42.959226099774241, 318.6 ], [ -89.509519021958113, 42.95918301679194, 319.0 ], [ -89.509538384154439, 42.959089893847704, 319.0 ], [ -89.50952866114676, 42.959086205810308, 319.0 ], [ -89.509475687518716, 42.959061814472079, 318.6 ], [ -89.509387509897351, 42.958998698741198, 317.8 ], [ -89.509384408593178, 42.958999201655388, 317.8 ], [ -89.509400837123394, 42.959007164463401, 318.4 ], [ -89.509358173236251, 42.958977911621332, 319.2 ], [ -89.509291956201196, 42.958922255784273, 320.2 ], [ -89.509292291477323, 42.95891672372818, 320.4 ], [ -89.509240826591849, 42.958885543048382, 320.6 ], [ -89.50912163592875, 42.958794934675097, 320.4 ], [ -89.509041169658303, 42.958718240261078, 319.6 ], [ -89.508949471637607, 42.958642970770597, 318.4 ], [ -89.508916363120079, 42.958621932193637, 317.8 ], [ -89.508886355906725, 42.958567114546895, 318.0 ], [ -89.50888903811574, 42.958559989929199, 318.0 ], [ -89.508912172168493, 42.958484217524529, 317.8 ], [ -89.508921056985855, 42.958479439839721, 317.6 ], [ -89.508926253765821, 42.958466280251741, 316.8 ], [ -89.50890613719821, 42.95837483368814, 316.6 ], [ -89.508891887962818, 42.958320351317525, 317.0 ], [ -89.508889205753803, 42.958314903080463, 317.0 ], [ -89.50886414386332, 42.958229072391987, 316.2 ], [ -89.508814690634608, 42.958179200068116, 315.4 ], [ -89.50880597345531, 42.958172494545579, 315.4 ], [ -89.508822234347463, 42.958156149834394, 315.0 ], [ -89.508827095851302, 42.958133267238736, 315.0 ], [ -89.508825419470668, 42.958128992468119, 315.8 ], [ -89.508728692308068, 42.958118598908186, 316.0 ], [ -89.508630707859993, 42.95810267329216, 314.8 ], [ -89.508577985689044, 42.958097895607352, 313.8 ], [ -89.508575387299061, 42.95809630304575, 313.8 ], [ -89.508461644873023, 42.958084987476468, 313.8 ], [ -89.508294090628624, 42.958080796524882, 314.0 ], [ -89.508236171677709, 42.958086244761944, 314.0 ], [ -89.50821228325367, 42.958087585866451, 313.8 ], [ -89.508147407323122, 42.958070738241076, 313.0 ], [ -89.508065180853009, 42.958066882565618, 312.8 ], [ -89.507908439263701, 42.958061518147588, 311.8 ], [ -89.50788245536387, 42.958062691614032, 310.4 ], [ -89.507824117317796, 42.9580591712147, 309.0 ], [ -89.507800815626979, 42.958053471520543, 309.4 ], [ -89.507800061255693, 42.958052381873131, 309.4 ], [ -89.507797043770552, 42.95805087313056, 309.6 ], [ -89.507771814242005, 42.958060093224049, 309.8 ], [ -89.507638290524483, 42.958080545067787, 310.2 ], [ -89.507547095417976, 42.958083227276802, 308.6 ], [ -89.507464868947864, 42.958090603351593, 308.0 ], [ -89.507440645247698, 42.958095967769623, 308.0 ], [ -89.507418684661388, 42.958103092387319, 307.8 ], [ -89.507398903369904, 42.958103092387319, 307.6 ], [ -89.507370237261057, 42.958096554502845, 307.2 ], [ -89.507328746840358, 42.958090603351593, 307.0 ], [ -89.5073127374053, 42.958084400743246, 306.8 ], [ -89.507301254197955, 42.958072498440742, 306.4 ], [ -89.507292117923498, 42.958054812625051, 306.2 ], [ -89.50727853924036, 42.95802447013557, 305.0 ], [ -89.507278203964233, 42.958029080182314, 304.6 ], [ -89.507285999134183, 42.958063194528222, 305.0 ], [ -89.507231013849378, 42.958092531189322, 305.4 ], [ -89.507085923105478, 42.958083059638739, 305.4 ], [ -89.506976371631026, 42.958093201741576, 305.6 ], [ -89.506982993334532, 42.958088843151927, 305.4 ], [ -89.50693747960031, 42.958086160942912, 305.4 ], [ -89.506798340007663, 42.958100661635399, 304.8 ], [ -89.506633467972279, 42.958105690777302, 303.2 ], [ -89.506535232067108, 42.958105439320207, 302.0 ], [ -89.506504973396659, 42.958109797909856, 301.4 ], [ -89.506495501846075, 42.95811390504241, 301.2 ], [ -89.506434230133891, 42.958127651363611, 300.6 ], [ -89.506282098591328, 42.958104014396667, 301.2 ], [ -89.506237087771297, 42.958105271682143, 301.4 ], [ -89.506120160222054, 42.958096973598003, 301.8 ], [ -89.506003232672811, 42.958092531189322, 302.2 ], [ -89.505937937647104, 42.958080796524882, 302.2 ], [ -89.505856884643435, 42.958080125972629, 302.0 ], [ -89.505822937935591, 42.958077024668455, 302.0 ], [ -89.50581262819469, 42.958064367994666, 303.2 ], [ -89.505810029804707, 42.958064367994666, 304.2 ], [ -89.505711123347282, 42.958060344681144, 304.2 ], [ -89.505678433924913, 42.958050034940243, 304.2 ], [ -89.505670806393027, 42.958035785704851, 304.0 ], [ -89.505620934069157, 42.958029834553599, 303.8 ], [ -89.505608528852463, 42.958011226728559, 303.8 ], [ -89.505547340959311, 42.958035366609693, 304.0 ], [ -89.505422785878181, 42.958046849817038, 305.6 ], [ -89.505340391770005, 42.958045173436403, 305.6 ], [ -89.505239725112915, 42.958070654422045, 304.8 ], [ -89.505162611603737, 42.958078281953931, 304.4 ], [ -89.505097651854157, 42.958091860637069, 304.4 ], [ -89.50501031242311, 42.958074845373631, 304.4 ], [ -89.504905119538307, 42.958066882565618, 304.4 ], [ -89.50465215370059, 42.958061015233397, 304.6 ], [ -89.504635808989406, 42.958062021061778, 304.6 ], [ -89.504514522850513, 42.958070235326886, 305.4 ], [ -89.504418466240168, 42.958056572824717, 305.8 ], [ -89.504387453198433, 42.958053555339575, 305.8 ], [ -89.504287960007787, 42.958058668300509, 306.2 ], [ -89.504251498728991, 42.958059506490827, 306.2 ], [ -89.50414496473968, 42.958137290552258, 306.4 ], [ -89.504098612815142, 42.958145756274462, 306.8 ], [ -89.504086626693606, 42.958137122914195, 306.8 ], [ -89.503984786570072, 42.958084233105183, 307.6 ], [ -89.503931561484933, 42.958073504269123, 307.8 ], [ -89.503900799900293, 42.958073001354933, 308.0 ], [ -89.503830643370748, 42.958058081567287, 307.6 ], [ -89.503801558166742, 42.958066547289491, 307.4 ], [ -89.503678930923343, 42.958084652200341, 307.4 ], [ -89.503569295629859, 42.958131255581975, 308.6 ], [ -89.503482459113002, 42.958166794851422, 309.4 ], [ -89.503431664779782, 42.958206776529551, 310.4 ], [ -89.503432838246226, 42.958206525072455, 311.4 ], [ -89.503340637311339, 42.958277184516191, 311.6 ], [ -89.50327810831368, 42.958341557532549, 312.2 ], [ -89.503270229324698, 42.958406936377287, 313.2 ], [ -89.503188924863935, 42.958466531708837, 314.6 ], [ -89.503146763890982, 42.958481283858418, 315.4 ], [ -89.503148859366775, 42.958550350740552, 316.0 ], [ -89.503127904608846, 42.958699883893132, 315.4 ], [ -89.503108374774456, 42.958857882767916, 313.2 ], [ -89.503093706443906, 42.958878250792623, 312.4 ], [ -89.503098735585809, 42.958895433694124, 312.8 ], [ -89.503142824396491, 42.958960058167577, 317.0 ], [ -89.503213735297322, 42.959034657105803, 316.6 ], [ -89.503266625106335, 42.959087798371911, 315.4 ], [ -89.503342397511005, 42.959157200530171, 315.0 ], [ -89.503389419987798, 42.959202295169234, 314.8 ], [ -89.503392521291971, 42.959235906600952, 315.0 ], [ -89.503394532948732, 42.959242109209299, 315.2 ], [ -89.503393275663257, 42.959249317646027, 315.4 ], [ -89.503373829647899, 42.95929248444736, 316.0 ], [ -89.503373997285962, 42.959367921575904, 315.4 ], [ -89.503396209329367, 42.95942491851747, 315.4 ], [ -89.503350863233209, 42.959462134167552, 315.4 ], [ -89.503322280943394, 42.959510833024979, 317.6 ], [ -89.503319095820189, 42.959549389779568, 318.8 ], [ -89.503290681168437, 42.95955047942698, 318.4 ], [ -89.50320728123188, 42.959566237404943, 319.0 ], [ -89.503198312595487, 42.95961401425302, 320.4 ], [ -89.503210633993149, 42.959668077528477, 321.2 ], [ -89.503266206011176, 42.959716860204935, 321.8 ], [ -89.503281293436885, 42.959751561284065, 322.0 ], [ -89.503315575420856, 42.959835883229971, 319.6 ], [ -89.503365531563759, 42.959927245974541, 320.0 ], [ -89.503414398059249, 42.959967814385891, 320.6 ], [ -89.503443315625191, 42.960023218765855, 320.8 ], [ -89.503478184342384, 42.960098907351494, 321.0 ], [ -89.503520680591464, 42.96014073304832, 320.4 ], [ -89.503603745251894, 42.960168477147818, 319.2 ], [ -89.503651354461908, 42.960166381672025, 319.0 ], [ -89.503730060532689, 42.960202088579535, 319.0 ], [ -89.503910019993782, 42.960237544029951, 316.8 ], [ -89.504042454063892, 42.960226899012923, 315.0 ], [ -89.504161728546023, 42.960166465491056, 315.8 ], [ -89.50423339381814, 42.960113324224949, 316.2 ], [ -89.504255941137671, 42.9601089656353, 315.8 ], [ -89.504373874515295, 42.960077784955502, 315.0 ], [ -89.504383513703942, 42.96007233671844, 315.0 ], [ -89.504527347162366, 42.960018776357174, 315.0 ], [ -89.504539920017123, 42.960014250129461, 314.8 ], [ -89.504542518407106, 42.960005281493068, 314.2 ], [ -89.504573279991746, 42.960002683103085, 313.0 ], [ -89.504715772345662, 42.959989439696074, 314.0 ], [ -89.504905873909593, 42.959963036701083, 314.4 ], [ -89.504926661029458, 42.959953397512436, 314.2 ], [ -89.505074601620436, 42.959884330630302, 314.4 ], [ -89.505140315741301, 42.959849797189236, 314.6 ], [ -89.50522187165916, 42.959803612902761, 315.2 ], [ -89.505350282415748, 42.959748543798923, 315.6 ], [ -89.505369141697884, 42.959740413352847, 315.8 ], [ -89.505375092849135, 42.959731863811612, 315.8 ], [ -89.505375428125262, 42.959729349240661, 315.8 ], [ -89.505449943244457, 42.959718788042665, 316.2 ], [ -89.505621353164315, 42.959645865485072, 316.4 ], [ -89.505683463066816, 42.959653157740831, 316.6 ], [ -89.505745908245444, 42.959707137197256, 318.6 ], [ -89.505792008712888, 42.959754914045334, 320.4 ], [ -89.505855292081833, 42.959808893501759, 321.2 ], [ -89.505886137485504, 42.959887431934476, 320.2 ], [ -89.505876330658793, 42.959973765537143, 321.4 ], [ -89.505876246839762, 42.959990613162518, 321.6 ], [ -89.505868116393685, 42.959999581798911, 321.6 ], [ -89.50585663318634, 42.960028583183885, 321.8 ], [ -89.505865266546607, 42.96005230396986, 321.8 ], [ -89.505894938483834, 42.960145343095064, 322.0 ], [ -89.505918491631746, 42.960229497402906, 321.6 ], [ -89.505973225459456, 42.96029219403863, 321.0 ], [ -89.506079340353608, 42.960364529863, 321.0 ], [ -89.506177576258779, 42.960427310317755, 319.4 ], [ -89.506192579865456, 42.96045153401792, 319.2 ], [ -89.506212947890162, 42.960484642535448, 319.2 ], [ -89.506222167983651, 42.96049302443862, 319.4 ], [ -89.506269777193666, 42.960524540394545, 319.4 ], [ -89.506262233480811, 42.960533760488033, 319.4 ], [ -89.506303556263447, 42.960584219545126, 320.0 ], [ -89.506364576518536, 42.96066015958786, 320.4 ], [ -89.506401875987649, 42.960703996941447, 320.0 ], [ -89.50647471472621, 42.96075445599854, 319.6 ], [ -89.506565323099494, 42.960842214524746, 319.2 ], [ -89.506637323647738, 42.960875323042274, 319.0 ], [ -89.506679316982627, 42.960883369669318, 318.6 ], [ -89.506801692768931, 42.960904575884342, 317.6 ], [ -89.506947202607989, 42.96094011515379, 316.6 ], [ -89.50702347792685, 42.96095184981823, 316.4 ], [ -89.507042169570923, 42.960962327197194, 316.4 ], [ -89.507060190662742, 42.960935924202204, 316.8 ], [ -89.507080307230353, 42.960911616683006, 317.0 ], [ -89.507182231172919, 42.960829641669989, 316.0 ], [ -89.507276946678758, 42.960753450170159, 315.2 ], [ -89.507290441542864, 42.96074029058218, 315.2 ], [ -89.507391946390271, 42.960643898695707, 315.0 ], [ -89.507474759593606, 42.960560247302055, 315.2 ], [ -89.507554052397609, 42.960483385249972, 314.4 ], [ -89.507702328264713, 42.96034692786634, 312.4 ], [ -89.507745746523142, 42.960324548184872, 312.4 ], [ -89.507767288014293, 42.960333852097392, 312.6 ], [ -89.507843060418963, 42.960363440215588, 313.6 ], [ -89.507930316030979, 42.96042756177485, 313.4 ], [ -89.50795671902597, 42.960427142679691, 314.0 ], [ -89.507961748167872, 42.960421107709408, 313.8 ], [ -89.508019080385566, 42.960492102429271, 312.2 ], [ -89.50808915309608, 42.960570557042956, 312.8 ], [ -89.508144138380885, 42.960646832361817, 313.8 ], [ -89.508231813088059, 42.960729477927089, 314.6 ], [ -89.508346226066351, 42.960845399647951, 315.6 ], [ -89.508468685671687, 42.960963249206543, 317.4 ], [ -89.50852744281292, 42.961016558110714, 318.0 ], [ -89.508591061457992, 42.961061736568809, 318.4 ], [ -89.508636156097054, 42.961057545617223, 318.6 ], [ -89.508734392002225, 42.961012618616223, 319.0 ], [ -89.508729027584195, 42.961006499826908, 319.0 ], [ -89.50878250412643, 42.961008092388511, 319.4 ], [ -89.508909741416574, 42.961009182035923, 321.4 ], [ -89.509065644815564, 42.960988897830248, 322.4 ], [ -89.509146111086011, 42.960979342460632, 322.0 ], [ -89.509225655347109, 42.960996357724071, 322.8 ], [ -89.509282484650612, 42.960974983870983, 322.8 ], [ -89.509358424693346, 42.960970960557461, 322.4 ], [ -89.509458504617214, 42.960985964164138, 322.0 ], [ -89.50955992564559, 42.961022760719061, 323.0 ], [ -89.509644415229559, 42.96109601855278, 322.8 ], [ -89.509678445756435, 42.961098868399858, 322.2 ], [ -89.509681044146419, 42.961104148998857, 321.2 ], [ -89.509676685556769, 42.96110431663692, 322.4 ] ] ] } },
{ "type": "Feature", "properties": { "id": 1, "hrt": 90 }, "geometry": { "type": "MultiLineString", "coordinates": [ [ [ -89.50964131392459, 42.961101215485513, 0.0 ] ] ] } },
{ "type": "Feature", "properties": { "id": 2, "hrt": 90 }, "geometry": { "type": "MultiLineString", "coordinates": [ [ [ -89.50964131392459, 42.961101215485513, 0.0 ], [ -89.509548693894544, 42.961103478599348, 0.0 ], [ -89.509496642275835, 42.961089145544918, 0.0 ], [ -89.50950502417902, 42.961117811653772, 0.0 ], [ -89.509492870419422, 42.961169863272445, 0.0 ], [ -89.509468981995383, 42.961200373399983, 0.0 ], [ -89.509497899561325, 42.961245803315194, 0.0 ], [ -89.509510807692209, 42.961252257380636, 0.0 ], [ -89.509508376940289, 42.96125393376127, 0.0 ], [ -89.509421624242464, 42.961223423633697, 0.0 ], [ -89.509302433579364, 42.961200457218986, 0.0 ], [ -89.509252812712589, 42.961134240183902, 0.0 ], [ -89.509246610104242, 42.961100964028319, 0.0 ], [ -89.509255411102572, 42.961015803892074, 0.0 ], [ -89.509253064169684, 42.961004991236997, 0.0 ], [ -89.509248789399066, 42.96097749859458, 0.0 ], [ -89.509250046684542, 42.96091279030211, 0.0 ], [ -89.509279634802738, 42.960885884392937, 0.0 ], [ -89.509305115788379, 42.960874401185578, 0.0 ], [ -89.509304780512252, 42.960840873572899, 0.0 ], [ -89.509306456892887, 42.960834168050383, 0.0 ], [ -89.509321460499564, 42.960791420344215, 0.0 ], [ -89.509365381672168, 42.960761161673759, 0.0 ], [ -89.509311402215758, 42.960728304613326, 0.0 ], [ -89.509320203214088, 42.960698632676085, 0.0 ], [ -89.509286172687212, 42.960690250772906, 0.0 ], [ -89.509279634802738, 42.960675079528173, 0.0 ], [ -89.509337637572685, 42.960644820857745, 0.0 ], [ -89.509446686132947, 42.96058472261204, 0.0 ], [ -89.509456241502562, 42.960569467548268, 0.0 ], [ -89.509493876247802, 42.96042764574662, 0.0 ], [ -89.509473675861159, 42.960329158384333, 0.0 ], [ -89.509483817963996, 42.960308874178679, 0.0 ], [ -89.50953754596334, 42.960307868350306, 0.0 ], [ -89.509522626175681, 42.960259169492893, 0.0 ], [ -89.509514579548636, 42.960230168107906, 0.0 ], [ -89.509546095504561, 42.960178787041471, 0.0 ], [ -89.509545341133261, 42.960079712945976, 0.0 ], [ -89.50952572747984, 42.9599119910635, 0.0 ], [ -89.509516675024429, 42.959813000787051, 0.0 ], [ -89.509487254544297, 42.959787184525268, 0.0 ], [ -89.509468898176351, 42.959776623327265, 0.0 ], [ -89.509484572335282, 42.959717195633793, 0.0 ], [ -89.509487003087202, 42.959669670242796, 0.0 ], [ -89.509485494344617, 42.959621893394718, 0.0 ], [ -89.509486500173011, 42.95958509683981, 0.0 ], [ -89.509516842662492, 42.959530949745314, 0.0 ], [ -89.509491696952978, 42.959458697740004, 0.0 ], [ -89.509490607305565, 42.959455680254855, 0.0 ], [ -89.50951525010089, 42.959381835687914, 0.0 ], [ -89.50951575301508, 42.959277229536319, 0.0 ], [ -89.509504185988703, 42.95922609992698, 0.0 ], [ -89.509519021957317, 42.959183016944685, 0.0 ], [ -89.509538384153643, 42.959089894000442, 0.0 ], [ -89.50952866114595, 42.959086205963068, 0.0 ], [ -89.50947568751792, 42.959061814624803, 0.0 ], [ -89.509387509896555, 42.958998698893893, 0.0 ], [ -89.509384408592368, 42.958999201808076, 0.0 ], [ -89.509400837122584, 42.959007164616118, 0.0 ], [ -89.509358173235441, 42.958977911774021, 0.0 ], [ -89.5092919562004, 42.958922255936947, 0.0 ], [ -89.509292291476527, 42.958916723880854, 0.0 ], [ -89.509240826591054, 42.958885543201028, 0.0 ], [ -89.509121635927954, 42.958794934827715, 0.0 ], [ -89.509041169657507, 42.958718240413674, 0.0 ], [ -89.508949471636811, 42.958642970923158, 0.0 ], [ -89.508916363119283, 42.958621932346198, 0.0 ], [ -89.508886355905929, 42.95856711469942, 0.0 ], [ -89.508889038114944, 42.958559990081746, 0.0 ], [ -89.508912172167683, 42.958484217677082, 0.0 ], [ -89.508921056985059, 42.958479439992274, 0.0 ], [ -89.508926253765011, 42.958466280404309, 0.0 ], [ -89.5089061371974, 42.958374833840693, 0.0 ], [ -89.508891887962022, 42.958320351470078, 0.0 ], [ -89.508889205753007, 42.95831490323301, 0.0 ], [ -89.508864143862525, 42.958229072544526, 0.0 ], [ -89.508814690633812, 42.958179200220641, 0.0 ], [ -89.508805973454514, 42.958172494698118, 0.0 ], [ -89.508822234346667, 42.958156149986927, 0.0 ], [ -89.508827095850521, 42.958133267391254, 0.0 ], [ -89.508825419469872, 42.958128992620665, 0.0 ], [ -89.508728692307272, 42.958118599060676, 0.0 ], [ -89.508630707859197, 42.958102673444628, 0.0 ], [ -89.508577985688248, 42.958097895759806, 0.0 ], [ -89.508575387298265, 42.958096303198204, 0.0 ], [ -89.508461644872213, 42.958084987628872, 0.0 ], [ -89.508294090627828, 42.958080796677251, 0.0 ], [ -89.508236171676899, 42.958086244914284, 0.0 ], [ -89.508212283252874, 42.958087586018785, 0.0 ], [ -89.508147407322326, 42.958070738393388, 0.0 ], [ -89.508065180852199, 42.958066882717915, 0.0 ], [ -89.507908439262891, 42.958061518299822, 0.0 ], [ -89.507882455363074, 42.958062691766266, 0.0 ], [ -89.507824117317, 42.958059171366919, 0.0 ], [ -89.507800815626183, 42.958053471672756, 0.0 ], [ -89.507800061254898, 42.958052382025322, 0.0 ], [ -89.507797043769756, 42.958050873282765, 0.0 ], [ -89.50777181424121, 42.95806009337624, 0.0 ], [ -89.507638290523687, 42.958080545219929, 0.0 ], [ -89.507547095417181, 42.958083227428929, 0.0 ], [ -89.507464868947068, 42.958090603503699, 0.0 ], [ -89.507440645246902, 42.958095967921707, 0.0 ], [ -89.507418684660593, 42.958103092539417, 0.0 ], [ -89.507398903369094, 42.958103092539403, 0.0 ], [ -89.507370237260261, 42.958096554654929, 0.0 ] ] ] } },
{ "type": "Feature", "properties": { "id": 3, "hrt": 90 }, "geometry": { "type": "MultiLineString", "coordinates": [ [ [ -89.50964131392459, 42.961101215485513, 0.0 ], [ -89.509548693894544, 42.961103478599348, 0.0 ], [ -89.509496642275835, 42.961089145544918, 0.0 ], [ -89.50950502417902, 42.961117811653772, 0.0 ], [ -89.509492870419422, 42.961169863272445, 0.0 ], [ -89.509468981995383, 42.961200373399983, 0.0 ], [ -89.509497899561325, 42.961245803315194, 0.0 ], [ -89.509510807692209, 42.961252257380636, 0.0 ], [ -89.509508376940289, 42.96125393376127, 0.0 ], [ -89.509421624242464, 42.961223423633697, 0.0 ], [ -89.509302433579364, 42.961200457218986, 0.0 ], [ -89.509252812712589, 42.961134240183902, 0.0 ], [ -89.509246610104242, 42.961100964028319, 0.0 ], [ -89.509255411102572, 42.961015803892074, 0.0 ], [ -89.509253064169684, 42.961004991236997, 0.0 ], [ -89.509248789399066, 42.96097749859458, 0.0 ], [ -89.509250046684542, 42.96091279030211, 0.0 ], [ -89.509279634802738, 42.960885884392937, 0.0 ], [ -89.509305115788379, 42.960874401185578, 0.0 ], [ -89.509304780512252, 42.960840873572899, 0.0 ], [ -89.509306456892887, 42.960834168050383, 0.0 ], [ -89.509321460499564, 42.960791420344215, 0.0 ], [ -89.509365381672168, 42.960761161673759, 0.0 ], [ -89.509311402215758, 42.960728304613326, 0.0 ], [ -89.509320203214088, 42.960698632676085, 0.0 ], [ -89.509286172687212, 42.960690250772906, 0.0 ], [ -89.509279634802738, 42.960675079528173, 0.0 ], [ -89.509337637572685, 42.960644820857745, 0.0 ], [ -89.509446686132947, 42.96058472261204, 0.0 ], [ -89.509456241502562, 42.960569467548268, 0.0 ], [ -89.509493876247802, 42.96042764574662, 0.0 ], [ -89.509473675861159, 42.960329158384333, 0.0 ], [ -89.509483817963996, 42.960308874178679, 0.0 ], [ -89.50953754596334, 42.960307868350306, 0.0 ], [ -89.509522626175681, 42.960259169492893, 0.0 ], [ -89.509514579548636, 42.960230168107906, 0.0 ], [ -89.509546095504561, 42.960178787041471, 0.0 ], [ -89.509545341133261, 42.960079712945976, 0.0 ], [ -89.50952572747984, 42.9599119910635, 0.0 ], [ -89.509516675024429, 42.959813000787051, 0.0 ], [ -89.509487254544297, 42.959787184525268, 0.0 ], [ -89.509468898176351, 42.959776623327265, 0.0 ], [ -89.509484572335282, 42.959717195633793, 0.0 ], [ -89.509487003087202, 42.959669670242796, 0.0 ], [ -89.509485494344617, 42.959621893394718, 0.0 ], [ -89.509486500173011, 42.95958509683981, 0.0 ], [ -89.509516842662492, 42.959530949745314, 0.0 ], [ -89.509491696952978, 42.959458697740004, 0.0 ], [ -89.509490607305565, 42.959455680254855, 0.0 ], [ -89.50951525010089, 42.959381835687914, 0.0 ], [ -89.50951575301508, 42.959277229536319, 0.0 ], [ -89.509504185988703, 42.95922609992698, 0.0 ], [ -89.509519021957317, 42.959183016944685, 0.0 ], [ -89.509538384153643, 42.959089894000442, 0.0 ], [ -89.50952866114595, 42.959086205963068, 0.0 ], [ -89.50947568751792, 42.959061814624803, 0.0 ], [ -89.509387509896555, 42.958998698893893, 0.0 ], [ -89.509384408592368, 42.958999201808076, 0.0 ], [ -89.509400837122584, 42.959007164616118, 0.0 ], [ -89.509358173235441, 42.958977911774021, 0.0 ], [ -89.5092919562004, 42.958922255936947, 0.0 ], [ -89.509292291476527, 42.958916723880854, 0.0 ], [ -89.509240826591054, 42.958885543201028, 0.0 ], [ -89.509121635927954, 42.958794934827715, 0.0 ], [ -89.509041169657507, 42.958718240413674, 0.0 ], [ -89.508949471636811, 42.958642970923158, 0.0 ], [ -89.508916363119283, 42.958621932346198, 0.0 ], [ -89.508886355905929, 42.95856711469942, 0.0 ], [ -89.508889038114944, 42.958559990081746, 0.0 ], [ -89.508912172167683, 42.958484217677082, 0.0 ], [ -89.508921056985059, 42.958479439992274, 0.0 ], [ -89.508926253765011, 42.958466280404309, 0.0 ], [ -89.5089061371974, 42.958374833840693, 0.0 ], [ -89.508891887962022, 42.958320351470078, 0.0 ], [ -89.508889205753007, 42.95831490323301, 0.0 ], [ -89.508864143862525, 42.958229072544526, 0.0 ], [ -89.508814690633812, 42.958179200220641, 0.0 ], [ -89.508805973454514, 42.958172494698118, 0.0 ], [ -89.508822234346667, 42.958156149986927, 0.0 ], [ -89.508827095850521, 42.958133267391254, 0.0 ], [ -89.508825419469872, 42.958128992620665, 0.0 ], [ -89.508728692307272, 42.958118599060676, 0.0 ], [ -89.508630707859197, 42.958102673444628, 0.0 ], [ -89.508577985688248, 42.958097895759806, 0.0 ], [ -89.508575387298265, 42.958096303198204, 0.0 ], [ -89.508461644872213, 42.958084987628872, 0.0 ], [ -89.508294090627828, 42.958080796677251, 0.0 ], [ -89.508236171676899, 42.958086244914284, 0.0 ], [ -89.508212283252874, 42.958087586018785, 0.0 ], [ -89.508147407322326, 42.958070738393388, 0.0 ], [ -89.508065180852199, 42.958066882717915, 0.0 ], [ -89.507908439262891, 42.958061518299822, 0.0 ], [ -89.507882455363074, 42.958062691766266, 0.0 ], [ -89.507824117317, 42.958059171366919, 0.0 ], [ -89.507800815626183, 42.958053471672756, 0.0 ], [ -89.507800061254898, 42.958052382025322, 0.0 ], [ -89.507797043769756, 42.958050873282765, 0.0 ], [ -89.50777181424121, 42.95806009337624, 0.0 ], [ -89.507638290523687, 42.958080545219929, 0.0 ], [ -89.507547095417181, 42.958083227428929, 0.0 ], [ -89.507464868947068, 42.958090603503699, 0.0 ], [ -89.507440645246902, 42.958095967921707, 0.0 ], [ -89.507418684660593, 42.958103092539417, 0.0 ], [ -89.507398903369094, 42.958103092539403, 0.0 ], [ -89.507370237260261, 42.958096554654929, 0.0 ], [ -89.507328746839548, 42.958090603503649, 0.0 ], [ -89.507312737404504, 42.958084400895309, 0.0 ], [ -89.507301254197145, 42.958072498592784, 0.0 ], [ -89.507292117922702, 42.958054812777092, 0.0 ], [ -89.507278539239564, 42.958024470287619, 0.0 ], [ -89.507278203963423, 42.95802908033437, 0.0 ], [ -89.507285999133401, 42.958063194680257, 0.0 ], [ -89.507231013848596, 42.958092531341357, 0.0 ], [ -89.507085923104682, 42.958083059790724, 0.0 ], [ -89.50697637163023, 42.958093201893526, 0.0 ], [ -89.506982993333736, 42.958088843303877, 0.0 ], [ -89.506937479599515, 42.95808616109484, 0.0 ], [ -89.506798340006853, 42.958100661787292, 0.0 ], [ -89.506633467971483, 42.958105690929152, 0.0 ], [ -89.506535232066298, 42.958105439472014, 0.0 ], [ -89.506504973395863, 42.958109798061656, 0.0 ], [ -89.506495501845265, 42.95811390519421, 0.0 ], [ -89.506434230133095, 42.958127651515412, 0.0 ], [ -89.506282098590532, 42.958104014548397, 0.0 ], [ -89.506237087770501, 42.958105271833858, 0.0 ], [ -89.506120160221244, 42.95809697374969, 0.0 ], [ -89.506003232672015, 42.958092531340952, 0.0 ], [ -89.505937937646308, 42.958080796676519, 0.0 ], [ -89.50585688464264, 42.958080126124209, 0.0 ], [ -89.505822937934781, 42.958077024820064, 0.0 ], [ -89.50581262819388, 42.958064368146253, 0.0 ], [ -89.505810029803911, 42.958064368146253, 0.0 ], [ -89.505711123346487, 42.958060344832688, 0.0 ], [ -89.505678433924118, 42.95805003509178, 0.0 ], [ -89.505670806392231, 42.958035785856374, 0.0 ], [ -89.505620934068347, 42.958029834705137, 0.0 ], [ -89.505608528851653, 42.958011226880075, 0.0 ], [ -89.505547340958501, 42.958035366761187, 0.0 ], [ -89.505422785877386, 42.958046849968511, 0.0 ], [ -89.505340391769195, 42.958045173587848, 0.0 ], [ -89.505239725112119, 42.958070654573461, 0.0 ], [ -89.505162611602955, 42.958078282105326, 0.0 ], [ -89.505097651853347, 42.958091860788443, 0.0 ], [ -89.5050103124223, 42.958074845524969, 0.0 ], [ -89.504905119537511, 42.958066882716906, 0.0 ], [ -89.50465215369978, 42.958061015384629, 0.0 ], [ -89.50463580898861, 42.958062021213003, 0.0 ], [ -89.504514522849703, 42.958070235478083, 0.0 ], [ -89.504418466239358, 42.958056572975892, 0.0 ], [ -89.504387453197623, 42.958053555490714, 0.0 ], [ -89.504287960006977, 42.958058668451628, 0.0 ], [ -89.504251498728195, 42.958059506641931, 0.0 ], [ -89.504144964738884, 42.958137290703306, 0.0 ], [ -89.504098612814346, 42.95814575642553, 0.0 ], [ -89.504086626692811, 42.958137123065271, 0.0 ], [ -89.503984786569276, 42.958084233256201, 0.0 ], [ -89.503931561484137, 42.958073504420135, 0.0 ], [ -89.503900799899498, 42.958073001505952, 0.0 ], [ -89.503830643369952, 42.958058081718264, 0.0 ], [ -89.503801558165947, 42.958066547440474, 0.0 ], [ -89.503678930922547, 42.958084652351268, 0.0 ], [ -89.503569295629049, 42.958131255732873, 0.0 ], [ -89.503482459112192, 42.958166795002292, 0.0 ], [ -89.503431664778986, 42.958206776680413, 0.0 ], [ -89.503432838245431, 42.958206525223297, 0.0 ], [ -89.503340637310544, 42.958277184667011, 0.0 ], [ -89.50327810831287, 42.958341557683347, 0.0 ], [ -89.503270229323903, 42.958406936528078, 0.0 ], [ -89.503188924863124, 42.958466531859607, 0.0 ], [ -89.503146763890186, 42.958481284009189, 0.0 ], [ -89.503148859365979, 42.958550350891322, 0.0 ], [ -89.50312790460805, 42.958699884043888, 0.0 ] ] ] } },
{ "type": "Feature", "properties": { "id": 4, "hrt": 90 }, "geometry": { "type": "MultiLineString", "coordinates": [ [ [ -89.50964131392459, 42.961101215485513, 0.0 ] ] ] } },
{ "type": "Feature", "properties": { "id": 5, "hrt": 90 }, "geometry": { "type": "MultiLineString", "coordinates": [ [ [ -89.50964131392459, 42.961101215485513, 0.0 ], [ -89.509548693894544, 42.961103478599348, 0.0 ], [ -89.509496642275835, 42.961089145544918, 0.0 ], [ -89.50950502417902, 42.961117811653772, 0.0 ], [ -89.509492870419422, 42.961169863272445, 0.0 ], [ -89.509468981995383, 42.961200373399983, 0.0 ], [ -89.509497899561325, 42.961245803315194, 0.0 ], [ -89.509510807692209, 42.961252257380636, 0.0 ], [ -89.509508376940289, 42.96125393376127, 0.0 ], [ -89.509421624242464, 42.961223423633697, 0.0 ], [ -89.509302433579364, 42.961200457218986, 0.0 ], [ -89.509252812712589, 42.961134240183902, 0.0 ], [ -89.509246610104242, 42.961100964028319, 0.0 ], [ -89.509255411102572, 42.961015803892074, 0.0 ], [ -89.509253064169684, 42.961004991236997, 0.0 ], [ -89.509248789399066, 42.96097749859458, 0.0 ], [ -89.509250046684542, 42.96091279030211, 0.0 ], [ -89.509279634802738, 42.960885884392937, 0.0 ], [ -89.509305115788379, 42.960874401185578, 0.0 ], [ -89.509304780512252, 42.960840873572899, 0.0 ], [ -89.509306456892887, 42.960834168050383, 0.0 ], [ -89.509321460499564, 42.960791420344215, 0.0 ], [ -89.509365381672168, 42.960761161673759, 0.0 ], [ -89.509311402215758, 42.960728304613326, 0.0 ], [ -89.509320203214088, 42.960698632676085, 0.0 ], [ -89.509286172687212, 42.960690250772906, 0.0 ], [ -89.509279634802738, 42.960675079528173, 0.0 ], [ -89.509337637572685, 42.960644820857745, 0.0 ], [ -89.509446686132947, 42.96058472261204, 0.0 ], [ -89.509456241502562, 42.960569467548268, 0.0 ], [ -89.509493876247802, 42.96042764574662, 0.0 ], [ -89.509473675861159, 42.960329158384333, 0.0 ], [ -89.509483817963996, 42.960308874178679, 0.0 ], [ -89.50953754596334, 42.960307868350306, 0.0 ], [ -89.509522626175681, 42.960259169492893, 0.0 ], [ -89.509514579548636, 42.960230168107906, 0.0 ], [ -89.509546095504561, 42.960178787041471, 0.0 ], [ -89.509545341133261, 42.960079712945976, 0.0 ], [ -89.50952572747984, 42.9599119910635, 0.0 ], [ -89.509516675024429, 42.959813000787051, 0.0 ], [ -89.509487254544297, 42.959787184525268, 0.0 ], [ -89.509468898176351, 42.959776623327265, 0.0 ], [ -89.509484572335282, 42.959717195633793, 0.0 ], [ -89.509487003087202, 42.959669670242796, 0.0 ], [ -89.509485494344617, 42.959621893394718, 0.0 ], [ -89.509486500173011, 42.95958509683981, 0.0 ], [ -89.509516842662492, 42.959530949745314, 0.0 ], [ -89.509491696952978, 42.959458697740004, 0.0 ], [ -89.509490607305565, 42.959455680254855, 0.0 ], [ -89.50951525010089, 42.959381835687914, 0.0 ], [ -89.50951575301508, 42.959277229536319, 0.0 ], [ -89.509504185988703, 42.95922609992698, 0.0 ], [ -89.509519021957317, 42.959183016944685, 0.0 ], [ -89.509538384153643, 42.959089894000442, 0.0 ], [ -89.50952866114595, 42.959086205963068, 0.0 ], [ -89.50947568751792, 42.959061814624803, 0.0 ], [ -89.509387509896555, 42.958998698893893, 0.0 ], [ -89.509384408592368, 42.958999201808076, 0.0 ], [ -89.509400837122584, 42.959007164616118, 0.0 ], [ -89.509358173235441, 42.958977911774021, 0.0 ], [ -89.5092919562004, 42.958922255936947, 0.0 ], [ -89.509292291476527, 42.958916723880854, 0.0 ], [ -89.509240826591054, 42.958885543201028, 0.0 ], [ -89.509121635927954, 42.958794934827715, 0.0 ], [ -89.509041169657507, 42.958718240413674, 0.0 ], [ -89.508949471636811, 42.958642970923158, 0.0 ], [ -89.508916363119283, 42.958621932346198, 0.0 ], [ -89.508886355905929, 42.95856711469942, 0.0 ], [ -89.508889038114944, 42.958559990081746, 0.0 ], [ -89.508912172167683, 42.958484217677082, 0.0 ], [ -89.508921056985059, 42.958479439992274, 0.0 ], [ -89.508926253765011, 42.958466280404309, 0.0 ], [ -89.5089061371974, 42.958374833840693, 0.0 ], [ -89.508891887962022, 42.958320351470078, 0.0 ], [ -89.508889205753007, 42.95831490323301, 0.0 ], [ -89.508864143862525, 42.958229072544526, 0.0 ], [ -89.508814690633812, 42.958179200220641, 0.0 ], [ -89.508805973454514, 42.958172494698118, 0.0 ], [ -89.508822234346667, 42.958156149986927, 0.0 ], [ -89.508827095850521, 42.958133267391254, 0.0 ], [ -89.508825419469872, 42.958128992620665, 0.0 ], [ -89.508728692307272, 42.958118599060676, 0.0 ], [ -89.508630707859197, 42.958102673444628, 0.0 ], [ -89.508577985688248, 42.958097895759806, 0.0 ], [ -89.508575387298265, 42.958096303198204, 0.0 ], [ -89.508461644872213, 42.958084987628872, 0.0 ], [ -89.508294090627828, 42.958080796677251, 0.0 ], [ -89.508236171676899, 42.958086244914284, 0.0 ], [ -89.508212283252874, 42.958087586018785, 0.0 ], [ -89.508147407322326, 42.958070738393388, 0.0 ], [ -89.508065180852199, 42.958066882717915, 0.0 ], [ -89.507908439262891, 42.958061518299822, 0.0 ], [ -89.507882455363074, 42.958062691766266, 0.0 ], [ -89.507824117317, 42.958059171366919, 0.0 ], [ -89.507800815626183, 42.958053471672756, 0.0 ], [ -89.507800061254898, 42.958052382025322, 0.0 ], [ -89.507797043769756, 42.958050873282765, 0.0 ], [ -89.50777181424121, 42.95806009337624, 0.0 ], [ -89.507638290523687, 42.958080545219929, 0.0 ], [ -89.507547095417181, 42.958083227428929, 0.0 ], [ -89.507464868947068, 42.958090603503699, 0.0 ], [ -89.507440645246902, 42.958095967921707, 0.0 ], [ -89.507418684660593, 42.958103092539417, 0.0 ], [ -89.507398903369094, 42.958103092539403, 0.0 ], [ -89.507370237260261, 42.958096554654929, 0.0 ], [ -89.507328746839548, 42.958090603503649, 0.0 ], [ -89.507312737404504, 42.958084400895309, 0.0 ], [ -89.507301254197145, 42.958072498592784, 0.0 ], [ -89.507292117922702, 42.958054812777092, 0.0 ], [ -89.507278539239564, 42.958024470287619, 0.0 ], [ -89.507278203963423, 42.95802908033437, 0.0 ], [ -89.507285999133401, 42.958063194680257, 0.0 ], [ -89.507231013848596, 42.958092531341357, 0.0 ], [ -89.507085923104682, 42.958083059790724, 0.0 ], [ -89.50697637163023, 42.958093201893526, 0.0 ], [ -89.506982993333736, 42.958088843303877, 0.0 ], [ -89.506937479599515, 42.95808616109484, 0.0 ], [ -89.506798340006853, 42.958100661787292, 0.0 ], [ -89.506633467971483, 42.958105690929152, 0.0 ], [ -89.506535232066298, 42.958105439472014, 0.0 ], [ -89.506504973395863, 42.958109798061656, 0.0 ], [ -89.506495501845265, 42.95811390519421, 0.0 ], [ -89.506434230133095, 42.958127651515412, 0.0 ], [ -89.506282098590532, 42.958104014548397, 0.0 ], [ -89.506237087770501, 42.958105271833858, 0.0 ], [ -89.506120160221244, 42.95809697374969, 0.0 ], [ -89.506003232672015, 42.958092531340952, 0.0 ], [ -89.505937937646308, 42.958080796676519, 0.0 ], [ -89.50585688464264, 42.958080126124209, 0.0 ], [ -89.505822937934781, 42.958077024820064, 0.0 ], [ -89.50581262819388, 42.958064368146253, 0.0 ], [ -89.505810029803911, 42.958064368146253, 0.0 ], [ -89.505711123346487, 42.958060344832688, 0.0 ], [ -89.505678433924118, 42.95805003509178, 0.0 ], [ -89.505670806392231, 42.958035785856374, 0.0 ], [ -89.505620934068347, 42.958029834705137, 0.0 ], [ -89.505608528851653, 42.958011226880075, 0.0 ], [ -89.505547340958501, 42.958035366761187, 0.0 ], [ -89.505422785877386, 42.958046849968511, 0.0 ], [ -89.505340391769195, 42.958045173587848, 0.0 ], [ -89.505239725112119, 42.958070654573461, 0.0 ], [ -89.505162611602955, 42.958078282105326, 0.0 ], [ -89.505097651853347, 42.958091860788443, 0.0 ], [ -89.5050103124223, 42.958074845524969, 0.0 ], [ -89.504905119537511, 42.958066882716906, 0.0 ], [ -89.50465215369978, 42.958061015384629, 0.0 ], [ -89.50463580898861, 42.958062021213003, 0.0 ], [ -89.504514522849703, 42.958070235478083, 0.0 ], [ -89.504418466239358, 42.958056572975892, 0.0 ], [ -89.504387453197623, 42.958053555490714, 0.0 ], [ -89.504287960006977, 42.958058668451628, 0.0 ], [ -89.504251498728195, 42.958059506641931, 0.0 ], [ -89.504144964738884, 42.958137290703306, 0.0 ], [ -89.504098612814346, 42.95814575642553, 0.0 ], [ -89.504086626692811, 42.958137123065271, 0.0 ], [ -89.503984786569276, 42.958084233256201, 0.0 ], [ -89.503931561484137, 42.958073504420135, 0.0 ], [ -89.503900799899498, 42.958073001505952, 0.0 ], [ -89.503830643369952, 42.958058081718264, 0.0 ], [ -89.503801558165947, 42.958066547440474, 0.0 ], [ -89.503678930922547, 42.958084652351268, 0.0 ], [ -89.503569295629049, 42.958131255732873, 0.0 ], [ -89.503482459112192, 42.958166795002292, 0.0 ], [ -89.503431664778986, 42.958206776680413, 0.0 ], [ -89.503432838245431, 42.958206525223297, 0.0 ], [ -89.503340637310544, 42.958277184667011, 0.0 ], [ -89.50327810831287, 42.958341557683347, 0.0 ], [ -89.503270229323903, 42.958406936528078, 0.0 ], [ -89.503188924863124, 42.958466531859607, 0.0 ], [ -89.503146763890186, 42.958481284009189, 0.0 ], [ -89.503148859365979, 42.958550350891322, 0.0 ], [ -89.50312790460805, 42.958699884043888, 0.0 ], [ -89.50310837477366, 42.958857882918657, 0.0 ], [ -89.50309370644311, 42.958878250943364, 0.0 ], [ -89.503098735585013, 42.958895433844866, 0.0 ], [ -89.503142824395695, 42.958960058318333, 0.0 ] ] ] } },
{ "type": "Feature", "properties": { "id": 6, "hrt": 90 }, "geometry": { "type": "MultiLineString", "coordinates": [ [ [ -89.50964131392459, 42.961101215485513, 0.0 ] ] ] } },
{ "type": "Feature", "properties": { "id": 7, "hrt": 90 }, "geometry": { "type": "MultiLineString", "coordinates": [ [ [ -89.50964131392459, 42.961101215485513, 0.0 ], [ -89.509548693894544, 42.961103478599348, 0.0 ], [ -89.509496642275835, 42.961089145544918, 0.0 ], [ -89.50950502417902, 42.961117811653772, 0.0 ], [ -89.509492870419422, 42.961169863272445, 0.0 ], [ -89.509468981995383, 42.961200373399983, 0.0 ], [ -89.509497899561325, 42.961245803315194, 0.0 ], [ -89.509510807692209, 42.961252257380636, 0.0 ], [ -89.509508376940289, 42.96125393376127, 0.0 ], [ -89.509421624242464, 42.961223423633697, 0.0 ], [ -89.509302433579364, 42.961200457218986, 0.0 ], [ -89.509252812712589, 42.961134240183902, 0.0 ], [ -89.509246610104242, 42.961100964028319, 0.0 ], [ -89.509255411102572, 42.961015803892074, 0.0 ], [ -89.509253064169684, 42.961004991236997, 0.0 ], [ -89.509248789399066, 42.96097749859458, 0.0 ], [ -89.509250046684542, 42.96091279030211, 0.0 ], [ -89.509279634802738, 42.960885884392937, 0.0 ], [ -89.509305115788379, 42.960874401185578, 0.0 ], [ -89.509304780512252, 42.960840873572899, 0.0 ], [ -89.509306456892887, 42.960834168050383, 0.0 ], [ -89.509321460499564, 42.960791420344215, 0.0 ], [ -89.509365381672168, 42.960761161673759, 0.0 ], [ -89.509311402215758, 42.960728304613326, 0.0 ], [ -89.509320203214088, 42.960698632676085, 0.0 ], [ -89.509286172687212, 42.960690250772906, 0.0 ], [ -89.509279634802738, 42.960675079528173, 0.0 ], [ -89.509337637572685, 42.960644820857745, 0.0 ], [ -89.509446686132947, 42.96058472261204, 0.0 ], [ -89.509456241502562, 42.960569467548268, 0.0 ], [ -89.509493876247802, 42.96042764574662, 0.0 ], [ -89.509473675861159, 42.960329158384333, 0.0 ], [ -89.509483817963996, 42.960308874178679, 0.0 ], [ -89.50953754596334, 42.960307868350306, 0.0 ], [ -89.509522626175681, 42.960259169492893, 0.0 ], [ -89.509514579548636, 42.960230168107906, 0.0 ], [ -89.509546095504561, 42.960178787041471, 0.0 ], [ -89.509545341133261, 42.960079712945976, 0.0 ], [ -89.50952572747984, 42.9599119910635, 0.0 ], [ -89.509516675024429, 42.959813000787051, 0.0 ], [ -89.509487254544297, 42.959787184525268, 0.0 ], [ -89.509468898176351, 42.959776623327265, 0.0 ], [ -89.509484572335282, 42.959717195633793, 0.0 ], [ -89.509487003087202, 42.959669670242796, 0.0 ], [ -89.509485494344617, 42.959621893394718, 0.0 ], [ -89.509486500173011, 42.95958509683981, 0.0 ], [ -89.509516842662492, 42.959530949745314, 0.0 ], [ -89.509491696952978, 42.959458697740004, 0.0 ], [ -89.509490607305565, 42.959455680254855, 0.0 ], [ -89.50951525010089, 42.959381835687914, 0.0 ], [ -89.50951575301508, 42.959277229536319, 0.0 ], [ -89.509504185988703, 42.95922609992698, 0.0 ], [ -89.509519021957317, 42.959183016944685, 0.0 ], [ -89.509538384153643, 42.959089894000442, 0.0 ], [ -89.50952866114595, 42.959086205963068, 0.0 ], [ -89.50947568751792, 42.959061814624803, 0.0 ] ] ] } }
]
}
