{
"type": "FeatureCollection",
"name": "R_6dMNnK8veseggkL_human_hrt",
"features": [
{ "type": "Feature", "properties": { "id": 1, "hrt": 100, "maxHrt": [ 0 ] }, "geometry": { "type": "LineString", "coordinates": [ [ -89.509764120677616, 42.961113083186618, 0.0 ], [ -89.509718355487408, 42.961111490625051, 0.0 ] ] } },
{ "type": "Feature", "properties": { "id": 2, "hrt": 90, "maxHrt": [ 0 ] }, "geometry": { "type": "LineString", "coordinates": [ [ -89.509718355487408, 42.961111490625051, 0.0 ], [ -89.509735622207515, 42.961089613858306, 0.0 ], [ -89.509730257789613, 42.961088691848978, 0.0 ], [ -89.509716595287784, 42.961089362401211, 0.0 ], [ -89.509640319970771, 42.961086512554203, 0.0 ] ] } },
{ "type": "Feature", "properties": { "id": 3, "hrt": 90, "maxHrt": [ 0 ] }, "geometry": { "type": "LineString", "coordinates": [ [ -89.509640319970771, 42.961086512554203, 0.0 ], [ -89.509579634993273, 42.961091038781809, 0.0 ], [ -89.509579048260065, 42.961096151742616, 0.0 ] ] } },
{ "type": "Feature", "properties": { "id": 4, "hrt": 80, "maxHrt": [ 0 ] }, "geometry": { "type": "LineString", "coordinates": [ [ -89.509579048260065, 42.961096151742616, 0.0 ], [ -89.509553986370193, 42.961035885860277, 0.0 ], [ -89.509515681073623, 42.960914599724319, 0.0 ], [ -89.509508807913193, 42.960908061840001, 0.0 ], [ -89.509500928924396, 42.960887777634817, 0.0 ], [ -89.509497743801262, 42.960820135677864, 0.0 ], [ -89.509509646103481, 42.960764731299243, 0.0 ], [ -89.509519872025109, 42.960770598631321, 0.0 ] ] } },
{ "type": "Feature", "properties": { "id": 5, "hrt": 90, "maxHrt": [ 0 ] }, "geometry": { "type": "LineString", "coordinates": [ [ -89.509519872025109, 42.960770598631321, 0.0 ], [ -89.50950956228445, 42.960784931685396, 0.0 ], [ -89.509508053541921, 42.960782584752565, 0.0 ] ] } },
{ "type": "Feature", "properties": { "id": 6, "hrt": 100, "maxHrt": [ 0 ] }, "geometry": { "type": "LineString", "coordinates": [ [ -89.509508053541921, 42.960782584752565, 0.0 ], [ -89.509501850933717, 42.96070396250272, 0.0 ] ] } },
{ "type": "Feature", "properties": { "id": 7, "hrt": 90, "maxHrt": [ 0 ] }, "geometry": { "type": "LineString", "coordinates": [ [ -89.509501850933717, 42.96070396250272, 0.0 ], [ -89.509487517879649, 42.960595165402189, 0.0 ], [ -89.509475867034524, 42.960610085189472, 0.0 ], [ -89.509449715497254, 42.960614276140959, 0.0 ], [ -89.509446027459958, 42.960615030512223, 0.0 ], [ -89.50947108934983, 42.960553088249284, 0.0 ], [ -89.509481315271444, 42.960519057723232, 0.0 ], [ -89.509489529536353, 42.960447476271881, 0.0 ], [ -89.509488439888969, 42.960435490150637, 0.0 ], [ -89.509492714659487, 42.96039735249213, 0.0 ], [ -89.509499001086709, 42.960353682777665, 0.0 ], [ -89.509494307221047, 42.960312779091176, 0.0 ], [ -89.509493469030758, 42.960220745796583, 0.0 ], [ -89.50949833053447, 42.960228289509253, 0.0 ], [ -89.509492798478519, 42.960211693341371, 0.0 ], [ -89.509482237280778, 42.960173220406752, 0.0 ], [ -89.509493469030758, 42.960103818250168, 0.0 ], [ -89.509502270028875, 42.959977838248548, 0.0 ], [ -89.509508640275129, 42.959928720297157, 0.0 ], [ -89.509502605304988, 42.959886643144252, 0.0 ], [ -89.509498162896421, 42.959767033388893, 0.0 ], [ -89.50949514541135, 42.959744653707965, 0.0 ], [ -89.509505119875882, 42.959700564898348, 0.0 ], [ -89.509505203694914, 42.959647004538382, 0.0 ], [ -89.509502521485956, 42.959636946254818, 0.0 ], [ -89.509504030228499, 42.959536950152405, 0.0 ], [ -89.509516435444894, 42.959516163033044, 0.0 ], [ -89.509515094340415, 42.959515743937892, 0.0 ], [ -89.509515345797496, 42.959516163033044, 0.0 ], [ -89.509510232836689, 42.95947416969917, 0.0 ], [ -89.509507802084826, 42.959444916857812, 0.0 ], [ -89.50951945292995, 42.959384986251585, 0.0 ], [ -89.509493971944934, 42.959277949350678, 0.0 ], [ -89.509499923096044, 42.959147024026308, 0.0 ], [ -89.509504449323643, 42.959138977399455, 0.0 ], [ -89.509503694952372, 42.95906664157684, 0.0 ], [ -89.509495648325526, 42.959058343492899, 0.0 ], [ -89.509483159290099, 42.959055828922004, 0.0 ] ] } },
{ "type": "Feature", "properties": { "id": 8, "hrt": 100, "maxHrt": [ 0 ] }, "geometry": { "type": "LineString", "coordinates": [ [ -89.509483159290099, 42.959055828922004, 0.0 ], [ -89.509358352754901, 42.95901324885493, 0.0 ], [ -89.509347204823953, 42.959003525847486, 0.0 ], [ -89.509306217318439, 42.958996904144136, 0.0 ], [ -89.509266990012549, 42.958952647696464, 0.0 ], [ -89.509183170982851, 42.9588928847283, 0.0 ], [ -89.509100525419584, 42.958810155346001, 0.0 ], [ -89.509093903716249, 42.958802108719148, 0.0 ], [ -89.509018801865651, 42.958746285245375, 0.0 ], [ -89.508990722490694, 42.958716278032753, 0.0 ] ] } },
{ "type": "Feature", "properties": { "id": 9, "hrt": 90, "maxHrt": [ 0 ] }, "geometry": { "type": "LineString", "coordinates": [ [ -89.508990722490694, 42.958716278032753, 0.0 ], [ -89.508919895410614, 42.958657939988086, 0.0 ], [ -89.508857534052524, 42.95856515232223, 0.0 ], [ -89.508857198776411, 42.958518213665606, 0.0 ], [ -89.508860048623418, 42.958514190352176, 0.0 ], [ -89.508861808823042, 42.958512094876433, 0.0 ], [ -89.508862647013345, 42.958511256686137, 0.0 ], [ -89.508861222089834, 42.958508490658161, 0.0 ], [ -89.508869352535712, 42.958437160663898, 0.0 ], [ -89.508860048623418, 42.958289639171653, 0.0 ] ] } },
{ "type": "Feature", "properties": { "id": 10, "hrt": 100, "maxHrt": [ 0 ] }, "geometry": { "type": "LineString", "coordinates": [ [ -89.508860048623418, 42.958289639171653, 0.0 ], [ -89.508791819933251, 42.958160306408843, 0.0 ], [ -89.508744797457595, 42.958124515683167, 0.0 ], [ -89.508731805508006, 42.958116888151466, 0.0 ], [ -89.508719316472579, 42.958114038304458, 0.0 ], [ -89.508704815780447, 42.958112361923867, 0.0 ], [ -89.508644717536157, 42.958108422429468, 0.0 ], [ -89.508488981778996, 42.95811638523729, 0.0 ], [ -89.50832595376626, 42.958117391065649, 0.0 ], [ -89.508308603227121, 42.958113535390282, 0.0 ] ] } },
{ "type": "Feature", "properties": { "id": 11, "hrt": 90, "maxHrt": [ 0 ] }, "geometry": { "type": "LineString", "coordinates": [ [ -89.508308603227121, 42.958113535390282, 0.0 ], [ -89.508274321243974, 42.9581085062485, 0.0 ], [ -89.508170385647162, 42.958106829867909, 0.0 ], [ -89.508051614082106, 42.958084617825037, 0.0 ], [ -89.507939128944258, 42.958088222043315, 0.0 ], [ -89.507822285216875, 42.958096603946281, 0.0 ], [ -89.50775648727857, 42.958088808776523, 0.0 ], [ -89.50766596272652, 42.958100291983591, 0.0 ], [ -89.507566134262163, 42.958098112688816, 0.0 ], [ -89.507442249736286, 42.958118061617881, 0.0 ], [ -89.507327166208526, 42.958113535390282, 0.0 ], [ -89.507210322481143, 42.958124431864142, 0.0 ], [ -89.507170592261076, 42.958106746048877, 0.0 ], [ -89.507179896173369, 42.958099118517175, 0.0 ], [ -89.507179728535306, 42.958099118517175, 0.0 ] ] } },
{ "type": "Feature", "properties": { "id": 12, "hrt": 100, "maxHrt": [ 0 ] }, "geometry": { "type": "LineString", "coordinates": [ [ -89.507179728535306, 42.958099118517175, 0.0 ], [ -89.507109739645514, 42.958106746048877, 0.0 ], [ -89.507062800988891, 42.958109595895884, 0.0 ], [ -89.506996583955441, 42.958116971970497, 0.0 ], [ -89.50693782681563, 42.958116888151466, 0.0 ], [ -89.506856689994905, 42.95810817097238, 0.0 ], [ -89.506794580093896, 42.958104650573134, 0.0 ], [ -89.506724758842168, 42.95810389620187, 0.0 ], [ -89.506632977004671, 42.958113954485427, 0.0 ], [ -89.506580506292082, 42.958118564532064, 0.0 ], [ -89.506464165478874, 42.958117391065649, 0.0 ], [ -89.506330977040705, 42.958118061617881, 0.0 ], [ -89.506175995654814, 42.958105656401493, 0.0 ], [ -89.506159148029852, 42.958103728563806, 0.0 ], [ -89.506069880763235, 42.958100040526503, 0.0 ], [ -89.506000562425683, 42.958092161537714, 0.0 ], [ -89.505834433108845, 42.958065423267243, 0.0 ], [ -89.505664364297616, 42.958066429095595, 0.0 ], [ -89.50551189748262, 42.958065926181419, 0.0 ], [ -89.505479627156191, 42.95807581682692, 0.0 ], [ -89.505399328525755, 42.958091071890323, 0.0 ], [ -89.50528382590285, 42.958073805170208, 0.0 ], [ -89.505214172289172, 42.958057879554566, 0.0 ], [ -89.505212076813436, 42.958056454631063, 0.0 ], [ -89.505123061003914, 42.95806265723926, 0.0 ] ] } },
{ "type": "Feature", "properties": { "id": 13, "hrt": 90, "maxHrt": [ 0 ] }, "geometry": { "type": "LineString", "coordinates": [ [ -89.505123061003914, 42.95806265723926, 0.0 ], [ -89.504966067961305, 42.958059723573221, 0.0 ] ] } },
{ "type": "Feature", "properties": { "id": 14, "hrt": 100, "maxHrt": [ 0 ] }, "geometry": { "type": "LineString", "coordinates": [ [ -89.504966067961305, 42.958059723573221, 0.0 ], [ -89.504828353295537, 42.958059723573221, 0.0 ], [ -89.504651914238039, 42.958054107698231, 0.0 ], [ -89.504508164602129, 42.958053018050848, 0.0 ], [ -89.504413281460529, 42.958063830705676, 0.0 ], [ -89.504358715272204, 42.958063411610532, 0.0 ], [ -89.504270453833939, 42.95805963975419, 0.0 ], [ -89.504200464944162, 42.958054023879207, 0.0 ], [ -89.504173139940477, 42.958051341670256, 0.0 ], [ -89.503991755560236, 42.958056538450094, 0.0 ], [ -89.50397406974497, 42.958060813220605, 0.0 ], [ -89.503945235998771, 42.958059723573221, 0.0 ], [ -89.503930902944688, 42.958056873726214, 0.0 ] ] } },
{ "type": "Feature", "properties": { "id": 15, "hrt": 100, "maxHrt": [ 0 ] }, "geometry": { "type": "LineString", "coordinates": [ [ -89.503930902944688, 42.958056873726214, 0.0 ], [ -89.50374893183124, 42.958081851797061, 0.0 ] ] } },
{ "type": "Feature", "properties": { "id": 16, "hrt": 110, "maxHrt": [ 0 ] }, "geometry": { "type": "LineString", "coordinates": [ [ -89.50374893183124, 42.958081851797061, 0.0 ], [ -89.503610714251295, 42.958129880101069, 0.0 ], [ -89.503444920210569, 42.958207328884498, 0.0 ] ] } },
{ "type": "Feature", "properties": { "id": 17, "hrt": 110, "maxHrt": [ 0 ] }, "geometry": { "type": "LineString", "coordinates": [ [ -89.503444920210569, 42.958207328884498, 0.0 ], [ -89.503413152798316, 42.958243790162413, 0.0 ], [ -89.503409380941989, 42.958243538705325, 0.0 ], [ -89.50340803983751, 42.958243454886293, 0.0 ], [ -89.503407872199446, 42.958243706343382, 0.0 ] ] } },
{ "type": "Feature", "properties": { "id": 18, "hrt": 100, "maxHrt": [ 0 ] }, "geometry": { "type": "LineString", "coordinates": [ [ -89.503407872199446, 42.958243706343382, 0.0 ], [ -89.503405944361759, 42.958242616695998, 0.0 ], [ -89.50340577672371, 42.958242616695998, 0.0 ] ] } },
{ "type": "Feature", "properties": { "id": 19, "hrt": 90, "maxHrt": [ 0 ] }, "geometry": { "type": "LineString", "coordinates": [ [ -89.50340577672371, 42.958242616695998, 0.0 ], [ -89.503405357628552, 42.958241610867638, 0.0 ], [ -89.503404854714375, 42.958241024134431, 0.0 ] ] } },
{ "type": "Feature", "properties": { "id": 20, "hrt": 80, "maxHrt": [ 0 ] }, "geometry": { "type": "LineString", "coordinates": [ [ -89.503404854714375, 42.958241024134431, 0.0 ], [ -89.503403262152816, 42.958236497906832, 0.0 ], [ -89.503403094514752, 42.958236246449744, 0.0 ], [ -89.503352384001801, 42.958267930042965, 0.0 ], [ -89.503265715125096, 42.958337583656629, 0.0 ], [ -89.503260099250113, 42.958342109884235, 0.0 ], [ -89.503261272716529, 42.958381672466246, 0.0 ] ] } },
{ "type": "Feature", "properties": { "id": 21, "hrt": 90, "maxHrt": [ 0 ] }, "geometry": { "type": "LineString", "coordinates": [ [ -89.503261272716529, 42.958381672466246, 0.0 ], [ -89.503249370414309, 42.958433724083683, 0.0 ], [ -89.503244089815439, 42.958444369100448, 0.0 ] ] } },
{ "type": "Feature", "properties": { "id": 22, "hrt": 100, "maxHrt": [ 0 ] }, "geometry": { "type": "LineString", "coordinates": [ [ -89.503244089815439, 42.958444369100448, 0.0 ], [ -89.503163120632763, 42.958516621104039, 0.0 ], [ -89.503141411504075, 42.958521147331645, 0.0 ], [ -89.503140321856691, 42.958529780691698, 0.0 ], [ -89.503143674617874, 42.958545035755101, 0.0 ], [ -89.503150463959287, 42.958589962755013, 0.0 ], [ -89.503148284664519, 42.958636314678429, 0.0 ], [ -89.50313043121119, 42.95875408041514, 0.0 ], [ -89.503125234431351, 42.958789535864696, 0.0 ], [ -89.503084330744855, 42.958899506431642, 0.0 ], [ -89.503086258582542, 42.958919371541683, 0.0 ], [ -89.503085168935158, 42.95891995827489, 0.0 ], [ -89.50308617476351, 42.958919455360707, 0.0 ] ] } },
{ "type": "Feature", "properties": { "id": 23, "hrt": 90, "maxHrt": [ 0 ] }, "geometry": { "type": "LineString", "coordinates": [ [ -89.50308617476351, 42.958919455360707, 0.0 ], [ -89.503085168935158, 42.958920125912947, 0.0 ], [ -89.503144512808177, 42.958971423159113, 0.0 ], [ -89.503263452011296, 42.95906102570185, 0.0 ], [ -89.503397981553945, 42.959180551638177, 0.0 ], [ -89.503399406477456, 42.959268310162258, 0.0 ], [ -89.50339840064909, 42.959278452264854, 0.0 ], [ -89.50339454497373, 42.959327737854309, 0.0 ], [ -89.503419187768458, 42.959418346225398, 0.0 ] ] } },
{ "type": "Feature", "properties": { "id": 24, "hrt": 100, "maxHrt": [ 0 ] }, "geometry": { "type": "LineString", "coordinates": [ [ -89.503419187768458, 42.959418346225398, 0.0 ], [ -89.503433185546413, 42.959445671229076, 0.0 ], [ -89.50343603539342, 42.959447347609668, 0.0 ], [ -89.503438382326252, 42.959448185799964, 0.0 ], [ -89.503438382326252, 42.959448185799964, 0.0 ], [ -89.503420025958746, 42.959464446691726, 0.0 ] ] } },
{ "type": "Feature", "properties": { "id": 25, "hrt": 110, "maxHrt": [ 0 ] }, "geometry": { "type": "LineString", "coordinates": [ [ -89.503420025958746, 42.959464446691726, 0.0 ], [ -89.50333218361564, 42.959533848848302, 0.0 ], [ -89.503320365132453, 42.959548265721409, 0.0 ], [ -89.50323428298897, 42.959591432521698, 0.0 ], [ -89.503199498091647, 42.95963669479773, 0.0 ], [ -89.50322305123899, 42.959664774172673, 0.0 ], [ -89.503229840580403, 42.959671898790198, 0.0 ], [ -89.503266804772494, 42.959719759456149, 0.0 ], [ -89.503325142817147, 42.959777594586633, 0.0 ], [ -89.503374009311457, 42.959857390302894, 0.0 ], [ -89.503413655712492, 42.959929390849396, 0.0 ], [ -89.503462522206803, 42.959975742772812, 0.0 ] ] } },
{ "type": "Feature", "properties": { "id": 26, "hrt": 100, "maxHrt": [ 0 ] }, "geometry": { "type": "LineString", "coordinates": [ [ -89.503462522206803, 42.959975742772812, 0.0 ], [ -89.503506275740307, 42.960032236798817, 0.0 ], [ -89.503517926585431, 42.96006333365883, 0.0 ], [ -89.503516250204839, 42.960063082201742, 0.0 ], [ -89.503515998747744, 42.960062076373383, 0.0 ], [ -89.503517591309304, 42.960071128828588, 0.0 ] ] } },
{ "type": "Feature", "properties": { "id": 27, "hrt": 110, "maxHrt": [ 0 ] }, "geometry": { "type": "LineString", "coordinates": [ [ -89.503517591309304, 42.960071128828588, 0.0 ], [ -89.503682630978759, 42.960165089960867, 0.0 ], [ -89.503774664273351, 42.960189481298507, 0.0 ], [ -89.503887149411199, 42.960227786595077, 0.0 ], [ -89.503902069198475, 42.96022552348127, 0.0 ], [ -89.503959401414775, 42.960204820180941, 0.0 ], [ -89.50397314773565, 42.960204987818997, 0.0 ], [ -89.504034503265373, 42.960182524319045, 0.0 ], [ -89.504044142453793, 42.960175986434727, 0.0 ], [ -89.504126788017061, 42.960126700845272, 0.0 ], [ -89.504257294246287, 42.960074733046866, 0.0 ] ] } },
{ "type": "Feature", "properties": { "id": 28, "hrt": 100, "maxHrt": [ 0 ] }, "geometry": { "type": "LineString", "coordinates": [ [ -89.504257294246287, 42.960074733046866, 0.0 ], [ -89.504485784921215, 42.960021256505925, 0.0 ], [ -89.504692147372296, 42.959978089705643, 0.0 ], [ -89.50473908602892, 42.959968282879167, 0.0 ] ] } },
{ "type": "Feature", "properties": { "id": 29, "hrt": 110, "maxHrt": [ 0 ] }, "geometry": { "type": "LineString", "coordinates": [ [ -89.50473908602892, 42.959968282879167, 0.0 ], [ -89.50477965443929, 42.959956548215011, 0.0 ], [ -89.504938826776666, 42.959925702812086, 0.0 ], [ -89.505032117356706, 42.959876249584575, 0.0 ], [ -89.505063381854768, 42.959854288998791, 0.0 ], [ -89.505078134003995, 42.959847415838361, 0.0 ], [ -89.505159354643766, 42.959812630941038, 0.0 ], [ -89.505274521990557, 42.959739876023271, 0.0 ], [ -89.505300170613637, 42.959725962064347, 0.0 ], [ -89.505354150068754, 42.959712299562504, 0.0 ], [ -89.505410727913784, 42.95969570339463, 0.0 ], [ -89.505522793956487, 42.959655637898436, 0.0 ], [ -89.50561482725108, 42.959619344258584, 0.0 ], [ -89.505642906626022, 42.959614398935834, 0.0 ], [ -89.505665705402095, 42.959617248782841, 0.0 ], [ -89.505712895515813, 42.959640215196977, 0.0 ], [ -89.505787075357077, 42.959701151631556, 0.0 ] ] } },
{ "type": "Feature", "properties": { "id": 30, "hrt": 120, "maxHrt": [ 0 ] }, "geometry": { "type": "LineString", "coordinates": [ [ -89.505787075357077, 42.959701151631556, 0.0 ], [ -89.505896794466935, 42.959926038088206, 0.0 ] ] } },
{ "type": "Feature", "properties": { "id": 31, "hrt": 110, "maxHrt": [ 0 ] }, "geometry": { "type": "LineString", "coordinates": [ [ -89.505896794466935, 42.959926038088206, 0.0 ], [ -89.505892016782241, 42.960020334496605, 0.0 ] ] } },
{ "type": "Feature", "properties": { "id": 32, "hrt": 120, "maxHrt": [ 0 ] }, "geometry": { "type": "LineString", "coordinates": [ [ -89.505892016782241, 42.960020334496605, 0.0 ], [ -89.505913222996753, 42.960156205143726, 0.0 ], [ -89.505942392019094, 42.960236922869306, 0.0 ], [ -89.505977763649611, 42.960293584533375, 0.0 ], [ -89.506109610983316, 42.960380588686192, 0.0 ], [ -89.506253360619226, 42.960475807103911, 0.0 ] ] } },
{ "type": "Feature", "properties": { "id": 33, "hrt": 110, "maxHrt": [ 0 ] }, "geometry": { "type": "LineString", "coordinates": [ [ -89.506253360619226, 42.960475807103911, 0.0 ], [ -89.506311614844847, 42.960514950590778, 0.0 ], [ -89.506351177426865, 42.960567672760448, 0.0 ], [ -89.506422926516279, 42.960677978603513, 0.0 ], [ -89.506517306743703, 42.960767078232074, 0.0 ], [ -89.506666001702371, 42.960861458459497, 0.0 ], [ -89.506796927026727, 42.960890627481831, 0.0 ], [ -89.506888708864238, 42.96092256253214, 0.0 ] ] } },
{ "type": "Feature", "properties": { "id": 34, "hrt": 100, "maxHrt": [ 0 ] }, "geometry": { "type": "LineString", "coordinates": [ [ -89.506888708864238, 42.96092256253214, 0.0 ], [ -89.506956350821198, 42.960934297196296, 0.0 ] ] } },
{ "type": "Feature", "properties": { "id": 35, "hrt": 110, "maxHrt": [ 0 ] }, "geometry": { "type": "LineString", "coordinates": [ [ -89.506956350821198, 42.960934297196296, 0.0 ], [ -89.507230606686335, 42.960801695491334, 0.0 ] ] } },
{ "type": "Feature", "properties": { "id": 36, "hrt": 100, "maxHrt": [ 0 ] }, "geometry": { "type": "LineString", "coordinates": [ [ -89.507230606686335, 42.960801695491334, 0.0 ], [ -89.507342085995816, 42.960683259202384, 0.0 ], [ -89.50742682703482, 42.960590220079432, 0.0 ], [ -89.50744493194523, 42.960568175674631, 0.0 ], [ -89.507486254726871, 42.960509753810939, 0.0 ], [ -89.507521961633515, 42.960465329725203, 0.0 ], [ -89.507651294396325, 42.960365082165701, 0.0 ], [ -89.507691276073487, 42.960349491826179, 0.0 ], [ -89.507722289114469, 42.960347563988492, 0.0 ] ] } },
{ "type": "Feature", "properties": { "id": 37, "hrt": 110, "maxHrt": [ 0 ] }, "geometry": { "type": "LineString", "coordinates": [ [ -89.507722289114469, 42.960347563988492, 0.0 ], [ -89.507778028769209, 42.960359298652648, 0.0 ], [ -89.507862518351132, 42.960400789072345, 0.0 ], [ -89.507903841132759, 42.960432640303623, 0.0 ], [ -89.507916078711105, 42.960435406331605, 0.0 ], [ -89.507947427028199, 42.960434735779366, 0.0 ], [ -89.507949857780062, 42.960421911467826, 0.0 ], [ -89.507947762304326, 42.960425431867073, 0.0 ], [ -89.507947762304326, 42.960425431867073, 0.0 ], [ -89.507943068438664, 42.960431299199151, 0.0 ], [ -89.507958658778179, 42.960444961700993, 0.0 ], [ -89.50798874980984, 42.960470945600193, 0.0 ], [ -89.508058990156712, 42.960544957803407, 0.0 ] ] } },
{ "type": "Feature", "properties": { "id": 38, "hrt": 110, "maxHrt": [ 0 ] }, "geometry": { "type": "LineString", "coordinates": [ [ -89.508058990156712, 42.960544957803407, 0.0 ], [ -89.50822897514891, 42.96071083566315, 0.0 ], [ -89.50834246611511, 42.960829439590157, 0.0 ], [ -89.508386303467631, 42.960877803170284, 0.0 ], [ -89.508464338984268, 42.960951647735442, 0.0 ], [ -89.508552432784469, 42.961025911395744, 0.0 ], [ -89.508569950961672, 42.961033036013262, 0.0 ] ] } },
{ "type": "Feature", "properties": { "id": 39, "hrt": 120, "maxHrt": [ 1 ] }, "geometry": { "type": "LineString", "coordinates": [ [ -89.508569950961672, 42.961033036013262, 0.0 ], [ -89.508683274289808, 42.961046698515105, 0.0 ], [ -89.508811433586203, 42.961004118448024, 0.0 ], [ -89.508860383899531, 42.960997580563706, 0.0 ], [ -89.508864910127144, 42.961000262772657, 0.0 ], [ -89.508905562356532, 42.960988192832382, 0.0 ], [ -89.509006983382463, 42.960973943597338, 0.0 ], [ -89.509133214841171, 42.960933961920176, 0.0 ], [ -89.509272857344627, 42.960927172578771, 0.0 ], [ -89.509278389400578, 42.960928262226155, 0.0 ], [ -89.509300098529266, 42.960932117901521, 0.0 ], [ -89.509311917012454, 42.960940080709342, 0.0 ], [ -89.509379978064558, 42.960957095972368, 0.0 ], [ -89.509498749629628, 42.960985426804406, 0.0 ], [ -89.509512076855344, 42.960990036851037, 0.0 ], [ -89.509657335233797, 42.961056337703518, 0.0 ], [ -89.509672255021073, 42.961077124822879, 0.0 ], [ -89.509686420437092, 42.961081818688541, 0.0 ], [ -89.509687761541571, 42.9610828245169, 0.0 ] ] } }
]
}
