{
"type": "FeatureCollection",
"name": "dog_GPS",
"features": [
{ "type": "Feature", "properties": { "id": 1 }, "geometry": { "type": "LineString", "coordinates": [ [ -89.280129298566976, 43.088247059016609, 0.0 ], [ -89.280039025469819, 43.088173549725781, 0.0 ], [ -89.279954284428754, 43.088102890282038, 0.0 ], [ -89.279944729059139, 43.088087467580195, 0.0 ], [ -89.279872141777673, 43.08804815645432, 0.0 ], [ -89.279774911700869, 43.087978502838943, 0.0 ], [ -89.279770134016061, 43.087971126764153, 0.0 ], [ -89.279691930859485, 43.087902478977156, 0.0 ], [ -89.279562095179344, 43.087901137872649, 0.0 ] ] } },
{ "type": "Feature", "properties": { "id": 2 }, "geometry": { "type": "LineString", "coordinates": [ [ -89.280129298566976, 43.088247059016609, 0.0 ], [ -89.280039025469819, 43.088173549725781, 0.0 ], [ -89.279954284428754, 43.088102890282038, 0.0 ], [ -89.279944729059139, 43.088087467580195, 0.0 ], [ -89.279872141777673, 43.08804815645432, 0.0 ], [ -89.279774911700869, 43.087978502838943, 0.0 ], [ -89.279770134016061, 43.087971126764153, 0.0 ], [ -89.279691930859485, 43.087902478977156, 0.0 ], [ -89.279562095179344, 43.087901137872649, 0.0 ], [ -89.279523789881864, 43.087913375451251, 0.0 ], [ -89.279482299461165, 43.0878946838072, 0.0 ], [ -89.279442233963991, 43.087917398764773, 0.0 ], [ -89.279393367468515, 43.087965510888971, 0.0 ], [ -89.279369562863508, 43.087984621628188, 0.0 ], [ -89.279324803500572, 43.088033152847558, 0.0 ], [ -89.279205109923282, 43.088132059304961, 0.0 ], [ -89.279057001694241, 43.088217806174399, 0.0 ], [ -89.278995227067867, 43.088227529182056, 0.0 ], [ -89.278984079136649, 43.088217889993381, 0.0 ], [ -89.278890285640145, 43.088145973264197, 0.0 ], [ -89.278736561535979, 43.087992835893218, 0.0 ], [ -89.27872616797606, 43.087982609971334, 0.0 ], [ -89.278660034760023, 43.087919745697562, 0.0 ], [ -89.278656849636818, 43.087914046003405, 0.0 ], [ -89.278601780532981, 43.087873393773002, 0.0 ], [ -89.278453337027813, 43.087738864227099, 0.0 ], [ -89.278291650115648, 43.087598467348926, 0.0 ], [ -89.278143793343702, 43.08745455007147, 0.0 ], [ -89.27812124602417, 43.08742529722938, 0.0 ], [ -89.277987219392458, 43.087316164850058, 0.0 ], [ -89.27785855717876, 43.087196974186952, 0.0 ], [ -89.277730900793472, 43.087093038587604, 0.0 ], [ -89.277679435907999, 43.087048698319819, 0.0 ], [ -89.277614476158405, 43.086980385808964, 0.0 ], [ -89.277459410949746, 43.086840910940168, 0.0 ], [ -89.277451112865606, 43.086832948132148, 0.0 ], [ -89.277338208629885, 43.086721049724808, 0.0 ], [ -89.277186915277639, 43.086592974244326, 0.0 ], [ -89.277128996326709, 43.086564475773528, 0.0 ], [ -89.277105946093002, 43.086578054456638, 0.0 ], [ -89.277096809818545, 43.086588950930775, 0.0 ], [ -89.277016008271957, 43.086653826861316, 0.0 ], [ -89.276907462625886, 43.086695401101025, 0.0 ], [ -89.27679900079886, 43.086725324495347, 0.0 ], [ -89.276728173717061, 43.086752649499665, 0.0 ], [ -89.276530696078339, 43.086801432176102, 0.0 ], [ -89.276276808231273, 43.086810819907605, 0.0 ], [ -89.276259625329772, 43.086812328650183, 0.0 ], [ -89.276005318387547, 43.086823392762334, 0.0 ], [ -89.275975478812242, 43.086825236781031, 0.0 ], [ -89.275804404168539, 43.086827499894852, 0.0 ], [ -89.275618745013276, 43.086839150740246, 0.0 ], [ -89.275423614307428, 43.086834875969593, 0.0 ], [ -89.275248600169206, 43.0868434255108, 0.0 ], [ -89.275054726748863, 43.086848538471692, 0.0 ], [ -89.274822548031011, 43.086854657260986, 0.0 ], [ -89.274684833361889, 43.086859770221906, 0.0 ], [ -89.274524822830358, 43.086867565391834, 0.0 ], [ -89.274274036287451, 43.086866894839531, 0.0 ], [ -89.274244196712175, 43.086866224287284, 0.0 ], [ -89.273982932790318, 43.086864464087576, 0.0 ], [ -89.273933982475796, 43.086867062477559, 0.0 ], [ -89.273797441273132, 43.086829176275209, 0.0 ], [ -89.273765170945921, 43.086709817974032, 0.0 ], [ -89.27376852370719, 43.086621640352675, 0.0 ], [ -89.273756453766623, 43.086569504914948, 0.0 ], [ -89.273746814577976, 43.086472610114292, 0.0 ], [ -89.273785874246755, 43.086310001192743, 0.0 ], [ -89.273804984985972, 43.086212771115974, 0.0 ], [ -89.273847900330225, 43.086078409208149, 0.0 ], [ -89.273863658308187, 43.085973803056561, 0.0 ], [ -89.27389919757762, 43.085830221055225, 0.0 ], [ -89.273945800959254, 43.085719328476287, 0.0 ], [ -89.273953931405345, 43.085599970175132, 0.0 ], [ -89.273958960547247, 43.085522605208858, 0.0 ], [ -89.273934485389987, 43.085502823917345, 0.0 ], [ -89.273807248099843, 43.085425123674938, 0.0 ], [ -89.273719321935573, 43.085386818377437, 0.0 ], [ -89.273649668320218, 43.085371563313643, 0.0 ], [ -89.273644890635424, 43.085363684324676, 0.0 ], [ -89.273611949755946, 43.085359325735013, 0.0 ], [ -89.273585714399019, 43.085362343220133, 0.0 ], [ -89.273505248128572, 43.085359912468221, 0.0 ], [ -89.273386225103522, 43.085367456181061, 0.0 ], [ -89.273282121866146, 43.085366785628771, 0.0 ], [ -89.273117082192698, 43.08535513478337, 0.0 ], [ -89.27291851490655, 43.085343651575997, 0.0 ], [ -89.272675272076512, 43.085364941610031, 0.0 ], [ -89.272583993150988, 43.085368378190289, 0.0 ], [ -89.272434459998408, 43.085372652960899, 0.0 ], [ -89.272215776144662, 43.085380448130806, 0.0 ], [ -89.272193564101258, 43.085469547761534, 0.0 ], [ -89.272199263795414, 43.085610447553826, 0.0 ], [ -89.272222230210104, 43.08579317304298, 0.0 ], [ -89.272235138340989, 43.085899790851329, 0.0 ], [ -89.272251483052159, 43.086088635129776, 0.0 ], [ -89.272265145554343, 43.086187206311088, 0.0 ], [ -89.272250812499934, 43.086305726421912, 0.0 ], [ -89.272245699538985, 43.086445620385852, 0.0 ], [ -89.272257266565347, 43.08661996397182, 0.0 ] ] } },
{ "type": "Feature", "properties": { "id": 3 }, "geometry": { "type": "LineString", "coordinates": [ [ -89.280129298566976, 43.088247059016609, 0.0 ], [ -89.280039025469819, 43.088173549725781, 0.0 ], [ -89.279954284428754, 43.088102890282038, 0.0 ], [ -89.279944729059139, 43.088087467580195, 0.0 ], [ -89.279872141777673, 43.08804815645432, 0.0 ], [ -89.279774911700869, 43.087978502838943, 0.0 ], [ -89.279770134016061, 43.087971126764153, 0.0 ], [ -89.279691930859485, 43.087902478977156, 0.0 ], [ -89.279562095179344, 43.087901137872649, 0.0 ], [ -89.279523789881864, 43.087913375451251, 0.0 ], [ -89.279482299461165, 43.0878946838072, 0.0 ], [ -89.279442233963991, 43.087917398764773, 0.0 ], [ -89.279393367468515, 43.087965510888971, 0.0 ], [ -89.279369562863508, 43.087984621628188, 0.0 ], [ -89.279324803500572, 43.088033152847558, 0.0 ], [ -89.279205109923282, 43.088132059304961, 0.0 ], [ -89.279057001694241, 43.088217806174399, 0.0 ], [ -89.278995227067867, 43.088227529182056, 0.0 ], [ -89.278984079136649, 43.088217889993381, 0.0 ], [ -89.278890285640145, 43.088145973264197, 0.0 ], [ -89.278736561535979, 43.087992835893218, 0.0 ], [ -89.27872616797606, 43.087982609971334, 0.0 ], [ -89.278660034760023, 43.087919745697562, 0.0 ], [ -89.278656849636818, 43.087914046003405, 0.0 ], [ -89.278601780532981, 43.087873393773002, 0.0 ], [ -89.278453337027813, 43.087738864227099, 0.0 ], [ -89.278291650115648, 43.087598467348926, 0.0 ], [ -89.278143793343702, 43.08745455007147, 0.0 ], [ -89.27812124602417, 43.08742529722938, 0.0 ], [ -89.277987219392458, 43.087316164850058, 0.0 ], [ -89.27785855717876, 43.087196974186952, 0.0 ], [ -89.277730900793472, 43.087093038587604, 0.0 ], [ -89.277679435907999, 43.087048698319819, 0.0 ], [ -89.277614476158405, 43.086980385808964, 0.0 ], [ -89.277459410949746, 43.086840910940168, 0.0 ], [ -89.277451112865606, 43.086832948132148, 0.0 ], [ -89.277338208629885, 43.086721049724808, 0.0 ], [ -89.277186915277639, 43.086592974244326, 0.0 ], [ -89.277128996326709, 43.086564475773528, 0.0 ], [ -89.277105946093002, 43.086578054456638, 0.0 ], [ -89.277096809818545, 43.086588950930775, 0.0 ], [ -89.277016008271957, 43.086653826861316, 0.0 ], [ -89.276907462625886, 43.086695401101025, 0.0 ], [ -89.27679900079886, 43.086725324495347, 0.0 ], [ -89.276728173717061, 43.086752649499665, 0.0 ], [ -89.276530696078339, 43.086801432176102, 0.0 ], [ -89.276276808231273, 43.086810819907605, 0.0 ], [ -89.276259625329772, 43.086812328650183, 0.0 ], [ -89.276005318387547, 43.086823392762334, 0.0 ], [ -89.275975478812242, 43.086825236781031, 0.0 ], [ -89.275804404168539, 43.086827499894852, 0.0 ], [ -89.275618745013276, 43.086839150740246, 0.0 ], [ -89.275423614307428, 43.086834875969593, 0.0 ], [ -89.275248600169206, 43.0868434255108, 0.0 ], [ -89.275054726748863, 43.086848538471692, 0.0 ], [ -89.274822548031011, 43.086854657260986, 0.0 ], [ -89.274684833361889, 43.086859770221906, 0.0 ], [ -89.274524822830358, 43.086867565391834, 0.0 ], [ -89.274274036287451, 43.086866894839531, 0.0 ], [ -89.274244196712175, 43.086866224287284, 0.0 ], [ -89.273982932790318, 43.086864464087576, 0.0 ], [ -89.273933982475796, 43.086867062477559, 0.0 ], [ -89.273797441273132, 43.086829176275209, 0.0 ], [ -89.273765170945921, 43.086709817974032, 0.0 ], [ -89.27376852370719, 43.086621640352675, 0.0 ], [ -89.273756453766623, 43.086569504914948, 0.0 ], [ -89.273746814577976, 43.086472610114292, 0.0 ], [ -89.273785874246755, 43.086310001192743, 0.0 ], [ -89.273804984985972, 43.086212771115974, 0.0 ], [ -89.273847900330225, 43.086078409208149, 0.0 ], [ -89.273863658308187, 43.085973803056561, 0.0 ], [ -89.27389919757762, 43.085830221055225, 0.0 ], [ -89.273945800959254, 43.085719328476287, 0.0 ], [ -89.273953931405345, 43.085599970175132, 0.0 ], [ -89.273958960547247, 43.085522605208858, 0.0 ], [ -89.273934485389987, 43.085502823917345, 0.0 ], [ -89.273807248099843, 43.085425123674938, 0.0 ], [ -89.273719321935573, 43.085386818377437, 0.0 ], [ -89.273649668320218, 43.085371563313643, 0.0 ], [ -89.273644890635424, 43.085363684324676, 0.0 ], [ -89.273611949755946, 43.085359325735013, 0.0 ], [ -89.273585714399019, 43.085362343220133, 0.0 ], [ -89.273505248128572, 43.085359912468221, 0.0 ], [ -89.273386225103522, 43.085367456181061, 0.0 ], [ -89.273282121866146, 43.085366785628771, 0.0 ], [ -89.273117082192698, 43.08535513478337, 0.0 ], [ -89.27291851490655, 43.085343651575997, 0.0 ], [ -89.272675272076512, 43.085364941610031, 0.0 ], [ -89.272583993150988, 43.085368378190289, 0.0 ], [ -89.272434459998408, 43.085372652960899, 0.0 ], [ -89.272215776144662, 43.085380448130806, 0.0 ], [ -89.272193564101258, 43.085469547761534, 0.0 ], [ -89.272199263795414, 43.085610447553826, 0.0 ], [ -89.272222230210104, 43.08579317304298, 0.0 ], [ -89.272235138340989, 43.085899790851329, 0.0 ], [ -89.272251483052159, 43.086088635129776, 0.0 ], [ -89.272265145554343, 43.086187206311088, 0.0 ], [ -89.272250812499934, 43.086305726421912, 0.0 ], [ -89.272245699538985, 43.086445620385852, 0.0 ], [ -89.272257266565347, 43.08661996397182, 0.0 ], [ -89.272256176917949, 43.086678302017901, 0.0 ], [ -89.272256596013108, 43.086682157693346, 0.0 ], [ -89.272260451688553, 43.086699759690021, 0.0 ], [ -89.272261708974042, 43.08677645410404, 0.0 ], [ -89.272266905754009, 43.086932106045914, 0.0 ], [ -89.272263888268853, 43.087099073557106, 0.0 ], [ -89.27226179279306, 43.08715598667964, 0.0 ], [ -89.272268749772707, 43.087226897580472, 0.0 ], [ -89.272248884662204, 43.087354470146735, 0.0 ], [ -89.27227721549491, 43.087527640266266, 0.0 ], [ -89.272290794178048, 43.0877031573187, 0.0 ], [ -89.272292219101573, 43.087854031575766, 0.0 ], [ -89.272275539114261, 43.088045809520345, 0.0 ], [ -89.272254081442142, 43.088218895820823, 0.0 ], [ -89.272291632368365, 43.088296344606135, 0.0 ], [ -89.272291045635143, 43.088310593841513, 0.0 ], [ -89.272273946552659, 43.088466748697606, 0.0 ], [ -89.272277550771037, 43.088655257699934, 0.0 ], [ -89.272276628761688, 43.088667076183405, 0.0 ], [ -89.272267660125294, 43.088805126128648, 0.0 ], [ -89.272295068948665, 43.088872181354027, 0.0 ], [ -89.272329099475542, 43.088873857734661, 0.0 ], [ -89.272582652046481, 43.088858015937696, 0.0 ] ] } },
{ "type": "Feature", "properties": { "id": 4 }, "geometry": { "type": "LineString", "coordinates": [ [ -89.280129298566976, 43.088247059016609, 0.0 ], [ -89.280039025469819, 43.088173549725781, 0.0 ], [ -89.279954284428754, 43.088102890282038, 0.0 ], [ -89.279944729059139, 43.088087467580195, 0.0 ], [ -89.279872141777673, 43.08804815645432, 0.0 ], [ -89.279774911700869, 43.087978502838943, 0.0 ], [ -89.279770134016061, 43.087971126764153, 0.0 ], [ -89.279691930859485, 43.087902478977156, 0.0 ], [ -89.279562095179344, 43.087901137872649, 0.0 ], [ -89.279523789881864, 43.087913375451251, 0.0 ], [ -89.279482299461165, 43.0878946838072, 0.0 ], [ -89.279442233963991, 43.087917398764773, 0.0 ], [ -89.279393367468515, 43.087965510888971, 0.0 ], [ -89.279369562863508, 43.087984621628188, 0.0 ], [ -89.279324803500572, 43.088033152847558, 0.0 ], [ -89.279205109923282, 43.088132059304961, 0.0 ], [ -89.279057001694241, 43.088217806174399, 0.0 ], [ -89.278995227067867, 43.088227529182056, 0.0 ], [ -89.278984079136649, 43.088217889993381, 0.0 ], [ -89.278890285640145, 43.088145973264197, 0.0 ], [ -89.278736561535979, 43.087992835893218, 0.0 ], [ -89.27872616797606, 43.087982609971334, 0.0 ], [ -89.278660034760023, 43.087919745697562, 0.0 ], [ -89.278656849636818, 43.087914046003405, 0.0 ], [ -89.278601780532981, 43.087873393773002, 0.0 ], [ -89.278453337027813, 43.087738864227099, 0.0 ], [ -89.278291650115648, 43.087598467348926, 0.0 ], [ -89.278143793343702, 43.08745455007147, 0.0 ], [ -89.27812124602417, 43.08742529722938, 0.0 ], [ -89.277987219392458, 43.087316164850058, 0.0 ], [ -89.27785855717876, 43.087196974186952, 0.0 ], [ -89.277730900793472, 43.087093038587604, 0.0 ], [ -89.277679435907999, 43.087048698319819, 0.0 ], [ -89.277614476158405, 43.086980385808964, 0.0 ], [ -89.277459410949746, 43.086840910940168, 0.0 ], [ -89.277451112865606, 43.086832948132148, 0.0 ], [ -89.277338208629885, 43.086721049724808, 0.0 ], [ -89.277186915277639, 43.086592974244326, 0.0 ], [ -89.277128996326709, 43.086564475773528, 0.0 ], [ -89.277105946093002, 43.086578054456638, 0.0 ], [ -89.277096809818545, 43.086588950930775, 0.0 ], [ -89.277016008271957, 43.086653826861316, 0.0 ], [ -89.276907462625886, 43.086695401101025, 0.0 ], [ -89.27679900079886, 43.086725324495347, 0.0 ], [ -89.276728173717061, 43.086752649499665, 0.0 ], [ -89.276530696078339, 43.086801432176102, 0.0 ], [ -89.276276808231273, 43.086810819907605, 0.0 ], [ -89.276259625329772, 43.086812328650183, 0.0 ], [ -89.276005318387547, 43.086823392762334, 0.0 ], [ -89.275975478812242, 43.086825236781031, 0.0 ], [ -89.275804404168539, 43.086827499894852, 0.0 ], [ -89.275618745013276, 43.086839150740246, 0.0 ], [ -89.275423614307428, 43.086834875969593, 0.0 ], [ -89.275248600169206, 43.0868434255108, 0.0 ], [ -89.275054726748863, 43.086848538471692, 0.0 ], [ -89.274822548031011, 43.086854657260986, 0.0 ], [ -89.274684833361889, 43.086859770221906, 0.0 ], [ -89.274524822830358, 43.086867565391834, 0.0 ], [ -89.274274036287451, 43.086866894839531, 0.0 ], [ -89.274244196712175, 43.086866224287284, 0.0 ], [ -89.273982932790318, 43.086864464087576, 0.0 ], [ -89.273933982475796, 43.086867062477559, 0.0 ], [ -89.273797441273132, 43.086829176275209, 0.0 ], [ -89.273765170945921, 43.086709817974032, 0.0 ], [ -89.27376852370719, 43.086621640352675, 0.0 ], [ -89.273756453766623, 43.086569504914948, 0.0 ], [ -89.273746814577976, 43.086472610114292, 0.0 ], [ -89.273785874246755, 43.086310001192743, 0.0 ], [ -89.273804984985972, 43.086212771115974, 0.0 ], [ -89.273847900330225, 43.086078409208149, 0.0 ], [ -89.273863658308187, 43.085973803056561, 0.0 ], [ -89.27389919757762, 43.085830221055225, 0.0 ], [ -89.273945800959254, 43.085719328476287, 0.0 ], [ -89.273953931405345, 43.085599970175132, 0.0 ], [ -89.273958960547247, 43.085522605208858, 0.0 ], [ -89.273934485389987, 43.085502823917345, 0.0 ], [ -89.273807248099843, 43.085425123674938, 0.0 ], [ -89.273719321935573, 43.085386818377437, 0.0 ], [ -89.273649668320218, 43.085371563313643, 0.0 ], [ -89.273644890635424, 43.085363684324676, 0.0 ], [ -89.273611949755946, 43.085359325735013, 0.0 ], [ -89.273585714399019, 43.085362343220133, 0.0 ], [ -89.273505248128572, 43.085359912468221, 0.0 ], [ -89.273386225103522, 43.085367456181061, 0.0 ], [ -89.273282121866146, 43.085366785628771, 0.0 ], [ -89.273117082192698, 43.08535513478337, 0.0 ], [ -89.27291851490655, 43.085343651575997, 0.0 ], [ -89.272675272076512, 43.085364941610031, 0.0 ], [ -89.272583993150988, 43.085368378190289, 0.0 ], [ -89.272434459998408, 43.085372652960899, 0.0 ], [ -89.272215776144662, 43.085380448130806, 0.0 ], [ -89.272193564101258, 43.085469547761534, 0.0 ], [ -89.272199263795414, 43.085610447553826, 0.0 ], [ -89.272222230210104, 43.08579317304298, 0.0 ], [ -89.272235138340989, 43.085899790851329, 0.0 ], [ -89.272251483052159, 43.086088635129776, 0.0 ], [ -89.272265145554343, 43.086187206311088, 0.0 ], [ -89.272250812499934, 43.086305726421912, 0.0 ], [ -89.272245699538985, 43.086445620385852, 0.0 ], [ -89.272257266565347, 43.08661996397182, 0.0 ], [ -89.272256176917949, 43.086678302017901, 0.0 ], [ -89.272256596013108, 43.086682157693346, 0.0 ], [ -89.272260451688553, 43.086699759690021, 0.0 ], [ -89.272261708974042, 43.08677645410404, 0.0 ], [ -89.272266905754009, 43.086932106045914, 0.0 ], [ -89.272263888268853, 43.087099073557106, 0.0 ], [ -89.27226179279306, 43.08715598667964, 0.0 ], [ -89.272268749772707, 43.087226897580472, 0.0 ], [ -89.272248884662204, 43.087354470146735, 0.0 ], [ -89.27227721549491, 43.087527640266266, 0.0 ], [ -89.272290794178048, 43.0877031573187, 0.0 ], [ -89.272292219101573, 43.087854031575766, 0.0 ], [ -89.272275539114261, 43.088045809520345, 0.0 ], [ -89.272254081442142, 43.088218895820823, 0.0 ], [ -89.272291632368365, 43.088296344606135, 0.0 ], [ -89.272291045635143, 43.088310593841513, 0.0 ], [ -89.272273946552659, 43.088466748697606, 0.0 ], [ -89.272277550771037, 43.088655257699934, 0.0 ], [ -89.272276628761688, 43.088667076183405, 0.0 ], [ -89.272267660125294, 43.088805126128648, 0.0 ], [ -89.272295068948665, 43.088872181354027, 0.0 ], [ -89.272329099475542, 43.088873857734661, 0.0 ], [ -89.272582652046481, 43.088858015937696, 0.0 ], [ -89.272600002586046, 43.088854998452568, 0.0 ], [ -89.272764958440447, 43.088841419769444, 0.0 ], [ -89.272801335900226, 43.0888333731424, 0.0 ], [ -89.272821284829774, 43.088821051744752, 0.0 ], [ -89.272826062514582, 43.088819543002167, 0.0 ], [ -89.272897224872509, 43.088815687326729, 0.0 ], [ -89.273112053050795, 43.088792301816909, 0.0 ], [ -89.273298298939267, 43.088722732020614, 0.0 ], [ -89.273482365532914, 43.08863078254285, 0.0 ], [ -89.273665593936244, 43.088540593264753, 0.0 ], [ -89.273814707993665, 43.088452499462434, 0.0 ], [ -89.273979160933877, 43.088367842240437, 0.0 ], [ -89.274067506193319, 43.088324004886857, 0.0 ], [ -89.274092400445724, 43.088325010715238, 0.0 ], [ -89.274226175620356, 43.088432299075833, 0.0 ], [ -89.274328351020017, 43.088484685970691, 0.0 ], [ -89.274430442600632, 43.088570684297238, 0.0 ], [ -89.274479057639041, 43.088662885232139, 0.0 ], [ -89.274480398743549, 43.088675541905914, 0.0 ], [ -89.274482242762247, 43.088732957942632, 0.0 ], [ -89.274470340459743, 43.088840162484217, 0.0 ], [ -89.274372607468763, 43.08890067982508, 0.0 ], [ -89.274244531988302, 43.088992964578985, 0.0 ], [ -89.274115031584302, 43.089084327323562, 0.0 ], [ -89.27410178817729, 43.089095391435741, 0.0 ], [ -89.273979412390972, 43.089199829949237, 0.0 ], [ -89.273899449034715, 43.089281218229004, 0.0 ], [ -89.27383155561904, 43.089348608730504, 0.0 ], [ -89.273828035219708, 43.089350285111145, 0.0 ], [ -89.273701636119895, 43.089450867949175, 0.0 ], [ -89.273687219246426, 43.089469475774209, 0.0 ], [ -89.273690739645758, 43.08947249325935, 0.0 ], [ -89.273653272538567, 43.08951658207004, 0.0 ], [ -89.273513378574663, 43.089669384164829, 0.0 ], [ -89.273477084933916, 43.089742474360499, 0.0 ], [ -89.27339100278833, 43.089872561497693, 0.0 ], [ -89.273366779088178, 43.089917823774812, 0.0 ], [ -89.273353451862135, 43.089955961434249, 0.0 ], [ -89.273259742184678, 43.090107673881626, 0.0 ], [ -89.27317533641974, 43.090252764625518, 0.0 ], [ -89.273111633955637, 43.090384863419509, 0.0 ], [ -89.273038627579012, 43.090565325794778, 0.0 ], [ -89.272989844902568, 43.090691641075551, 0.0 ], [ -89.272949192672158, 43.090824661878877, 0.0 ], [ -89.272923879324594, 43.090965058757007, 0.0 ], [ -89.27291197702209, 43.091112244976692, 0.0 ], [ -89.272914910688201, 43.091290528057144, 0.0 ], [ -89.272927735000039, 43.091453723711894, 0.0 ], [ -89.27289194427351, 43.091593617675819, 0.0 ], [ -89.272888256236115, 43.091687578810379, 0.0 ], [ -89.27291851490655, 43.091700235484176, 0.0 ], [ -89.273100988938609, 43.091685734791731, 0.0 ], [ -89.273265274240771, 43.091665282947979, 0.0 ], [ -89.273463003336573, 43.091627480564725, 0.0 ], [ -89.27369426004509, 43.091601077569763, 0.0 ], [ -89.273858964442397, 43.091618931023568, 0.0 ], [ -89.273954015224362, 43.091619685394853, 0.0 ], [ -89.27414428442637, 43.091617673738121, 0.0 ], [ -89.274377301334539, 43.091613231329468, 0.0 ], [ -89.274587435647035, 43.091625217451053, 0.0 ], [ -89.274828918277422, 43.091643657638038, 0.0 ], [ -89.274926651268402, 43.091693027047739, 0.0 ], [ -89.274994041769915, 43.091758824987657, 0.0 ], [ -89.275015247984925, 43.091758741168633, 0.0 ], [ -89.275166373699108, 43.09173594239202, 0.0 ], [ -89.275241559370556, 43.091726889936595, 0.0 ], [ -89.275260083376565, 43.091706857188022, 0.0 ], [ -89.275263017042676, 43.091694871066487, 0.0 ], [ -89.275279780849033, 43.091642567990682, 0.0 ], [ -89.275284558533826, 43.091584313763654, 0.0 ], [ -89.275344070046344, 43.091551624341299, 0.0 ], [ -89.275410203262368, 43.091542236609769, 0.0 ], [ -89.275654535739818, 43.091514157234151, 0.0 ], [ -89.275862239300423, 43.091486580772774, 0.0 ], [ -89.27608754485766, 43.091462524710671, 0.0 ], [ -89.276280999182859, 43.091467470033592, 0.0 ], [ -89.276494402437606, 43.091510553015922, 0.0 ], [ -89.276661537586847, 43.091543996809591, 0.0 ], [ -89.27667830139319, 43.091546511380542, 0.0 ], [ -89.276701267807866, 43.09152941229808, 0.0 ], [ -89.276767736300016, 43.0914876704203, 0.0 ], [ -89.276778381317058, 43.091466380386251, 0.0 ], [ -89.276776872574487, 43.091413322939161, 0.0 ], [ -89.276888603343764, 43.091285582734848, 0.0 ], [ -89.277005949988151, 43.091219030423687, 0.0 ], [ -89.277131510897675, 43.091141078724213, 0.0 ], [ -89.277333430945077, 43.091027001022084, 0.0 ], [ -89.277480365707675, 43.090936979382043, 0.0 ], [ -89.277564184739376, 43.090822901679864, 0.0 ], [ -89.277709694578448, 43.090707901968393, 0.0 ], [ -89.277904825284267, 43.090676721288617, 0.0 ], [ -89.278077995403791, 43.090662052958095, 0.0 ], [ -89.278278155251542, 43.090602206169478, 0.0 ], [ -89.278394160791436, 43.090469855918407, 0.0 ], [ -89.27846129983584, 43.090306492625615, 0.0 ], [ -89.278499353676224, 43.090245891465685, 0.0 ], [ -89.278509495779076, 43.090244215085036, 0.0 ], [ -89.278516955672899, 43.090218315004265, 0.0 ], [ -89.27853606641213, 43.090181183173193, 0.0 ], [ -89.27859616465787, 43.090100968359884, 0.0 ], [ -89.278649305923977, 43.090061154319812, 0.0 ], [ -89.278667075558701, 43.090058807386924, 0.0 ], [ -89.278795905410448, 43.090115133776258, 0.0 ], [ -89.279012326150323, 43.09019995863639, 0.0 ], [ -89.279179209842482, 43.090226948364617, 0.0 ], [ -89.279368137939969, 43.090226613088518, 0.0 ], [ -89.279550611972013, 43.090204820140301, 0.0 ], [ -89.279569890349308, 43.090196354418104, 0.0 ], [ -89.279629820956984, 43.090194594218453, 0.0 ], [ -89.279790502040782, 43.090181350811449, 0.0 ], [ -89.279985381289507, 43.090167604490269, 0.0 ], [ -89.280174057929912, 43.090150673045905, 0.0 ], [ -89.280326440929571, 43.090150756864958, 0.0 ], [ -89.280450409277464, 43.090132987230241, 0.0 ], [ -89.280598182230392, 43.090143799885361, 0.0 ], [ -89.280753582715192, 43.090150673045976, 0.0 ], [ -89.28094209171752, 43.090167101576206, 0.0 ], [ -89.28111014887611, 43.090201299741203, 0.0 ], [ -89.281279128044048, 43.090194175123521, 0.0 ], [ -89.281400078906813, 43.090183194830381, 0.0 ], [ -89.281608453019643, 43.090174896746262, 0.0 ], [ -89.281752621754208, 43.090173974736942, 0.0 ], [ -89.281893270089412, 43.090220913394738, 0.0 ], [ -89.282057387753525, 43.09032241824216, 0.0 ], [ -89.282147660850669, 43.090379331364701, 0.0 ], [ -89.28219099529008, 43.090402800693596, 0.0 ], [ -89.282248411326805, 43.090394754066558, 0.0 ], [ -89.282451588659683, 43.090392071857586, 0.0 ], [ -89.282596176489392, 43.090363992481976, 0.0 ] ] } },
{ "type": "Feature", "properties": { "id": 5 }, "geometry": { "type": "LineString", "coordinates": [ [ -89.280129298566976, 43.088247059016609, 0.0 ] ] } },
{ "type": "Feature", "properties": { "id": 6 }, "geometry": { "type": "LineString", "coordinates": [ [ -89.280129298566976, 43.088247059016609, 0.0 ], [ -89.280039025469819, 43.088173549725781, 0.0 ], [ -89.279954284428754, 43.088102890282038, 0.0 ], [ -89.279944729059139, 43.088087467580195, 0.0 ], [ -89.279872141777673, 43.08804815645432, 0.0 ], [ -89.279774911700869, 43.087978502838943, 0.0 ], [ -89.279770134016061, 43.087971126764153, 0.0 ], [ -89.279691930859485, 43.087902478977156, 0.0 ], [ -89.279562095179344, 43.087901137872649, 0.0 ], [ -89.279523789881864, 43.087913375451251, 0.0 ], [ -89.279482299461165, 43.0878946838072, 0.0 ], [ -89.279442233963991, 43.087917398764773, 0.0 ], [ -89.279393367468515, 43.087965510888971, 0.0 ], [ -89.279369562863508, 43.087984621628188, 0.0 ], [ -89.279324803500572, 43.088033152847558, 0.0 ], [ -89.279205109923282, 43.088132059304961, 0.0 ], [ -89.279057001694241, 43.088217806174399, 0.0 ], [ -89.278995227067867, 43.088227529182056, 0.0 ], [ -89.278984079136649, 43.088217889993381, 0.0 ], [ -89.278890285640145, 43.088145973264197, 0.0 ], [ -89.278736561535979, 43.087992835893218, 0.0 ], [ -89.27872616797606, 43.087982609971334, 0.0 ], [ -89.278660034760023, 43.087919745697562, 0.0 ], [ -89.278656849636818, 43.087914046003405, 0.0 ], [ -89.278601780532981, 43.087873393773002, 0.0 ], [ -89.278453337027813, 43.087738864227099, 0.0 ], [ -89.278291650115648, 43.087598467348926, 0.0 ], [ -89.278143793343702, 43.08745455007147, 0.0 ], [ -89.27812124602417, 43.08742529722938, 0.0 ], [ -89.277987219392458, 43.087316164850058, 0.0 ], [ -89.27785855717876, 43.087196974186952, 0.0 ], [ -89.277730900793472, 43.087093038587604, 0.0 ], [ -89.277679435907999, 43.087048698319819, 0.0 ], [ -89.277614476158405, 43.086980385808964, 0.0 ], [ -89.277459410949746, 43.086840910940168, 0.0 ], [ -89.277451112865606, 43.086832948132148, 0.0 ], [ -89.277338208629885, 43.086721049724808, 0.0 ], [ -89.277186915277639, 43.086592974244326, 0.0 ], [ -89.277128996326709, 43.086564475773528, 0.0 ], [ -89.277105946093002, 43.086578054456638, 0.0 ], [ -89.277096809818545, 43.086588950930775, 0.0 ], [ -89.277016008271957, 43.086653826861316, 0.0 ], [ -89.276907462625886, 43.086695401101025, 0.0 ], [ -89.27679900079886, 43.086725324495347, 0.0 ], [ -89.276728173717061, 43.086752649499665, 0.0 ], [ -89.276530696078339, 43.086801432176102, 0.0 ], [ -89.276276808231273, 43.086810819907605, 0.0 ], [ -89.276259625329772, 43.086812328650183, 0.0 ], [ -89.276005318387547, 43.086823392762334, 0.0 ], [ -89.275975478812242, 43.086825236781031, 0.0 ], [ -89.275804404168539, 43.086827499894852, 0.0 ], [ -89.275618745013276, 43.086839150740246, 0.0 ], [ -89.275423614307428, 43.086834875969593, 0.0 ], [ -89.275248600169206, 43.0868434255108, 0.0 ], [ -89.275054726748863, 43.086848538471692, 0.0 ], [ -89.274822548031011, 43.086854657260986, 0.0 ], [ -89.274684833361889, 43.086859770221906, 0.0 ], [ -89.274524822830358, 43.086867565391834, 0.0 ], [ -89.274274036287451, 43.086866894839531, 0.0 ], [ -89.274244196712175, 43.086866224287284, 0.0 ], [ -89.273982932790318, 43.086864464087576, 0.0 ], [ -89.273933982475796, 43.086867062477559, 0.0 ], [ -89.273797441273132, 43.086829176275209, 0.0 ], [ -89.273765170945921, 43.086709817974032, 0.0 ], [ -89.27376852370719, 43.086621640352675, 0.0 ], [ -89.273756453766623, 43.086569504914948, 0.0 ], [ -89.273746814577976, 43.086472610114292, 0.0 ], [ -89.273785874246755, 43.086310001192743, 0.0 ], [ -89.273804984985972, 43.086212771115974, 0.0 ], [ -89.273847900330225, 43.086078409208149, 0.0 ], [ -89.273863658308187, 43.085973803056561, 0.0 ], [ -89.27389919757762, 43.085830221055225, 0.0 ], [ -89.273945800959254, 43.085719328476287, 0.0 ], [ -89.273953931405345, 43.085599970175132, 0.0 ], [ -89.273958960547247, 43.085522605208858, 0.0 ], [ -89.273934485389987, 43.085502823917345, 0.0 ], [ -89.273807248099843, 43.085425123674938, 0.0 ], [ -89.273719321935573, 43.085386818377437, 0.0 ], [ -89.273649668320218, 43.085371563313643, 0.0 ], [ -89.273644890635424, 43.085363684324676, 0.0 ], [ -89.273611949755946, 43.085359325735013, 0.0 ], [ -89.273585714399019, 43.085362343220133, 0.0 ], [ -89.273505248128572, 43.085359912468221, 0.0 ], [ -89.273386225103522, 43.085367456181061, 0.0 ], [ -89.273282121866146, 43.085366785628771, 0.0 ], [ -89.273117082192698, 43.08535513478337, 0.0 ], [ -89.27291851490655, 43.085343651575997, 0.0 ], [ -89.272675272076512, 43.085364941610031, 0.0 ], [ -89.272583993150988, 43.085368378190289, 0.0 ], [ -89.272434459998408, 43.085372652960899, 0.0 ], [ -89.272215776144662, 43.085380448130806, 0.0 ], [ -89.272193564101258, 43.085469547761534, 0.0 ], [ -89.272199263795414, 43.085610447553826, 0.0 ], [ -89.272222230210104, 43.08579317304298, 0.0 ], [ -89.272235138340989, 43.085899790851329, 0.0 ], [ -89.272251483052159, 43.086088635129776, 0.0 ], [ -89.272265145554343, 43.086187206311088, 0.0 ], [ -89.272250812499934, 43.086305726421912, 0.0 ] ] } },
{ "type": "Feature", "properties": { "id": 7 }, "geometry": { "type": "LineString", "coordinates": [ [ -89.280129298566976, 43.088247059016609, 0.0 ], [ -89.280039025469819, 43.088173549725781, 0.0 ], [ -89.279954284428754, 43.088102890282038, 0.0 ], [ -89.279944729059139, 43.088087467580195, 0.0 ], [ -89.279872141777673, 43.08804815645432, 0.0 ], [ -89.279774911700869, 43.087978502838943, 0.0 ], [ -89.279770134016061, 43.087971126764153, 0.0 ], [ -89.279691930859485, 43.087902478977156, 0.0 ], [ -89.279562095179344, 43.087901137872649, 0.0 ], [ -89.279523789881864, 43.087913375451251, 0.0 ], [ -89.279482299461165, 43.0878946838072, 0.0 ], [ -89.279442233963991, 43.087917398764773, 0.0 ], [ -89.279393367468515, 43.087965510888971, 0.0 ], [ -89.279369562863508, 43.087984621628188, 0.0 ], [ -89.279324803500572, 43.088033152847558, 0.0 ], [ -89.279205109923282, 43.088132059304961, 0.0 ], [ -89.279057001694241, 43.088217806174399, 0.0 ], [ -89.278995227067867, 43.088227529182056, 0.0 ], [ -89.278984079136649, 43.088217889993381, 0.0 ], [ -89.278890285640145, 43.088145973264197, 0.0 ], [ -89.278736561535979, 43.087992835893218, 0.0 ], [ -89.27872616797606, 43.087982609971334, 0.0 ], [ -89.278660034760023, 43.087919745697562, 0.0 ], [ -89.278656849636818, 43.087914046003405, 0.0 ], [ -89.278601780532981, 43.087873393773002, 0.0 ], [ -89.278453337027813, 43.087738864227099, 0.0 ], [ -89.278291650115648, 43.087598467348926, 0.0 ], [ -89.278143793343702, 43.08745455007147, 0.0 ], [ -89.27812124602417, 43.08742529722938, 0.0 ], [ -89.277987219392458, 43.087316164850058, 0.0 ], [ -89.27785855717876, 43.087196974186952, 0.0 ], [ -89.277730900793472, 43.087093038587604, 0.0 ], [ -89.277679435907999, 43.087048698319819, 0.0 ], [ -89.277614476158405, 43.086980385808964, 0.0 ], [ -89.277459410949746, 43.086840910940168, 0.0 ], [ -89.277451112865606, 43.086832948132148, 0.0 ], [ -89.277338208629885, 43.086721049724808, 0.0 ], [ -89.277186915277639, 43.086592974244326, 0.0 ], [ -89.277128996326709, 43.086564475773528, 0.0 ], [ -89.277105946093002, 43.086578054456638, 0.0 ], [ -89.277096809818545, 43.086588950930775, 0.0 ], [ -89.277016008271957, 43.086653826861316, 0.0 ], [ -89.276907462625886, 43.086695401101025, 0.0 ], [ -89.27679900079886, 43.086725324495347, 0.0 ], [ -89.276728173717061, 43.086752649499665, 0.0 ], [ -89.276530696078339, 43.086801432176102, 0.0 ], [ -89.276276808231273, 43.086810819907605, 0.0 ], [ -89.276259625329772, 43.086812328650183, 0.0 ], [ -89.276005318387547, 43.086823392762334, 0.0 ], [ -89.275975478812242, 43.086825236781031, 0.0 ], [ -89.275804404168539, 43.086827499894852, 0.0 ], [ -89.275618745013276, 43.086839150740246, 0.0 ], [ -89.275423614307428, 43.086834875969593, 0.0 ], [ -89.275248600169206, 43.0868434255108, 0.0 ], [ -89.275054726748863, 43.086848538471692, 0.0 ], [ -89.274822548031011, 43.086854657260986, 0.0 ], [ -89.274684833361889, 43.086859770221906, 0.0 ], [ -89.274524822830358, 43.086867565391834, 0.0 ], [ -89.274274036287451, 43.086866894839531, 0.0 ], [ -89.274244196712175, 43.086866224287284, 0.0 ], [ -89.273982932790318, 43.086864464087576, 0.0 ], [ -89.273933982475796, 43.086867062477559, 0.0 ], [ -89.273797441273132, 43.086829176275209, 0.0 ], [ -89.273765170945921, 43.086709817974032, 0.0 ], [ -89.27376852370719, 43.086621640352675, 0.0 ], [ -89.273756453766623, 43.086569504914948, 0.0 ], [ -89.273746814577976, 43.086472610114292, 0.0 ], [ -89.273785874246755, 43.086310001192743, 0.0 ], [ -89.273804984985972, 43.086212771115974, 0.0 ], [ -89.273847900330225, 43.086078409208149, 0.0 ], [ -89.273863658308187, 43.085973803056561, 0.0 ], [ -89.27389919757762, 43.085830221055225, 0.0 ], [ -89.273945800959254, 43.085719328476287, 0.0 ], [ -89.273953931405345, 43.085599970175132, 0.0 ], [ -89.273958960547247, 43.085522605208858, 0.0 ], [ -89.273934485389987, 43.085502823917345, 0.0 ], [ -89.273807248099843, 43.085425123674938, 0.0 ], [ -89.273719321935573, 43.085386818377437, 0.0 ], [ -89.273649668320218, 43.085371563313643, 0.0 ], [ -89.273644890635424, 43.085363684324676, 0.0 ], [ -89.273611949755946, 43.085359325735013, 0.0 ], [ -89.273585714399019, 43.085362343220133, 0.0 ], [ -89.273505248128572, 43.085359912468221, 0.0 ], [ -89.273386225103522, 43.085367456181061, 0.0 ], [ -89.273282121866146, 43.085366785628771, 0.0 ], [ -89.273117082192698, 43.08535513478337, 0.0 ], [ -89.27291851490655, 43.085343651575997, 0.0 ], [ -89.272675272076512, 43.085364941610031, 0.0 ], [ -89.272583993150988, 43.085368378190289, 0.0 ], [ -89.272434459998408, 43.085372652960899, 0.0 ], [ -89.272215776144662, 43.085380448130806, 0.0 ], [ -89.272193564101258, 43.085469547761534, 0.0 ], [ -89.272199263795414, 43.085610447553826, 0.0 ], [ -89.272222230210104, 43.08579317304298, 0.0 ], [ -89.272235138340989, 43.085899790851329, 0.0 ], [ -89.272251483052159, 43.086088635129776, 0.0 ], [ -89.272265145554343, 43.086187206311088, 0.0 ], [ -89.272250812499934, 43.086305726421912, 0.0 ], [ -89.272245699538985, 43.086445620385852, 0.0 ], [ -89.272257266565347, 43.08661996397182, 0.0 ], [ -89.272256176917949, 43.086678302017901, 0.0 ], [ -89.272256596013108, 43.086682157693346, 0.0 ], [ -89.272260451688553, 43.086699759690021, 0.0 ], [ -89.272261708974042, 43.08677645410404, 0.0 ], [ -89.272266905754009, 43.086932106045914, 0.0 ], [ -89.272263888268853, 43.087099073557106, 0.0 ], [ -89.27226179279306, 43.08715598667964, 0.0 ], [ -89.272268749772707, 43.087226897580472, 0.0 ], [ -89.272248884662204, 43.087354470146735, 0.0 ], [ -89.27227721549491, 43.087527640266266, 0.0 ], [ -89.272290794178048, 43.0877031573187, 0.0 ], [ -89.272292219101573, 43.087854031575766, 0.0 ], [ -89.272275539114261, 43.088045809520345, 0.0 ], [ -89.272254081442142, 43.088218895820823, 0.0 ], [ -89.272291632368365, 43.088296344606135, 0.0 ], [ -89.272291045635143, 43.088310593841513, 0.0 ], [ -89.272273946552659, 43.088466748697606, 0.0 ], [ -89.272277550771037, 43.088655257699934, 0.0 ], [ -89.272276628761688, 43.088667076183405, 0.0 ], [ -89.272267660125294, 43.088805126128648, 0.0 ], [ -89.272295068948665, 43.088872181354027, 0.0 ], [ -89.272329099475542, 43.088873857734661, 0.0 ], [ -89.272582652046481, 43.088858015937696, 0.0 ], [ -89.272600002586046, 43.088854998452568, 0.0 ], [ -89.272764958440447, 43.088841419769444, 0.0 ], [ -89.272801335900226, 43.0888333731424, 0.0 ], [ -89.272821284829774, 43.088821051744752, 0.0 ], [ -89.272826062514582, 43.088819543002167, 0.0 ], [ -89.272897224872509, 43.088815687326729, 0.0 ], [ -89.273112053050795, 43.088792301816909, 0.0 ], [ -89.273298298939267, 43.088722732020614, 0.0 ], [ -89.273482365532914, 43.08863078254285, 0.0 ], [ -89.273665593936244, 43.088540593264753, 0.0 ], [ -89.273814707993665, 43.088452499462434, 0.0 ], [ -89.273979160933877, 43.088367842240437, 0.0 ], [ -89.274067506193319, 43.088324004886857, 0.0 ], [ -89.274092400445724, 43.088325010715238, 0.0 ], [ -89.274226175620356, 43.088432299075833, 0.0 ], [ -89.274328351020017, 43.088484685970691, 0.0 ], [ -89.274430442600632, 43.088570684297238, 0.0 ], [ -89.274479057639041, 43.088662885232139, 0.0 ], [ -89.274480398743549, 43.088675541905914, 0.0 ], [ -89.274482242762247, 43.088732957942632, 0.0 ], [ -89.274470340459743, 43.088840162484217, 0.0 ], [ -89.274372607468763, 43.08890067982508, 0.0 ], [ -89.274244531988302, 43.088992964578985, 0.0 ], [ -89.274115031584302, 43.089084327323562, 0.0 ], [ -89.27410178817729, 43.089095391435741, 0.0 ], [ -89.273979412390972, 43.089199829949237, 0.0 ], [ -89.273899449034715, 43.089281218229004, 0.0 ], [ -89.27383155561904, 43.089348608730504, 0.0 ], [ -89.273828035219708, 43.089350285111145, 0.0 ], [ -89.273701636119895, 43.089450867949175, 0.0 ], [ -89.273687219246426, 43.089469475774209, 0.0 ], [ -89.273690739645758, 43.08947249325935, 0.0 ], [ -89.273653272538567, 43.08951658207004, 0.0 ], [ -89.273513378574663, 43.089669384164829, 0.0 ], [ -89.273477084933916, 43.089742474360499, 0.0 ], [ -89.27339100278833, 43.089872561497693, 0.0 ], [ -89.273366779088178, 43.089917823774812, 0.0 ], [ -89.273353451862135, 43.089955961434249, 0.0 ], [ -89.273259742184678, 43.090107673881626, 0.0 ], [ -89.27317533641974, 43.090252764625518, 0.0 ], [ -89.273111633955637, 43.090384863419509, 0.0 ], [ -89.273038627579012, 43.090565325794778, 0.0 ], [ -89.272989844902568, 43.090691641075551, 0.0 ], [ -89.272949192672158, 43.090824661878877, 0.0 ], [ -89.272923879324594, 43.090965058757007, 0.0 ], [ -89.27291197702209, 43.091112244976692, 0.0 ], [ -89.272914910688201, 43.091290528057144, 0.0 ], [ -89.272927735000039, 43.091453723711894, 0.0 ], [ -89.27289194427351, 43.091593617675819, 0.0 ], [ -89.272888256236115, 43.091687578810379, 0.0 ], [ -89.27291851490655, 43.091700235484176, 0.0 ], [ -89.273100988938609, 43.091685734791731, 0.0 ], [ -89.273265274240771, 43.091665282947979, 0.0 ], [ -89.273463003336573, 43.091627480564725, 0.0 ], [ -89.27369426004509, 43.091601077569763, 0.0 ], [ -89.273858964442397, 43.091618931023568, 0.0 ], [ -89.273954015224362, 43.091619685394853, 0.0 ], [ -89.27414428442637, 43.091617673738121, 0.0 ], [ -89.274377301334539, 43.091613231329468, 0.0 ], [ -89.274587435647035, 43.091625217451053, 0.0 ], [ -89.274828918277422, 43.091643657638038, 0.0 ], [ -89.274926651268402, 43.091693027047739, 0.0 ], [ -89.274994041769915, 43.091758824987657, 0.0 ], [ -89.275015247984925, 43.091758741168633, 0.0 ], [ -89.275166373699108, 43.09173594239202, 0.0 ], [ -89.275241559370556, 43.091726889936595, 0.0 ], [ -89.275260083376565, 43.091706857188022, 0.0 ], [ -89.275263017042676, 43.091694871066487, 0.0 ], [ -89.275279780849033, 43.091642567990682, 0.0 ], [ -89.275284558533826, 43.091584313763654, 0.0 ], [ -89.275344070046344, 43.091551624341299, 0.0 ], [ -89.275410203262368, 43.091542236609769, 0.0 ], [ -89.275654535739818, 43.091514157234151, 0.0 ], [ -89.275862239300423, 43.091486580772774, 0.0 ], [ -89.27608754485766, 43.091462524710671, 0.0 ], [ -89.276280999182859, 43.091467470033592, 0.0 ], [ -89.276494402437606, 43.091510553015922, 0.0 ], [ -89.276661537586847, 43.091543996809591, 0.0 ], [ -89.27667830139319, 43.091546511380542, 0.0 ], [ -89.276701267807866, 43.09152941229808, 0.0 ], [ -89.276767736300016, 43.0914876704203, 0.0 ], [ -89.276778381317058, 43.091466380386251, 0.0 ], [ -89.276776872574487, 43.091413322939161, 0.0 ], [ -89.276888603343764, 43.091285582734848, 0.0 ], [ -89.277005949988151, 43.091219030423687, 0.0 ], [ -89.277131510897675, 43.091141078724213, 0.0 ], [ -89.277333430945077, 43.091027001022084, 0.0 ], [ -89.277480365707675, 43.090936979382043, 0.0 ], [ -89.277564184739376, 43.090822901679864, 0.0 ], [ -89.277709694578448, 43.090707901968393, 0.0 ], [ -89.277904825284267, 43.090676721288617, 0.0 ], [ -89.278077995403791, 43.090662052958095, 0.0 ], [ -89.278278155251542, 43.090602206169478, 0.0 ], [ -89.278394160791436, 43.090469855918407, 0.0 ], [ -89.27846129983584, 43.090306492625615, 0.0 ], [ -89.278499353676224, 43.090245891465685, 0.0 ], [ -89.278509495779076, 43.090244215085036, 0.0 ], [ -89.278516955672899, 43.090218315004265, 0.0 ], [ -89.27853606641213, 43.090181183173193, 0.0 ], [ -89.27859616465787, 43.090100968359884, 0.0 ], [ -89.278649305923977, 43.090061154319812, 0.0 ], [ -89.278667075558701, 43.090058807386924, 0.0 ], [ -89.278795905410448, 43.090115133776258, 0.0 ], [ -89.279012326150323, 43.09019995863639, 0.0 ], [ -89.279179209842482, 43.090226948364617, 0.0 ], [ -89.279368137939969, 43.090226613088518, 0.0 ], [ -89.279550611972013, 43.090204820140301, 0.0 ], [ -89.279569890349308, 43.090196354418104, 0.0 ], [ -89.279629820956984, 43.090194594218453, 0.0 ], [ -89.279790502040782, 43.090181350811449, 0.0 ], [ -89.279985381289507, 43.090167604490269, 0.0 ], [ -89.280174057929912, 43.090150673045905, 0.0 ], [ -89.280326440929571, 43.090150756864958, 0.0 ], [ -89.280450409277464, 43.090132987230241, 0.0 ], [ -89.280598182230392, 43.090143799885361, 0.0 ], [ -89.280753582715192, 43.090150673045976, 0.0 ], [ -89.28094209171752, 43.090167101576206, 0.0 ], [ -89.28111014887611, 43.090201299741203, 0.0 ], [ -89.281279128044048, 43.090194175123521, 0.0 ], [ -89.281400078906813, 43.090183194830381, 0.0 ], [ -89.281608453019643, 43.090174896746262, 0.0 ], [ -89.281752621754208, 43.090173974736942, 0.0 ], [ -89.281893270089412, 43.090220913394738, 0.0 ], [ -89.282057387753525, 43.09032241824216, 0.0 ], [ -89.282147660850669, 43.090379331364701, 0.0 ], [ -89.28219099529008, 43.090402800693596, 0.0 ], [ -89.282248411326805, 43.090394754066558, 0.0 ], [ -89.282451588659683, 43.090392071857586, 0.0 ], [ -89.282596176489392, 43.090363992481976, 0.0 ], [ -89.282695166765848, 43.090231809868982, 0.0 ], [ -89.282704470678368, 43.090205993607206, 0.0 ], [ -89.282728778197566, 43.090179674431255, 0.0 ], [ -89.282750654964829, 43.09015813294009, 0.0 ], [ -89.282771442084709, 43.0901504215892, 0.0 ], [ -89.282773369922438, 43.09012862864094, 0.0 ], [ -89.282786194234291, 43.090035673334761, 0.0 ], [ -89.282768256961504, 43.089890163495717, 0.0 ], [ -89.282726431264678, 43.089704252883365, 0.0 ], [ -89.282725928350487, 43.089692434399886, 0.0 ], [ -89.282684270291725, 43.089558407768173, 0.0 ], [ -89.282645378261009, 43.089377107202573, 0.0 ], [ -89.282596260308424, 43.089195974275015, 0.0 ], [ -89.282523170112768, 43.08906840170873, 0.0 ], [ -89.282516883685389, 43.088942254066005, 0.0 ], [ -89.282527025788227, 43.088933536886699, 0.0 ], [ -89.282590644433299, 43.088840330123453, 0.0 ], [ -89.282597852870026, 43.088688952952175, 0.0 ], [ -89.282588884233618, 43.088647043436339, 0.0 ], [ -89.282597433774868, 43.088608319043672, 0.0 ], [ -89.282618053256655, 43.088449565797582, 0.0 ], [ -89.282597601412931, 43.088347390397928, 0.0 ], [ -89.282594248651662, 43.088341858341842, 0.0 ], [ -89.28257949650208, 43.088228535010941, 0.0 ], [ -89.282570863141814, 43.088139519199295, 0.0 ], [ -89.282566504552165, 43.088067183374889, 0.0 ], [ -89.28258603438654, 43.087901305511153, 0.0 ], [ -89.282596847041631, 43.087755544215014, 0.0 ], [ -89.282594416289726, 43.087623277782939, 0.0 ], [ -89.282584274186888, 43.087528646096125, 0.0 ], [ -89.282565079628611, 43.087526215344212, 0.0 ], [ -89.282400794326463, 43.087554127081731, 0.0 ], [ -89.282326111569205, 43.087587067961209, 0.0 ], [ -89.282316388561526, 43.087594444036007, 0.0 ], [ -89.282210776581564, 43.08763165968606, 0.0 ], [ -89.281987566500106, 43.087619086831246, 0.0 ], [ -89.281968288122812, 43.087619925021571, 0.0 ], [ -89.281772319226647, 43.087619505926398, 0.0 ], [ -89.281515581532503, 43.087596707149729, 0.0 ], [ -89.28138675168077, 43.087612129851557, 0.0 ] ] } },
{ "type": "Feature", "properties": { "id": 8 }, "geometry": { "type": "LineString", "coordinates": [ [ -89.280129298566976, 43.088247059016609, 0.0 ], [ -89.280039025469819, 43.088173549725781, 0.0 ], [ -89.279954284428754, 43.088102890282038, 0.0 ], [ -89.279944729059139, 43.088087467580195, 0.0 ], [ -89.279872141777673, 43.08804815645432, 0.0 ], [ -89.279774911700869, 43.087978502838943, 0.0 ], [ -89.279770134016061, 43.087971126764153, 0.0 ], [ -89.279691930859485, 43.087902478977156, 0.0 ], [ -89.279562095179344, 43.087901137872649, 0.0 ], [ -89.279523789881864, 43.087913375451251, 0.0 ], [ -89.279482299461165, 43.0878946838072, 0.0 ], [ -89.279442233963991, 43.087917398764773, 0.0 ], [ -89.279393367468515, 43.087965510888971, 0.0 ], [ -89.279369562863508, 43.087984621628188, 0.0 ], [ -89.279324803500572, 43.088033152847558, 0.0 ], [ -89.279205109923282, 43.088132059304961, 0.0 ], [ -89.279057001694241, 43.088217806174399, 0.0 ], [ -89.278995227067867, 43.088227529182056, 0.0 ], [ -89.278984079136649, 43.088217889993381, 0.0 ], [ -89.278890285640145, 43.088145973264197, 0.0 ], [ -89.278736561535979, 43.087992835893218, 0.0 ], [ -89.27872616797606, 43.087982609971334, 0.0 ], [ -89.278660034760023, 43.087919745697562, 0.0 ], [ -89.278656849636818, 43.087914046003405, 0.0 ], [ -89.278601780532981, 43.087873393773002, 0.0 ], [ -89.278453337027813, 43.087738864227099, 0.0 ], [ -89.278291650115648, 43.087598467348926, 0.0 ], [ -89.278143793343702, 43.08745455007147, 0.0 ], [ -89.27812124602417, 43.08742529722938, 0.0 ], [ -89.277987219392458, 43.087316164850058, 0.0 ], [ -89.27785855717876, 43.087196974186952, 0.0 ], [ -89.277730900793472, 43.087093038587604, 0.0 ], [ -89.277679435907999, 43.087048698319819, 0.0 ], [ -89.277614476158405, 43.086980385808964, 0.0 ], [ -89.277459410949746, 43.086840910940168, 0.0 ] ] } },
{ "type": "Feature", "properties": { "id": 9 }, "geometry": { "type": "LineString", "coordinates": [ [ -89.280129298566976, 43.088247059016609, 0.0 ], [ -89.280039025469819, 43.088173549725781, 0.0 ], [ -89.279954284428754, 43.088102890282038, 0.0 ], [ -89.279944729059139, 43.088087467580195, 0.0 ], [ -89.279872141777673, 43.08804815645432, 0.0 ], [ -89.279774911700869, 43.087978502838943, 0.0 ], [ -89.279770134016061, 43.087971126764153, 0.0 ], [ -89.279691930859485, 43.087902478977156, 0.0 ], [ -89.279562095179344, 43.087901137872649, 0.0 ], [ -89.279523789881864, 43.087913375451251, 0.0 ], [ -89.279482299461165, 43.0878946838072, 0.0 ], [ -89.279442233963991, 43.087917398764773, 0.0 ], [ -89.279393367468515, 43.087965510888971, 0.0 ], [ -89.279369562863508, 43.087984621628188, 0.0 ], [ -89.279324803500572, 43.088033152847558, 0.0 ], [ -89.279205109923282, 43.088132059304961, 0.0 ], [ -89.279057001694241, 43.088217806174399, 0.0 ], [ -89.278995227067867, 43.088227529182056, 0.0 ], [ -89.278984079136649, 43.088217889993381, 0.0 ], [ -89.278890285640145, 43.088145973264197, 0.0 ], [ -89.278736561535979, 43.087992835893218, 0.0 ], [ -89.27872616797606, 43.087982609971334, 0.0 ], [ -89.278660034760023, 43.087919745697562, 0.0 ], [ -89.278656849636818, 43.087914046003405, 0.0 ], [ -89.278601780532981, 43.087873393773002, 0.0 ], [ -89.278453337027813, 43.087738864227099, 0.0 ], [ -89.278291650115648, 43.087598467348926, 0.0 ], [ -89.278143793343702, 43.08745455007147, 0.0 ], [ -89.27812124602417, 43.08742529722938, 0.0 ], [ -89.277987219392458, 43.087316164850058, 0.0 ], [ -89.27785855717876, 43.087196974186952, 0.0 ], [ -89.277730900793472, 43.087093038587604, 0.0 ], [ -89.277679435907999, 43.087048698319819, 0.0 ], [ -89.277614476158405, 43.086980385808964, 0.0 ], [ -89.277459410949746, 43.086840910940168, 0.0 ], [ -89.277451112865606, 43.086832948132148, 0.0 ], [ -89.277338208629885, 43.086721049724808, 0.0 ], [ -89.277186915277639, 43.086592974244326, 0.0 ], [ -89.277128996326709, 43.086564475773528, 0.0 ], [ -89.277105946093002, 43.086578054456638, 0.0 ], [ -89.277096809818545, 43.086588950930775, 0.0 ], [ -89.277016008271957, 43.086653826861316, 0.0 ], [ -89.276907462625886, 43.086695401101025, 0.0 ], [ -89.27679900079886, 43.086725324495347, 0.0 ], [ -89.276728173717061, 43.086752649499665, 0.0 ], [ -89.276530696078339, 43.086801432176102, 0.0 ], [ -89.276276808231273, 43.086810819907605, 0.0 ], [ -89.276259625329772, 43.086812328650183, 0.0 ], [ -89.276005318387547, 43.086823392762334, 0.0 ], [ -89.275975478812242, 43.086825236781031, 0.0 ], [ -89.275804404168539, 43.086827499894852, 0.0 ], [ -89.275618745013276, 43.086839150740246, 0.0 ], [ -89.275423614307428, 43.086834875969593, 0.0 ], [ -89.275248600169206, 43.0868434255108, 0.0 ], [ -89.275054726748863, 43.086848538471692, 0.0 ], [ -89.274822548031011, 43.086854657260986, 0.0 ], [ -89.274684833361889, 43.086859770221906, 0.0 ], [ -89.274524822830358, 43.086867565391834, 0.0 ], [ -89.274274036287451, 43.086866894839531, 0.0 ], [ -89.274244196712175, 43.086866224287284, 0.0 ], [ -89.273982932790318, 43.086864464087576, 0.0 ], [ -89.273933982475796, 43.086867062477559, 0.0 ], [ -89.273797441273132, 43.086829176275209, 0.0 ], [ -89.273765170945921, 43.086709817974032, 0.0 ], [ -89.27376852370719, 43.086621640352675, 0.0 ], [ -89.273756453766623, 43.086569504914948, 0.0 ], [ -89.273746814577976, 43.086472610114292, 0.0 ], [ -89.273785874246755, 43.086310001192743, 0.0 ], [ -89.273804984985972, 43.086212771115974, 0.0 ], [ -89.273847900330225, 43.086078409208149, 0.0 ], [ -89.273863658308187, 43.085973803056561, 0.0 ], [ -89.27389919757762, 43.085830221055225, 0.0 ], [ -89.273945800959254, 43.085719328476287, 0.0 ], [ -89.273953931405345, 43.085599970175132, 0.0 ], [ -89.273958960547247, 43.085522605208858, 0.0 ], [ -89.273934485389987, 43.085502823917345, 0.0 ], [ -89.273807248099843, 43.085425123674938, 0.0 ], [ -89.273719321935573, 43.085386818377437, 0.0 ], [ -89.273649668320218, 43.085371563313643, 0.0 ], [ -89.273644890635424, 43.085363684324676, 0.0 ], [ -89.273611949755946, 43.085359325735013, 0.0 ], [ -89.273585714399019, 43.085362343220133, 0.0 ], [ -89.273505248128572, 43.085359912468221, 0.0 ], [ -89.273386225103522, 43.085367456181061, 0.0 ], [ -89.273282121866146, 43.085366785628771, 0.0 ], [ -89.273117082192698, 43.08535513478337, 0.0 ], [ -89.27291851490655, 43.085343651575997, 0.0 ], [ -89.272675272076512, 43.085364941610031, 0.0 ], [ -89.272583993150988, 43.085368378190289, 0.0 ], [ -89.272434459998408, 43.085372652960899, 0.0 ], [ -89.272215776144662, 43.085380448130806, 0.0 ], [ -89.272193564101258, 43.085469547761534, 0.0 ], [ -89.272199263795414, 43.085610447553826, 0.0 ], [ -89.272222230210104, 43.08579317304298, 0.0 ], [ -89.272235138340989, 43.085899790851329, 0.0 ], [ -89.272251483052159, 43.086088635129776, 0.0 ], [ -89.272265145554343, 43.086187206311088, 0.0 ], [ -89.272250812499934, 43.086305726421912, 0.0 ], [ -89.272245699538985, 43.086445620385852, 0.0 ], [ -89.272257266565347, 43.08661996397182, 0.0 ], [ -89.272256176917949, 43.086678302017901, 0.0 ], [ -89.272256596013108, 43.086682157693346, 0.0 ], [ -89.272260451688553, 43.086699759690021, 0.0 ], [ -89.272261708974042, 43.08677645410404, 0.0 ], [ -89.272266905754009, 43.086932106045914, 0.0 ], [ -89.272263888268853, 43.087099073557106, 0.0 ], [ -89.27226179279306, 43.08715598667964, 0.0 ], [ -89.272268749772707, 43.087226897580472, 0.0 ], [ -89.272248884662204, 43.087354470146735, 0.0 ], [ -89.27227721549491, 43.087527640266266, 0.0 ], [ -89.272290794178048, 43.0877031573187, 0.0 ], [ -89.272292219101573, 43.087854031575766, 0.0 ], [ -89.272275539114261, 43.088045809520345, 0.0 ], [ -89.272254081442142, 43.088218895820823, 0.0 ], [ -89.272291632368365, 43.088296344606135, 0.0 ], [ -89.272291045635143, 43.088310593841513, 0.0 ], [ -89.272273946552659, 43.088466748697606, 0.0 ], [ -89.272277550771037, 43.088655257699934, 0.0 ], [ -89.272276628761688, 43.088667076183405, 0.0 ], [ -89.272267660125294, 43.088805126128648, 0.0 ], [ -89.272295068948665, 43.088872181354027, 0.0 ], [ -89.272329099475542, 43.088873857734661, 0.0 ], [ -89.272582652046481, 43.088858015937696, 0.0 ], [ -89.272600002586046, 43.088854998452568, 0.0 ], [ -89.272764958440447, 43.088841419769444, 0.0 ], [ -89.272801335900226, 43.0888333731424, 0.0 ], [ -89.272821284829774, 43.088821051744752, 0.0 ], [ -89.272826062514582, 43.088819543002167, 0.0 ], [ -89.272897224872509, 43.088815687326729, 0.0 ], [ -89.273112053050795, 43.088792301816909, 0.0 ], [ -89.273298298939267, 43.088722732020614, 0.0 ], [ -89.273482365532914, 43.08863078254285, 0.0 ], [ -89.273665593936244, 43.088540593264753, 0.0 ], [ -89.273814707993665, 43.088452499462434, 0.0 ], [ -89.273979160933877, 43.088367842240437, 0.0 ], [ -89.274067506193319, 43.088324004886857, 0.0 ], [ -89.274092400445724, 43.088325010715238, 0.0 ], [ -89.274226175620356, 43.088432299075833, 0.0 ], [ -89.274328351020017, 43.088484685970691, 0.0 ], [ -89.274430442600632, 43.088570684297238, 0.0 ], [ -89.274479057639041, 43.088662885232139, 0.0 ], [ -89.274480398743549, 43.088675541905914, 0.0 ], [ -89.274482242762247, 43.088732957942632, 0.0 ], [ -89.274470340459743, 43.088840162484217, 0.0 ], [ -89.274372607468763, 43.08890067982508, 0.0 ], [ -89.274244531988302, 43.088992964578985, 0.0 ], [ -89.274115031584302, 43.089084327323562, 0.0 ], [ -89.27410178817729, 43.089095391435741, 0.0 ], [ -89.273979412390972, 43.089199829949237, 0.0 ], [ -89.273899449034715, 43.089281218229004, 0.0 ], [ -89.27383155561904, 43.089348608730504, 0.0 ], [ -89.273828035219708, 43.089350285111145, 0.0 ], [ -89.273701636119895, 43.089450867949175, 0.0 ], [ -89.273687219246426, 43.089469475774209, 0.0 ], [ -89.273690739645758, 43.08947249325935, 0.0 ], [ -89.273653272538567, 43.08951658207004, 0.0 ], [ -89.273513378574663, 43.089669384164829, 0.0 ], [ -89.273477084933916, 43.089742474360499, 0.0 ], [ -89.27339100278833, 43.089872561497693, 0.0 ], [ -89.273366779088178, 43.089917823774812, 0.0 ], [ -89.273353451862135, 43.089955961434249, 0.0 ], [ -89.273259742184678, 43.090107673881626, 0.0 ], [ -89.27317533641974, 43.090252764625518, 0.0 ], [ -89.273111633955637, 43.090384863419509, 0.0 ], [ -89.273038627579012, 43.090565325794778, 0.0 ], [ -89.272989844902568, 43.090691641075551, 0.0 ], [ -89.272949192672158, 43.090824661878877, 0.0 ], [ -89.272923879324594, 43.090965058757007, 0.0 ], [ -89.27291197702209, 43.091112244976692, 0.0 ], [ -89.272914910688201, 43.091290528057144, 0.0 ], [ -89.272927735000039, 43.091453723711894, 0.0 ], [ -89.27289194427351, 43.091593617675819, 0.0 ], [ -89.272888256236115, 43.091687578810379, 0.0 ], [ -89.27291851490655, 43.091700235484176, 0.0 ], [ -89.273100988938609, 43.091685734791731, 0.0 ], [ -89.273265274240771, 43.091665282947979, 0.0 ], [ -89.273463003336573, 43.091627480564725, 0.0 ], [ -89.27369426004509, 43.091601077569763, 0.0 ], [ -89.273858964442397, 43.091618931023568, 0.0 ], [ -89.273954015224362, 43.091619685394853, 0.0 ], [ -89.27414428442637, 43.091617673738121, 0.0 ], [ -89.274377301334539, 43.091613231329468, 0.0 ], [ -89.274587435647035, 43.091625217451053, 0.0 ] ] } }
]
}
