{
"type": "FeatureCollection",
"name": "R_5EowUOerAmvbXWS_human_hrt",
"features": [
{ "type": "Feature", "properties": { "id": 1, "hrt": 80, "maxHrt": [ 0 ] }, "geometry": { "type": "LineString", "coordinates": [ [ -89.280068463383444, 43.088208548451384, 0.0 ], [ -89.280068463383444, 43.088208548451384, 0.0 ] ] } },
{ "type": "Feature", "properties": { "id": 2, "hrt": 90, "maxHrt": [ 0 ] }, "geometry": { "type": "LineString", "coordinates": [ [ -89.280068463383444, 43.088208548451384, 0.0 ], [ -89.280020518898468, 43.088188599522319, 0.0 ], [ -89.280006856396625, 43.088178876514874, 0.0 ] ] } },
{ "type": "Feature", "properties": { "id": 3, "hrt": 100, "maxHrt": [ 0 ] }, "geometry": { "type": "LineString", "coordinates": [ [ -89.280006856396625, 43.088178876514874, 0.0 ], [ -89.279911386521817, 43.088101930645621, 0.0 ], [ -89.279914320187856, 43.088118778270584, 0.0 ], [ -89.279914320187856, 43.088118778270584, 0.0 ], [ -89.279914320187856, 43.088118778270584, 0.0 ], [ -89.279914320187856, 43.088118526813496, 0.0 ] ] } },
{ "type": "Feature", "properties": { "id": 4, "hrt": 110, "maxHrt": [ 0 ] }, "geometry": { "type": "LineString", "coordinates": [ [ -89.279914320187856, 43.088118526813496, 0.0 ], [ -89.279914320187856, 43.088114084404921, 0.0 ], [ -89.279872494492039, 43.08808868723893, 0.0 ], [ -89.279805187811206, 43.088041748582306, 0.0 ], [ -89.279760512268382, 43.087984081089886, 0.0 ], [ -89.279738970777757, 43.087957342819415, 0.0 ] ] } },
{ "type": "Feature", "properties": { "id": 5, "hrt": 120, "maxHrt": [ 0 ] }, "geometry": { "type": "LineString", "coordinates": [ [ -89.279738970777757, 43.087957342819415, 0.0 ], [ -89.279664707117448, 43.087908224868016, 0.0 ], [ -89.279640148141752, 43.08789154488111, 0.0 ], [ -89.279604022139964, 43.087883079159113, 0.0 ], [ -89.279564208100851, 43.087900262060195, 0.0 ], [ -89.279556077654973, 43.087921887369852, 0.0 ], [ -89.279544929724025, 43.087935382233631, 0.0 ], [ -89.279531015765102, 43.087927000330666, 0.0 ], [ -89.279495979410697, 43.08791719350419, 0.0 ], [ -89.279455327181296, 43.087951643125393, 0.0 ], [ -89.279433618052607, 43.087980141595487, 0.0 ], [ -89.279381817892258, 43.088025487690544, 0.0 ], [ -89.279310152621875, 43.088074605641943, 0.0 ], [ -89.279220214803033, 43.088172841544733, 0.0 ], [ -89.27920428918739, 43.088189856807759, 0.0 ], [ -89.279158943092327, 43.088206201518553, 0.0 ], [ -89.279099347762227, 43.088227407733058, 0.0 ], [ -89.279056516238057, 43.088219444925237, 0.0 ], [ -89.279045452126127, 43.088210476289063, 0.0 ], [ -89.279030867614964, 43.088193628664094, 0.0 ], [ -89.27897269720836, 43.088154317539171, 0.0 ], [ -89.278854596195544, 43.088063541530026, 0.0 ], [ -89.27875812049237, 43.087995229020834, 0.0 ], [ -89.278672205986936, 43.087923144655299, 0.0 ], [ -89.278672792720144, 43.087919121341876, 0.0 ], [ -89.278664243179122, 43.087909398334432, 0.0 ], [ -89.278663488807851, 43.087912164362415, 0.0 ], [ -89.278663488807851, 43.087912164362415, 0.0 ], [ -89.278611688647516, 43.087881738054634, 0.0 ], [ -89.27850071225221, 43.087796326463383, 0.0 ], [ -89.278370625118129, 43.087657941245375, 0.0 ], [ -89.278345227952144, 43.087629861870433, 0.0 ], [ -89.278318992595842, 43.087608152741744, 0.0 ] ] } },
{ "type": "Feature", "properties": { "id": 6, "hrt": 120, "maxHrt": [ 0 ] }, "geometry": { "type": "LineString", "coordinates": [ [ -89.278318992595842, 43.087608152741744, 0.0 ], [ -89.278099219100014, 43.087401203557448, 0.0 ], [ -89.277992014561036, 43.087318222718061, 0.0 ], [ -89.277931581040633, 43.087265835824503, 0.0 ], [ -89.277823957406525, 43.087184028451532, 0.0 ], [ -89.277758243287252, 43.087137760347147, 0.0 ] ] } },
{ "type": "Feature", "properties": { "id": 7, "hrt": 110, "maxHrt": [ 0 ] }, "geometry": { "type": "LineString", "coordinates": [ [ -89.277758243287252, 43.087137760347147, 0.0 ], [ -89.277676184457192, 43.087065675981613, 0.0 ], [ -89.277654391509472, 43.087054779507753, 0.0 ], [ -89.277646596339707, 43.087058048449911, 0.0 ], [ -89.277614074556183, 43.087037177511519, 0.0 ], [ -89.277583564429378, 43.087011109793288, 0.0 ] ] } },
{ "type": "Feature", "properties": { "id": 8, "hrt": 110, "maxHrt": [ 0 ] }, "geometry": { "type": "LineString", "coordinates": [ [ -89.277583564429378, 43.087011109793288, 0.0 ], [ -89.277309392383287, 43.086736183375919, 0.0 ], [ -89.277220628030847, 43.08665278344138, 0.0 ] ] } },
{ "type": "Feature", "properties": { "id": 9, "hrt": 120, "maxHrt": [ 0 ] }, "geometry": { "type": "LineString", "coordinates": [ [ -89.277220628030847, 43.08665278344138, 0.0 ], [ -89.277103868122495, 43.086566868935954, 0.0 ], [ -89.277096994962051, 43.086567539488193, 0.0 ], [ -89.27707654311881, 43.086620429295927, 0.0 ], [ -89.277023988587203, 43.086646497014158, 0.0 ], [ -89.276973780988413, 43.086668625237991, 0.0 ], [ -89.276902115718045, 43.086716653542005, 0.0 ], [ -89.2768356472275, 43.086745990202395, 0.0 ], [ -89.276821062716337, 43.086759233609087, 0.0 ], [ -89.276798347759282, 43.086775745957929, 0.0 ], [ -89.276758785177279, 43.086788905545596, 0.0 ], [ -89.276698184018812, 43.086810363217189, 0.0 ], [ -89.276480003084544, 43.086839113144372, 0.0 ], [ -89.276397357521276, 43.086847411228312, 0.0 ] ] } },
{ "type": "Feature", "properties": { "id": 10, "hrt": 110, "maxHrt": [ 0 ] }, "geometry": { "type": "LineString", "coordinates": [ [ -89.276397357521276, 43.086847411228312, 0.0 ], [ -89.276295936495345, 43.086848500875696, 0.0 ], [ -89.27622787544324, 43.086852021274943, 0.0 ] ] } },
{ "type": "Feature", "properties": { "id": 11, "hrt": 120, "maxHrt": [ 0 ] }, "geometry": { "type": "LineString", "coordinates": [ [ -89.27622787544324, 43.086852021274943, 0.0 ], [ -89.27611647995279, 43.086861660463363, 0.0 ], [ -89.276099464689764, 43.086862833929779, 0.0 ], [ -89.276033163837283, 43.086869623271177, 0.0 ] ] } },
{ "type": "Feature", "properties": { "id": 12, "hrt": 110, "maxHrt": [ 0 ] }, "geometry": { "type": "LineString", "coordinates": [ [ -89.276033163837283, 43.086869623271177, 0.0 ], [ -89.275871225471931, 43.086872640756248, 0.0 ], [ -89.275700067013318, 43.086880435926012, 0.0 ], [ -89.275598394530306, 43.086873730403632, 0.0 ], [ -89.275534105334543, 43.08687205402304, 0.0 ], [ -89.275467050110791, 43.086872724575279, 0.0 ], [ -89.27539320554564, 43.086879262459597, 0.0 ], [ -89.275346434527066, 43.086878256631238, 0.0 ], [ -89.275276194180194, 43.086887225267411, 0.0 ], [ -89.275177287725171, 43.086895104256207, 0.0 ], [ -89.275059270531372, 43.086893427875609, 0.0 ], [ -89.275030185328063, 43.086893344056584, 0.0 ], [ -89.274880987455219, 43.086898289379334, 0.0 ] ] } },
{ "type": "Feature", "properties": { "id": 13, "hrt": 120, "maxHrt": [ 0 ] }, "geometry": { "type": "LineString", "coordinates": [ [ -89.274880987455219, 43.086898289379334, 0.0 ], [ -89.274668338576916, 43.086895942446503, 0.0 ], [ -89.274508411868268, 43.08689912756963, 0.0 ], [ -89.274332894820105, 43.086902480330814, 0.0 ], [ -89.274205489894982, 43.08690474344462, 0.0 ], [ -89.27406375191579, 43.086896361541648, 0.0 ], [ -89.273900388626927, 43.086903067064021, 0.0 ], [ -89.273793351726027, 43.086875993517438, 0.0 ], [ -89.27373040363473, 43.086768621340411, 0.0 ], [ -89.273721434998549, 43.086690418185711, 0.0 ], [ -89.273732582929497, 43.08662185421943, 0.0 ], [ -89.273726967054515, 43.086620177838839, 0.0 ], [ -89.273701234612403, 43.086566449840809, 0.0 ], [ -89.273710370886633, 43.086478775135753, 0.0 ], [ -89.273713053095577, 43.086474332727185, 0.0 ], [ -89.273713639828784, 43.086452623598497, 0.0 ], [ -89.273757309543257, 43.086301246430878, 0.0 ], [ -89.273761919589887, 43.086243998033602, 0.0 ], [ -89.273766529636518, 43.08617970883784, 0.0 ], [ -89.273802990914433, 43.086078958364155, 0.0 ], [ -89.273839284554285, 43.085939232041667, 0.0 ], [ -89.273858730569174, 43.085876116312313, 0.0 ], [ -89.273879685326605, 43.085802942299402, 0.0 ], [ -89.273930312020525, 43.085665898185866, 0.0 ], [ -89.273958475214499, 43.085547964811092, 0.0 ] ] } },
{ "type": "Feature", "properties": { "id": 14, "hrt": 130, "maxHrt": [ 0 ] }, "geometry": { "type": "LineString", "coordinates": [ [ -89.273958475214499, 43.085547964811092, 0.0 ], [ -89.273905333949685, 43.085474706979149, 0.0 ], [ -89.273747083621629, 43.085399186033406, 0.0 ], [ -89.273728391978011, 43.085390804130434, 0.0 ], [ -89.273657564897931, 43.085361299831987, 0.0 ], [ -89.273653290127413, 43.08535409139543, 0.0 ], [ -89.273647422795335, 43.08535140918648, 0.0 ] ] } },
{ "type": "Feature", "properties": { "id": 15, "hrt": 120, "maxHrt": [ 0 ] }, "geometry": { "type": "LineString", "coordinates": [ [ -89.273647422795335, 43.08535140918648, 0.0 ], [ -89.273593862435376, 43.085346380044697, 0.0 ], [ -89.273582714504428, 43.085350151901039, 0.0 ], [ -89.273494201609068, 43.085361886565195, 0.0 ], [ -89.273403090323811, 43.085357695613709, 0.0 ], [ -89.273331257415364, 43.085353169386103, 0.0 ], [ -89.273325138626191, 43.085354678128638, 0.0 ], [ -89.273236541911814, 43.08535442667155, 0.0 ], [ -89.273220197201027, 43.085355683956998, 0.0 ], [ -89.273203517214128, 43.085356103052142, 0.0 ], [ -89.272961112580276, 43.085362640936459, 0.0 ], [ -89.272943342945979, 43.085363060031611, 0.0 ], [ -89.272747038778462, 43.085377979818894, 0.0 ], [ -89.27261326360707, 43.085392145234906, 0.0 ], [ -89.272508154543857, 43.085395833272216, 0.0 ], [ -89.272369098773595, 43.085383847150972, 0.0 ], [ -89.272217973063078, 43.085391474682673, 0.0 ], [ -89.272198107953045, 43.085398347843103, 0.0 ], [ -89.272198610867221, 43.08543522821617, 0.0 ], [ -89.27223155174589, 43.085554586514441, 0.0 ], [ -89.272237419077968, 43.08561325983522, 0.0 ], [ -89.272230294460442, 43.08564293177173, 0.0 ], [ -89.272232389936178, 43.085658605930277, 0.0 ], [ -89.272248902285028, 43.08580512159417, 0.0 ], [ -89.27225585926449, 43.085892963937283, 0.0 ], [ -89.272279244773785, 43.086027996394108, 0.0 ], [ -89.272290811799877, 43.086155736595344, 0.0 ], [ -89.272291314714053, 43.086183815970294, 0.0 ], [ -89.272277819850274, 43.086359081561362, 0.0 ], [ -89.272271114327893, 43.086528479820359, 0.0 ], [ -89.272277987488337, 43.086639791491784, 0.0 ], [ -89.272282346077873, 43.086704164506578, 0.0 ], [ -89.272277819850274, 43.086722520874083, 0.0 ], [ -89.272277065479003, 43.086723191426316, 0.0 ] ] } },
{ "type": "Feature", "properties": { "id": 16, "hrt": 110, "maxHrt": [ 0 ] }, "geometry": { "type": "LineString", "coordinates": [ [ -89.272277065479003, 43.086723191426316, 0.0 ], [ -89.272275724374538, 43.086726711825563, 0.0 ], [ -89.272270024680509, 43.086824863909328, 0.0 ], [ -89.272264744081639, 43.086982443685137, 0.0 ] ] } },
{ "type": "Feature", "properties": { "id": 17, "hrt": 110, "maxHrt": [ 0 ] }, "geometry": { "type": "LineString", "coordinates": [ [ -89.272264744081639, 43.086982443685137, 0.0 ], [ -89.272283268087207, 43.087154775610173, 0.0 ] ] } },
{ "type": "Feature", "properties": { "id": 18, "hrt": 120, "maxHrt": [ 0 ] }, "geometry": { "type": "LineString", "coordinates": [ [ -89.272283268087207, 43.087154775610173, 0.0 ], [ -89.27230237882597, 43.087373124182506, 0.0 ], [ -89.272304977215896, 43.087418637915619, 0.0 ], [ -89.272310257814766, 43.08748896208153, 0.0 ], [ -89.272297936417402, 43.087658360340527, 0.0 ] ] } },
{ "type": "Feature", "properties": { "id": 19, "hrt": 130, "maxHrt": [ 0 ] }, "geometry": { "type": "LineString", "coordinates": [ [ -89.272297936417402, 43.087658360340527, 0.0 ], [ -89.272310760728942, 43.087783837427963, 0.0 ], [ -89.272294080742029, 43.087967317283947, 0.0 ], [ -89.272286453210327, 43.088143085789198, 0.0 ], [ -89.272288129590919, 43.088219444925237, 0.0 ], [ -89.272297349684195, 43.088254732736736, 0.0 ], [ -89.272307240329695, 43.088383730223427, 0.0 ], [ -89.272303133197241, 43.088541226180205, 0.0 ], [ -89.272293745465916, 43.088693860633263, 0.0 ], [ -89.272297768779339, 43.088803663562146, 0.0 ], [ -89.272300367169265, 43.088853619703841, 0.0 ], [ -89.272318974993851, 43.08886024140719, 0.0 ], [ -89.272336493171053, 43.088860157588158, 0.0 ] ] } },
{ "type": "Feature", "properties": { "id": 20, "hrt": 130, "maxHrt": [ 0 ] }, "geometry": { "type": "LineString", "coordinates": [ [ -89.272336493171053, 43.088860157588158, 0.0 ], [ -89.272495749327462, 43.088853116789664, 0.0 ], [ -89.272634805097709, 43.08884833910497, 0.0 ], [ -89.272793642158959, 43.088842052677748, 0.0 ], [ -89.272807807574978, 43.088843561420283, 0.0 ], [ -89.272804873908939, 43.088842052677748, 0.0 ] ] } },
{ "type": "Feature", "properties": { "id": 21, "hrt": 120, "maxHrt": [ 0 ] }, "geometry": { "type": "LineString", "coordinates": [ [ -89.272804873908939, 43.088842052677748, 0.0 ], [ -89.272805879737291, 43.088842052677748, 0.0 ], [ -89.272807556117883, 43.088841968858716, 0.0 ] ] } },
{ "type": "Feature", "properties": { "id": 22, "hrt": 110, "maxHrt": [ 0 ] }, "geometry": { "type": "LineString", "coordinates": [ [ -89.272807556117883, 43.088841968858716, 0.0 ], [ -89.272864972153229, 43.088842639410956, 0.0 ], [ -89.272891207509517, 43.088841549763565, 0.0 ], [ -89.272995310744378, 43.088837274993054, 0.0 ], [ -89.273148699568708, 43.088810369084527, 0.0 ] ] } },
{ "type": "Feature", "properties": { "id": 23, "hrt": 110, "maxHrt": [ 0 ] }, "geometry": { "type": "LineString", "coordinates": [ [ -89.273148699568708, 43.088810369084527, 0.0 ], [ -89.273361264627994, 43.088716659409336, 0.0 ] ] } },
{ "type": "Feature", "properties": { "id": 24, "hrt": 120, "maxHrt": [ 0 ] }, "geometry": { "type": "LineString", "coordinates": [ [ -89.273361264627994, 43.088716659409336, 0.0 ], [ -89.273561173013789, 43.08859512181629, 0.0 ], [ -89.27364557877668, 43.088552625568241, 0.0 ], [ -89.273748424726108, 43.088494455161637, 0.0 ], [ -89.273912877662355, 43.088410552312922, 0.0 ] ] } },
{ "type": "Feature", "properties": { "id": 25, "hrt": 120, "maxHrt": [ 0 ] }, "geometry": { "type": "LineString", "coordinates": [ [ -89.273912877662355, 43.088410552312922, 0.0 ], [ -89.274078839341129, 43.088338300309331, 0.0 ] ] } },
{ "type": "Feature", "properties": { "id": 26, "hrt": 130, "maxHrt": [ 0 ] }, "geometry": { "type": "LineString", "coordinates": [ [ -89.274078839341129, 43.088338300309331, 0.0 ], [ -89.274371367754739, 43.088557738529055, 0.0 ], [ -89.274480667769453, 43.088639210625907, 0.0 ], [ -89.274490977510098, 43.088748426821589, 0.0 ], [ -89.274469184562378, 43.088873568632906, 0.0 ], [ -89.274372038306979, 43.088943473703665, 0.0 ], [ -89.274298445198909, 43.088998207530054, 0.0 ], [ -89.274265671958304, 43.089026203085965, 0.0 ], [ -89.274198030001344, 43.089077081236987, 0.0 ], [ -89.274101302841089, 43.089151931630497, 0.0 ], [ -89.2739892367984, 43.089258297979164, 0.0 ], [ -89.273894940390008, 43.089350415092788, 0.0 ], [ -89.273873231261319, 43.08936332322336, 0.0 ], [ -89.273872895985193, 43.089364831965895, 0.0 ], [ -89.273879936783686, 43.089368436184174, 0.0 ], [ -89.273879936783686, 43.089368436184174, 0.0 ] ] } },
{ "type": "Feature", "properties": { "id": 27, "hrt": 120, "maxHrt": [ 0 ] }, "geometry": { "type": "LineString", "coordinates": [ [ -89.273879936783686, 43.089368436184174, 0.0 ], [ -89.273812881559934, 43.089422667096379, 0.0 ], [ -89.273720345351165, 43.089510341801429, 0.0 ] ] } },
{ "type": "Feature", "properties": { "id": 28, "hrt": 120, "maxHrt": [ 0 ] }, "geometry": { "type": "LineString", "coordinates": [ [ -89.273720345351165, 43.089510341801429, 0.0 ], [ -89.27372537449294, 43.089514951848066, 0.0 ], [ -89.273679525483715, 43.089558370105443, 0.0 ], [ -89.273586486360756, 43.089649397571677, 0.0 ], [ -89.273559161357085, 43.089673118357076, 0.0 ], [ -89.273487076991557, 43.089763391452053, 0.0 ], [ -89.273403760876036, 43.089890964015233, 0.0 ], [ -89.273375765320125, 43.089928934035683, 0.0 ] ] } },
{ "type": "Feature", "properties": { "id": 29, "hrt": 130, "maxHrt": [ 0 ] }, "geometry": { "type": "LineString", "coordinates": [ [ -89.273375765320125, 43.089928934035683, 0.0 ], [ -89.27334299207952, 43.089986517709072, 0.0 ], [ -89.273328659025438, 43.09000361679113, 0.0 ], [ -89.273234278798014, 43.090160106919555, 0.0 ], [ -89.273220532477154, 43.090191622874713, 0.0 ] ] } },
{ "type": "Feature", "properties": { "id": 30, "hrt": 140, "maxHrt": [ 0 ] }, "geometry": { "type": "LineString", "coordinates": [ [ -89.273220532477154, 43.090191622874713, 0.0 ], [ -89.273166636841069, 43.09032045272334, 0.0 ], [ -89.273122799488533, 43.090431764394765, 0.0 ] ] } },
{ "type": "Feature", "properties": { "id": 31, "hrt": 130, "maxHrt": [ 0 ] }, "geometry": { "type": "LineString", "coordinates": [ [ -89.273122799488533, 43.090431764394765, 0.0 ], [ -89.2730433390484, 43.090618010278725, 0.0 ], [ -89.273002602999966, 43.090695375243129, 0.0 ], [ -89.272971087044809, 43.090769806541488, 0.0 ], [ -89.272969829759361, 43.090906515378904, 0.0 ], [ -89.272947701535529, 43.091003242539166, 0.0 ], [ -89.272932949386302, 43.091111369087457, 0.0 ], [ -89.27291266518111, 43.091220333826051, 0.0 ], [ -89.272919538341554, 43.091314378777355, 0.0 ], [ -89.272923980750122, 43.091441532245391, 0.0 ] ] } },
{ "type": "Feature", "properties": { "id": 32, "hrt": 120, "maxHrt": [ 0 ] }, "geometry": { "type": "LineString", "coordinates": [ [ -89.272923980750122, 43.091441532245391, 0.0 ], [ -89.272921969093403, 43.091656276599444, 0.0 ], [ -89.272933033205334, 43.091696928828846, 0.0 ], [ -89.272966225541083, 43.091698102295261, 0.0 ], [ -89.273156746195554, 43.091678740099404, 0.0 ] ] } },
{ "type": "Feature", "properties": { "id": 33, "hrt": 130, "maxHrt": [ 0 ] }, "geometry": { "type": "LineString", "coordinates": [ [ -89.273156746195554, 43.091678740099404, 0.0 ], [ -89.273378112252956, 43.091667592168456, 0.0 ], [ -89.273440557430078, 43.091665999606889, 0.0 ], [ -89.273549186892552, 43.091665999606889, 0.0 ], [ -89.273624624019263, 43.091659126446451, 0.0 ], [ -89.273870549052361, 43.09165552222818, 0.0 ] ] } },
{ "type": "Feature", "properties": { "id": 34, "hrt": 140, "maxHrt": [ 0 ] }, "geometry": { "type": "LineString", "coordinates": [ [ -89.273870549052361, 43.09165552222818, 0.0 ], [ -89.274652161504179, 43.091654097304676, 0.0 ] ] } },
{ "type": "Feature", "properties": { "id": 35, "hrt": 130, "maxHrt": [ 0 ] }, "geometry": { "type": "LineString", "coordinates": [ [ -89.274652161504179, 43.091654097304676, 0.0 ], [ -89.274967321055797, 43.091757194711185, 0.0 ], [ -89.274992047669556, 43.091789632675678, 0.0 ], [ -89.275031526432542, 43.091788543028287, 0.0 ], [ -89.275184077066569, 43.091754009588058, 0.0 ], [ -89.275253311585089, 43.091725846394084, 0.0 ], [ -89.275264710973133, 43.091686870545281, 0.0 ], [ -89.275275355989891, 43.09166113810317, 0.0 ], [ -89.275293879995459, 43.091585449519364, 0.0 ], [ -89.275352637135271, 43.091544042918699, 0.0 ], [ -89.275437797269433, 43.091533314082895, 0.0 ], [ -89.275652457804455, 43.091514035706069, 0.0 ], [ -89.275905842731191, 43.091491739844173, 0.0 ], [ -89.275925707841225, 43.091489895825518, 0.0 ], [ -89.276008101947411, 43.091477322971066, 0.0 ], [ -89.276190827432131, 43.091458715146473, 0.0 ], [ -89.276309850454282, 43.091459804793864, 0.0 ], [ -89.276437842112614, 43.091484950502768, 0.0 ], [ -89.276662812388281, 43.091550077888833, 0.0 ], [ -89.276715199281838, 43.091572625207817, 0.0 ], [ -89.276741099362013, 43.09154077397654, 0.0 ], [ -89.276777476820897, 43.091495092605356, 0.0 ], [ -89.276804969462631, 43.091398952178309, 0.0 ], [ -89.276951149850404, 43.091255118723367, 0.0 ], [ -89.276967159285078, 43.091244473706602, 0.0 ], [ -89.277145945275393, 43.091132491482938, 0.0 ] ] } },
{ "type": "Feature", "properties": { "id": 36, "hrt": 140, "maxHrt": [ 0 ] }, "geometry": { "type": "LineString", "coordinates": [ [ -89.277145945275393, 43.091132491482938, 0.0 ], [ -89.277373262483906, 43.091005840929085, 0.0 ], [ -89.277529584974261, 43.090899726037499, 0.0 ], [ -89.277611559985303, 43.090777350254157, 0.0 ], [ -89.277776096740567, 43.090665535668556, 0.0 ], [ -89.277990170542395, 43.090645419101435, 0.0 ], [ -89.278121850238023, 43.090633097704071, 0.0 ], [ -89.278188570185648, 43.090622117411179, 0.0 ], [ -89.278324440832776, 43.090568389413157, 0.0 ] ] } },
{ "type": "Feature", "properties": { "id": 37, "hrt": 140, "maxHrt": [ 0 ] }, "geometry": { "type": "LineString", "coordinates": [ [ -89.278324440832776, 43.090568389413157, 0.0 ], [ -89.278503478280186, 43.090232610380234, 0.0 ], [ -89.278515212944342, 43.090225737219797, 0.0 ], [ -89.27851739223911, 43.09019782548291, 0.0 ], [ -89.278537089711094, 43.090149797178903, 0.0 ], [ -89.278616466332196, 43.090058685893638, 0.0 ], [ -89.278672876539176, 43.0900326181754, 0.0 ], [ -89.278685868488779, 43.090038317869421, 0.0 ], [ -89.278845376102268, 43.090126495488647, 0.0 ], [ -89.278929698046142, 43.090164884604249, 0.0 ], [ -89.279096414096188, 43.090219115516454, 0.0 ], [ -89.279242175388802, 43.090234119122769, 0.0 ], [ -89.279448705477947, 43.090230514904491, 0.0 ] ] } },
{ "type": "Feature", "properties": { "id": 38, "hrt": 130, "maxHrt": [ 0 ] }, "geometry": { "type": "LineString", "coordinates": [ [ -89.279448705477947, 43.090230514904491, 0.0 ], [ -89.279653223910387, 43.090227916514571, 0.0 ], [ -89.279854724857742, 43.090228167971659, 0.0 ], [ -89.280078856943135, 43.09022556958174, 0.0 ], [ -89.280199304888782, 43.090219869887719, 0.0 ], [ -89.280279100605043, 43.090218109688095, 0.0 ], [ -89.280496946263199, 43.090212409994081, 0.0 ], [ -89.280738345068698, 43.090209476328042, 0.0 ], [ -89.280978570407768, 43.09021132034669, 0.0 ], [ -89.281086529318017, 43.090210482156394, 0.0 ] ] } },
{ "type": "Feature", "properties": { "id": 39, "hrt": 120, "maxHrt": [ 0 ] }, "geometry": { "type": "LineString", "coordinates": [ [ -89.281086529318017, 43.090210482156394, 0.0 ], [ -89.281343937558177, 43.09020411191014, 0.0 ], [ -89.281472851225828, 43.090196484378438, 0.0 ] ] } },
{ "type": "Feature", "properties": { "id": 40, "hrt": 130, "maxHrt": [ 0 ] }, "geometry": { "type": "LineString", "coordinates": [ [ -89.281472851225828, 43.090196484378438, 0.0 ], [ -89.281682482619075, 43.090197909301942, 0.0 ], [ -89.28185213233516, 43.090229425257107, 0.0 ], [ -89.282048436502691, 43.09033470195839, 0.0 ], [ -89.282148600243161, 43.090399242611248, 0.0 ], [ -89.28218472624495, 43.090427154348134, 0.0 ], [ -89.282279274110437, 43.090408378885485, 0.0 ], [ -89.282454455882487, 43.09039899115416, 0.0 ], [ -89.282596864413918, 43.090370744141154, 0.0 ], [ -89.282714546331604, 43.090248284538781, 0.0 ], [ -89.282766681768067, 43.090163627318802, 0.0 ], [ -89.282778081156096, 43.090147785522191, 0.0 ], [ -89.282783026478853, 43.090078886279791, 0.0 ], [ -89.282783110297885, 43.089943853822966, 0.0 ], [ -89.282758467503157, 43.08986816523916, 0.0 ], [ -89.282728292652465, 43.089792392836323, 0.0 ] ] } },
{ "type": "Feature", "properties": { "id": 41, "hrt": 140, "maxHrt": [ 0 ] }, "geometry": { "type": "LineString", "coordinates": [ [ -89.282728292652465, 43.089792392836323, 0.0 ], [ -89.28270239257229, 43.089675046194763, 0.0 ], [ -89.2826586390388, 43.089536912433843, 0.0 ], [ -89.282621004294469, 43.08942166126802, 0.0 ], [ -89.282607677068754, 43.089321916622694, 0.0 ], [ -89.282556547460644, 43.089197361544585, 0.0 ], [ -89.28252335512488, 43.08907389611386, 0.0 ], [ -89.282511452822675, 43.088955459824909, 0.0 ], [ -89.282541711492385, 43.088773656349524, 0.0 ], [ -89.28256761157256, 43.088649436547527, 0.0 ], [ -89.282573646542701, 43.088546087683923, 0.0 ], [ -89.2825781727703, 43.088409378846507, 0.0 ], [ -89.282566270468081, 43.088224138790899, 0.0 ], [ -89.28257515528523, 43.088141157951512, 0.0 ], [ -89.282576999303885, 43.088119867917975, 0.0 ], [ -89.282566019011, 43.088078545136341, 0.0 ], [ -89.282561744240482, 43.088031438841654, 0.0 ] ] } },
{ "type": "Feature", "properties": { "id": 42, "hrt": 140, "maxHrt": [ 0 ] }, "geometry": { "type": "LineString", "coordinates": [ [ -89.282561744240482, 43.088031438841654, 0.0 ], [ -89.282555373994228, 43.087684930972934, 0.0 ], [ -89.282569455591215, 43.087545539926566, 0.0 ], [ -89.282559984040859, 43.087540175508664, 0.0 ], [ -89.282548584652815, 43.087540762241872, 0.0 ] ] } },
{ "type": "Feature", "properties": { "id": 43, "hrt": 140, "maxHrt": [ 0 ] }, "geometry": { "type": "LineString", "coordinates": [ [ -89.282548584652815, 43.087540762241872, 0.0 ], [ -89.282497287406656, 43.087554508562739, 0.0 ], [ -89.28248186470519, 43.087555430572067, 0.0 ], [ -89.282427969069104, 43.087556436400426, 0.0 ], [ -89.282345574962918, 43.087589209641031, 0.0 ], [ -89.282164777315884, 43.087604213247346, 0.0 ], [ -89.282037372390761, 43.087607482189505, 0.0 ], [ -89.281975765403942, 43.087612343693223, 0.0 ], [ -89.281806450963984, 43.087603542695106, 0.0 ], [ -89.281593382990522, 43.087599519381683, 0.0 ], [ -89.281475365796723, 43.087596082801468, 0.0 ], [ -89.281280402733671, 43.087597004810796, 0.0 ] ] } },
{ "type": "Feature", "properties": { "id": 44, "hrt": 150, "maxHrt": [ 1 ] }, "geometry": { "type": "LineString", "coordinates": [ [ -89.281280402733671, 43.087597004810796, 0.0 ], [ -89.280910593174696, 43.087602620685779, 0.0 ] ] } }
]
}
