{
"type": "FeatureCollection",
"name": "human_GPS",
"features": [
{ "type": "Feature", "properties": { "id": 1 }, "geometry": { "type": "LineString", "coordinates": [ [ -89.280070625244761, 43.088209591909418, 0.0 ], [ -89.280070625244761, 43.088209591909418, 0.0 ], [ -89.280070625244761, 43.088209591909418, 0.0 ], [ -89.280075151472502, 43.088217554717438, 0.0 ], [ -89.28002268075862, 43.088189642979856, 0.0 ], [ -89.280009018256465, 43.088179919972198, 0.0 ], [ -89.279932407661462, 43.088118815898049, 0.0 ], [ -89.27992134354929, 43.088111858918417, 0.0 ], [ -89.279909189789691, 43.088110685451994, 0.0 ], [ -89.279913548379341, 43.088102974101055, 0.0 ], [ -89.279916482045451, 43.088119821726437, 0.0 ], [ -89.279916482045451, 43.088119821726437, 0.0 ], [ -89.279916482045451, 43.088119821726437, 0.0 ], [ -89.279916482045451, 43.088119570269342, 0.0 ], [ -89.279916482045451, 43.088117726250644, 0.0 ], [ -89.279916482045451, 43.088115127860661, 0.0 ], [ -89.279874656348625, 43.088089730694044, 0.0 ], [ -89.279807349666157, 43.088042792036269, 0.0 ], [ -89.279762674122253, 43.087985124542435, 0.0 ], [ -89.279741132631116, 43.087958386271325, 0.0 ], [ -89.279681202023411, 43.087916476755453, 0.0 ], [ -89.279666868969002, 43.087909268318732, 0.0 ], [ -89.279642309992695, 43.087892588331393, 0.0 ], [ -89.27960618399004, 43.087884122609204, 0.0 ], [ -89.279566369949961, 43.087901305510698, 0.0 ] ] } },
{ "type": "Feature", "properties": { "id": 2 }, "geometry": { "type": "LineString", "coordinates": [ [ -89.280070625244761, 43.088209591909418, 0.0 ], [ -89.280070625244761, 43.088209591909418, 0.0 ], [ -89.280070625244761, 43.088209591909418, 0.0 ], [ -89.280075151472502, 43.088217554717438, 0.0 ], [ -89.28002268075862, 43.088189642979856, 0.0 ], [ -89.280009018256465, 43.088179919972198, 0.0 ], [ -89.279932407661462, 43.088118815898049, 0.0 ], [ -89.27992134354929, 43.088111858918417, 0.0 ], [ -89.279909189789691, 43.088110685451994, 0.0 ], [ -89.279913548379341, 43.088102974101055, 0.0 ], [ -89.279916482045451, 43.088119821726437, 0.0 ], [ -89.279916482045451, 43.088119821726437, 0.0 ], [ -89.279916482045451, 43.088119821726437, 0.0 ], [ -89.279916482045451, 43.088119570269342, 0.0 ], [ -89.279916482045451, 43.088117726250644, 0.0 ], [ -89.279916482045451, 43.088115127860661, 0.0 ], [ -89.279874656348625, 43.088089730694044, 0.0 ], [ -89.279807349666157, 43.088042792036269, 0.0 ], [ -89.279762674122253, 43.087985124542435, 0.0 ], [ -89.279741132631116, 43.087958386271325, 0.0 ], [ -89.279681202023411, 43.087916476755453, 0.0 ], [ -89.279666868969002, 43.087909268318732, 0.0 ], [ -89.279642309992695, 43.087892588331393, 0.0 ], [ -89.27960618399004, 43.087884122609204, 0.0 ], [ -89.279566369949961, 43.087901305510698, 0.0 ], [ -89.279558239503899, 43.087922930820874, 0.0 ], [ -89.279547091572695, 43.08793642568498, 0.0 ], [ -89.279533177613416, 43.087928043781794, 0.0 ], [ -89.279498141258159, 43.087918236955083, 0.0 ], [ -89.279457489027777, 43.087952686577133, 0.0 ], [ -89.279435779898563, 43.087981185047916, 0.0 ], [ -89.279383979736949, 43.088026531144045, 0.0 ], [ -89.27931231446486, 43.088075649096631, 0.0 ], [ -89.279222376643816, 43.088173885001773, 0.0 ], [ -89.27920645102779, 43.088190900265232, 0.0 ], [ -89.279161104931617, 43.088207244976402, 0.0 ], [ -89.279101509600068, 43.088228451191426, 0.0 ], [ -89.279058678074861, 43.088220488383399, 0.0 ], [ -89.279047613962689, 43.088211519746991, 0.0 ], [ -89.27903302945117, 43.088194672121631, 0.0 ], [ -89.27897485904316, 43.088155360995756, 0.0 ], [ -89.278856758027473, 43.088064584984402, 0.0 ], [ -89.278760282321969, 43.087996272473511, 0.0 ], [ -89.27867436781446, 43.087924188106214, 0.0 ], [ -89.278674954547682, 43.087920164792713, 0.0 ], [ -89.278666405006433, 43.087910441785034, 0.0 ], [ -89.278665650635162, 43.087913207813095, 0.0 ], [ -89.278665650635162, 43.087913207813095, 0.0 ], [ -89.278613850473562, 43.08788278150454, 0.0 ], [ -89.278502874075571, 43.087797369911208, 0.0 ], [ -89.278372786938348, 43.087658984689838, 0.0 ], [ -89.278347389771724, 43.087630905314214, 0.0 ], [ -89.278321154414812, 43.087609196185007, 0.0 ], [ -89.278288381173397, 43.087576758219733, 0.0 ], [ -89.278190312906304, 43.087486904217712, 0.0 ], [ -89.278101380913654, 43.087402246995644, 0.0 ], [ -89.27799417637209, 43.087319266154246, 0.0 ], [ -89.277933742850223, 43.08726687925941, 0.0 ], [ -89.277826119213501, 43.087185071884434, 0.0 ], [ -89.27776040509265, 43.087138803778927, 0.0 ], [ -89.277689075096646, 43.08707476603869, 0.0 ], [ -89.277678346260586, 43.087066719411645, 0.0 ], [ -89.277656553312326, 43.087055822937508, 0.0 ], [ -89.277648758142391, 43.087059091879745, 0.0 ], [ -89.277616236358085, 43.08703822094084, 0.0 ], [ -89.277585726230541, 43.087012153222005, 0.0 ], [ -89.277513977139392, 43.086937219007623, 0.0 ], [ -89.277413310482288, 43.086832109941831, 0.0 ], [ -89.2773115541778, 43.086737226797929, 0.0 ], [ -89.277222789823213, 43.08665382686133, 0.0 ], [ -89.27719429135243, 43.086621053619929, 0.0 ], [ -89.277106029912034, 43.086567912353836, 0.0 ], [ -89.277099156751433, 43.086568582906075, 0.0 ], [ -89.27707870490768, 43.086621472715088, 0.0 ], [ -89.277026150374823, 43.086647540433937, 0.0 ], [ -89.276975942774826, 43.086669668658303, 0.0 ], [ -89.27690427750268, 43.086717696963461, 0.0 ], [ -89.276837809010544, 43.08674703362454, 0.0 ], [ -89.276823224499026, 43.086760277031573, 0.0 ], [ -89.276800509541417, 43.086776789380814, 0.0 ], [ -89.276760946958461, 43.0867899489688, 0.0 ], [ -89.276700345798531, 43.086811406640898, 0.0 ], [ -89.27648216485899, 43.086840156568755, 0.0 ], [ -89.27639951929369, 43.08684845465288, 0.0 ], [ -89.276309916748801, 43.08685189123316, 0.0 ], [ -89.276298098265329, 43.086849544300257, 0.0 ], [ -89.276230037211576, 43.086853064699589, 0.0 ], [ -89.276130124925771, 43.086858848212771, 0.0 ], [ -89.276118641718426, 43.086862703888229, 0.0 ], [ -89.276101626454988, 43.086863877354666, 0.0 ], [ -89.276035325600887, 43.086870666696235, 0.0 ], [ -89.275991488247314, 43.086868403582372, 0.0 ], [ -89.275873387231627, 43.086873684181349, 0.0 ], [ -89.275702228768864, 43.086881479351263, 0.0 ], [ -89.275600556283393, 43.086874773828697, 0.0 ], [ -89.275536267086068, 43.08687309744807, 0.0 ], [ -89.275469211860695, 43.086873768000316, 0.0 ], [ -89.275395367293754, 43.086880305884776, 0.0 ], [ -89.275348596274057, 43.086879300056374, 0.0 ], [ -89.275278355925479, 43.086888268692768, 0.0 ], [ -89.275179449468055, 43.086896147681742, 0.0 ], [ -89.2750614322714, 43.086894471301093, 0.0 ], [ -89.275032347067381, 43.08689438748204, 0.0 ], [ -89.274883149190956, 43.086899332804897, 0.0 ], [ -89.274760521947528, 43.086901009185517, 0.0 ], [ -89.274670500307465, 43.086896985872002, 0.0 ], [ -89.274510573594966, 43.086900170995172, 0.0 ], [ -89.274335056542554, 43.086903523756398, 0.0 ], [ -89.274207651614347, 43.086905786870254, 0.0 ], [ -89.274065913631716, 43.086897404967075, 0.0 ], [ -89.273902550338903, 43.08690411048957, 0.0 ], [ -89.273795513435402, 43.086877036942305, 0.0 ], [ -89.273732565342584, 43.08676966476267, 0.0 ], [ -89.273723596706191, 43.086691461606065, 0.0 ], [ -89.273734744637409, 43.086622897638136, 0.0 ], [ -89.273729128762284, 43.086621221257516, 0.0 ], [ -89.273703396319561, 43.08656749325818, 0.0 ], [ -89.273712532594004, 43.086479818551012, 0.0 ], [ -89.273715214803005, 43.086475376142332, 0.0 ], [ -89.273715801536227, 43.086453667013103, 0.0 ], [ -89.273759471251751, 43.086302289841839, 0.0 ], [ -89.273764081298509, 43.086245041443178, 0.0 ], [ -89.273768691345239, 43.086180752245845, 0.0 ], [ -89.27380515262405, 43.086080001769737, 0.0 ], [ -89.273841446264782, 43.085940275443861, 0.0 ], [ -89.27386089228014, 43.085877159712993, 0.0 ], [ -89.273881847038069, 43.085803985698298, 0.0 ], [ -89.273932473733225, 43.085666941581472, 0.0 ], [ -89.273960636927868, 43.085549008203856, 0.0 ], [ -89.273955607785965, 43.085502069546074, 0.0 ], [ -89.273907495661774, 43.085475750370129, 0.0 ], [ -89.273749245329896, 43.085400229422511, 0.0 ], [ -89.273730553685823, 43.085391847519354, 0.0 ], [ -89.273659726604023, 43.085362343220147, 0.0 ], [ -89.273655451833392, 43.085355134783434, 0.0 ], [ -89.273649584501172, 43.085352452574398, 0.0 ], [ -89.273606082423726, 43.085347255794424, 0.0 ], [ -89.27359602413992, 43.085347423432509, 0.0 ], [ -89.273584876208702, 43.085351195288922, 0.0 ], [ -89.273496363311196, 43.085362929953362, 0.0 ], [ -89.273405252023721, 43.085358739001776, 0.0 ], [ -89.273333419113555, 43.085354212774028, 0.0 ], [ -89.27332730032424, 43.085355721516613, 0.0 ], [ -89.273238703607717, 43.085355470059518, 0.0 ], [ -89.273222358896518, 43.08535672734498, 0.0 ], [ -89.273205678909207, 43.085357146440117, 0.0 ], [ -89.2729632742695, 43.085363684324584, 0.0 ], [ -89.272945504634762, 43.085364103419728, 0.0 ], [ -89.272749200462499, 43.085379023207331, 0.0 ], [ -89.272615425287867, 43.085393188623677, 0.0 ], [ -89.272510316222096, 43.085396876661072, 0.0 ], [ -89.272371260448494, 43.085384890539508, 0.0 ], [ -89.272220134734312, 43.085392518071373, 0.0 ], [ -89.272200269623795, 43.085399391231974, 0.0 ], [ -89.272200772537985, 43.085436271605928, 0.0 ], [ -89.272233713417435, 43.085555629907105, 0.0 ], [ -89.272239580749655, 43.085614303229292, 0.0 ], [ -89.272232456131974, 43.085643975166512, 0.0 ], [ -89.272234551607752, 43.085659649325464, 0.0 ], [ -89.272251063957015, 43.085806164992881, 0.0 ], [ -89.272258020936647, 43.085894007338119, 0.0 ], [ -89.272281406446481, 43.086029039798241, 0.0 ], [ -89.272292973472872, 43.086156780002582, 0.0 ], [ -89.272293476387077, 43.0861848593782, 0.0 ], [ -89.272279981522956, 43.086360124973496, 0.0 ], [ -89.272273276000419, 43.086529523236592, 0.0 ], [ -89.27228014916102, 43.086640834910696, 0.0 ] ] } },
{ "type": "Feature", "properties": { "id": 3 }, "geometry": { "type": "LineString", "coordinates": [ [ -89.280070625244761, 43.088209591909418, 0.0 ], [ -89.280070625244761, 43.088209591909418, 0.0 ], [ -89.280070625244761, 43.088209591909418, 0.0 ], [ -89.280075151472502, 43.088217554717438, 0.0 ], [ -89.28002268075862, 43.088189642979856, 0.0 ], [ -89.280009018256465, 43.088179919972198, 0.0 ], [ -89.279932407661462, 43.088118815898049, 0.0 ], [ -89.27992134354929, 43.088111858918417, 0.0 ], [ -89.279909189789691, 43.088110685451994, 0.0 ], [ -89.279913548379341, 43.088102974101055, 0.0 ], [ -89.279916482045451, 43.088119821726437, 0.0 ], [ -89.279916482045451, 43.088119821726437, 0.0 ], [ -89.279916482045451, 43.088119821726437, 0.0 ], [ -89.279916482045451, 43.088119570269342, 0.0 ], [ -89.279916482045451, 43.088117726250644, 0.0 ], [ -89.279916482045451, 43.088115127860661, 0.0 ], [ -89.279874656348625, 43.088089730694044, 0.0 ], [ -89.279807349666157, 43.088042792036269, 0.0 ], [ -89.279762674122253, 43.087985124542435, 0.0 ], [ -89.279741132631116, 43.087958386271325, 0.0 ], [ -89.279681202023411, 43.087916476755453, 0.0 ], [ -89.279666868969002, 43.087909268318732, 0.0 ], [ -89.279642309992695, 43.087892588331393, 0.0 ], [ -89.27960618399004, 43.087884122609204, 0.0 ], [ -89.279566369949961, 43.087901305510698, 0.0 ], [ -89.279558239503899, 43.087922930820874, 0.0 ], [ -89.279547091572695, 43.08793642568498, 0.0 ], [ -89.279533177613416, 43.087928043781794, 0.0 ], [ -89.279498141258159, 43.087918236955083, 0.0 ], [ -89.279457489027777, 43.087952686577133, 0.0 ], [ -89.279435779898563, 43.087981185047916, 0.0 ], [ -89.279383979736949, 43.088026531144045, 0.0 ], [ -89.27931231446486, 43.088075649096631, 0.0 ], [ -89.279222376643816, 43.088173885001773, 0.0 ], [ -89.27920645102779, 43.088190900265232, 0.0 ], [ -89.279161104931617, 43.088207244976402, 0.0 ], [ -89.279101509600068, 43.088228451191426, 0.0 ], [ -89.279058678074861, 43.088220488383399, 0.0 ], [ -89.279047613962689, 43.088211519746991, 0.0 ], [ -89.27903302945117, 43.088194672121631, 0.0 ], [ -89.27897485904316, 43.088155360995756, 0.0 ], [ -89.278856758027473, 43.088064584984402, 0.0 ], [ -89.278760282321969, 43.087996272473511, 0.0 ], [ -89.27867436781446, 43.087924188106214, 0.0 ], [ -89.278674954547682, 43.087920164792713, 0.0 ], [ -89.278666405006433, 43.087910441785034, 0.0 ], [ -89.278665650635162, 43.087913207813095, 0.0 ], [ -89.278665650635162, 43.087913207813095, 0.0 ], [ -89.278613850473562, 43.08788278150454, 0.0 ], [ -89.278502874075571, 43.087797369911208, 0.0 ], [ -89.278372786938348, 43.087658984689838, 0.0 ], [ -89.278347389771724, 43.087630905314214, 0.0 ], [ -89.278321154414812, 43.087609196185007, 0.0 ], [ -89.278288381173397, 43.087576758219733, 0.0 ], [ -89.278190312906304, 43.087486904217712, 0.0 ], [ -89.278101380913654, 43.087402246995644, 0.0 ], [ -89.27799417637209, 43.087319266154246, 0.0 ], [ -89.277933742850223, 43.08726687925941, 0.0 ], [ -89.277826119213501, 43.087185071884434, 0.0 ], [ -89.27776040509265, 43.087138803778927, 0.0 ], [ -89.277689075096646, 43.08707476603869, 0.0 ], [ -89.277678346260586, 43.087066719411645, 0.0 ], [ -89.277656553312326, 43.087055822937508, 0.0 ], [ -89.277648758142391, 43.087059091879745, 0.0 ], [ -89.277616236358085, 43.08703822094084, 0.0 ], [ -89.277585726230541, 43.087012153222005, 0.0 ], [ -89.277513977139392, 43.086937219007623, 0.0 ], [ -89.277413310482288, 43.086832109941831, 0.0 ], [ -89.2773115541778, 43.086737226797929, 0.0 ], [ -89.277222789823213, 43.08665382686133, 0.0 ], [ -89.27719429135243, 43.086621053619929, 0.0 ], [ -89.277106029912034, 43.086567912353836, 0.0 ], [ -89.277099156751433, 43.086568582906075, 0.0 ], [ -89.27707870490768, 43.086621472715088, 0.0 ], [ -89.277026150374823, 43.086647540433937, 0.0 ], [ -89.276975942774826, 43.086669668658303, 0.0 ], [ -89.27690427750268, 43.086717696963461, 0.0 ], [ -89.276837809010544, 43.08674703362454, 0.0 ], [ -89.276823224499026, 43.086760277031573, 0.0 ], [ -89.276800509541417, 43.086776789380814, 0.0 ], [ -89.276760946958461, 43.0867899489688, 0.0 ], [ -89.276700345798531, 43.086811406640898, 0.0 ], [ -89.27648216485899, 43.086840156568755, 0.0 ], [ -89.27639951929369, 43.08684845465288, 0.0 ], [ -89.276309916748801, 43.08685189123316, 0.0 ], [ -89.276298098265329, 43.086849544300257, 0.0 ], [ -89.276230037211576, 43.086853064699589, 0.0 ], [ -89.276130124925771, 43.086858848212771, 0.0 ], [ -89.276118641718426, 43.086862703888229, 0.0 ], [ -89.276101626454988, 43.086863877354666, 0.0 ], [ -89.276035325600887, 43.086870666696235, 0.0 ], [ -89.275991488247314, 43.086868403582372, 0.0 ], [ -89.275873387231627, 43.086873684181349, 0.0 ], [ -89.275702228768864, 43.086881479351263, 0.0 ], [ -89.275600556283393, 43.086874773828697, 0.0 ], [ -89.275536267086068, 43.08687309744807, 0.0 ], [ -89.275469211860695, 43.086873768000316, 0.0 ], [ -89.275395367293754, 43.086880305884776, 0.0 ], [ -89.275348596274057, 43.086879300056374, 0.0 ], [ -89.275278355925479, 43.086888268692768, 0.0 ], [ -89.275179449468055, 43.086896147681742, 0.0 ], [ -89.2750614322714, 43.086894471301093, 0.0 ], [ -89.275032347067381, 43.08689438748204, 0.0 ], [ -89.274883149190956, 43.086899332804897, 0.0 ], [ -89.274760521947528, 43.086901009185517, 0.0 ], [ -89.274670500307465, 43.086896985872002, 0.0 ], [ -89.274510573594966, 43.086900170995172, 0.0 ], [ -89.274335056542554, 43.086903523756398, 0.0 ], [ -89.274207651614347, 43.086905786870254, 0.0 ], [ -89.274065913631716, 43.086897404967075, 0.0 ], [ -89.273902550338903, 43.08690411048957, 0.0 ], [ -89.273795513435402, 43.086877036942305, 0.0 ], [ -89.273732565342584, 43.08676966476267, 0.0 ], [ -89.273723596706191, 43.086691461606065, 0.0 ], [ -89.273734744637409, 43.086622897638136, 0.0 ], [ -89.273729128762284, 43.086621221257516, 0.0 ], [ -89.273703396319561, 43.08656749325818, 0.0 ], [ -89.273712532594004, 43.086479818551012, 0.0 ], [ -89.273715214803005, 43.086475376142332, 0.0 ], [ -89.273715801536227, 43.086453667013103, 0.0 ], [ -89.273759471251751, 43.086302289841839, 0.0 ], [ -89.273764081298509, 43.086245041443178, 0.0 ], [ -89.273768691345239, 43.086180752245845, 0.0 ], [ -89.27380515262405, 43.086080001769737, 0.0 ], [ -89.273841446264782, 43.085940275443861, 0.0 ], [ -89.27386089228014, 43.085877159712993, 0.0 ], [ -89.273881847038069, 43.085803985698298, 0.0 ], [ -89.273932473733225, 43.085666941581472, 0.0 ], [ -89.273960636927868, 43.085549008203856, 0.0 ], [ -89.273955607785965, 43.085502069546074, 0.0 ], [ -89.273907495661774, 43.085475750370129, 0.0 ], [ -89.273749245329896, 43.085400229422511, 0.0 ], [ -89.273730553685823, 43.085391847519354, 0.0 ], [ -89.273659726604023, 43.085362343220147, 0.0 ], [ -89.273655451833392, 43.085355134783434, 0.0 ], [ -89.273649584501172, 43.085352452574398, 0.0 ], [ -89.273606082423726, 43.085347255794424, 0.0 ], [ -89.27359602413992, 43.085347423432509, 0.0 ], [ -89.273584876208702, 43.085351195288922, 0.0 ], [ -89.273496363311196, 43.085362929953362, 0.0 ], [ -89.273405252023721, 43.085358739001776, 0.0 ], [ -89.273333419113555, 43.085354212774028, 0.0 ], [ -89.27332730032424, 43.085355721516613, 0.0 ], [ -89.273238703607717, 43.085355470059518, 0.0 ], [ -89.273222358896518, 43.08535672734498, 0.0 ], [ -89.273205678909207, 43.085357146440117, 0.0 ], [ -89.2729632742695, 43.085363684324584, 0.0 ], [ -89.272945504634762, 43.085364103419728, 0.0 ], [ -89.272749200462499, 43.085379023207331, 0.0 ], [ -89.272615425287867, 43.085393188623677, 0.0 ], [ -89.272510316222096, 43.085396876661072, 0.0 ], [ -89.272371260448494, 43.085384890539508, 0.0 ], [ -89.272220134734312, 43.085392518071373, 0.0 ], [ -89.272200269623795, 43.085399391231974, 0.0 ], [ -89.272200772537985, 43.085436271605928, 0.0 ], [ -89.272233713417435, 43.085555629907105, 0.0 ], [ -89.272239580749655, 43.085614303229292, 0.0 ], [ -89.272232456131974, 43.085643975166512, 0.0 ], [ -89.272234551607752, 43.085659649325464, 0.0 ], [ -89.272251063957015, 43.085806164992881, 0.0 ], [ -89.272258020936647, 43.085894007338119, 0.0 ], [ -89.272281406446481, 43.086029039798241, 0.0 ], [ -89.272292973472872, 43.086156780002582, 0.0 ], [ -89.272293476387077, 43.0861848593782, 0.0 ], [ -89.272279981522956, 43.086360124973496, 0.0 ], [ -89.272273276000419, 43.086529523236592, 0.0 ], [ -89.27228014916102, 43.086640834910696, 0.0 ], [ -89.272284507750669, 43.086705207927096, 0.0 ], [ -89.272279981522956, 43.086723564295013, 0.0 ], [ -89.272279227151671, 43.086724234847281, 0.0 ], [ -89.272280819713259, 43.086725324494687, 0.0 ], [ -89.272277886047164, 43.086727755246599, 0.0 ], [ -89.272272186353007, 43.086825907332745, 0.0 ], [ -89.272266905754009, 43.086983487112377, 0.0 ], [ -89.272268330677548, 43.087026402456587, 0.0 ], [ -89.272269671782055, 43.087039645863626, 0.0 ], [ -89.272285429760018, 43.087155819041591, 0.0 ], [ -89.272282244636813, 43.087169397724729, 0.0 ], [ -89.272313090040484, 43.087241649730053, 0.0 ], [ -89.272300349547663, 43.087358828736392, 0.0 ], [ -89.272304540499249, 43.087374167619203, 0.0 ], [ -89.272307138889232, 43.08741968135341, 0.0 ], [ -89.272312419488244, 43.08749000552104, 0.0 ], [ -89.272300098090568, 43.087659403784109, 0.0 ], [ -89.27230194210928, 43.087702570585463, 0.0 ], [ -89.272312922402421, 43.087784880874601, 0.0 ], [ -89.272296242415109, 43.087968360735019, 0.0 ], [ -89.272288614883223, 43.088144129244533, 0.0 ], [ -89.272290291263857, 43.088220488382419, 0.0 ], [ -89.272299511357346, 43.088255776194785, 0.0 ], [ -89.272309402003074, 43.088384773684574, 0.0 ], [ -89.272305294870534, 43.088542269645167, 0.0 ], [ -89.272295907138968, 43.088694904101935, 0.0 ], [ -89.27229993045249, 43.088804707033489, 0.0 ], [ -89.272302528842474, 43.088854663176384, 0.0 ], [ -89.272321136667529, 43.088861284879904, 0.0 ], [ -89.272338654845157, 43.088861201060858, 0.0 ], [ -89.2723820731036, 43.088858099756685, 0.0 ], [ -89.272448709233799, 43.088854160262201, 0.0 ], [ -89.272497911005402, 43.088854160262208, 0.0 ] ] } },
{ "type": "Feature", "properties": { "id": 4 }, "geometry": { "type": "LineString", "coordinates": [ [ -89.280070625244761, 43.088209591909418, 0.0 ], [ -89.280070625244761, 43.088209591909418, 0.0 ], [ -89.280070625244761, 43.088209591909418, 0.0 ], [ -89.280075151472502, 43.088217554717438, 0.0 ], [ -89.28002268075862, 43.088189642979856, 0.0 ], [ -89.280009018256465, 43.088179919972198, 0.0 ], [ -89.279932407661462, 43.088118815898049, 0.0 ], [ -89.27992134354929, 43.088111858918417, 0.0 ], [ -89.279909189789691, 43.088110685451994, 0.0 ], [ -89.279913548379341, 43.088102974101055, 0.0 ], [ -89.279916482045451, 43.088119821726437, 0.0 ], [ -89.279916482045451, 43.088119821726437, 0.0 ], [ -89.279916482045451, 43.088119821726437, 0.0 ], [ -89.279916482045451, 43.088119570269342, 0.0 ], [ -89.279916482045451, 43.088117726250644, 0.0 ], [ -89.279916482045451, 43.088115127860661, 0.0 ], [ -89.279874656348625, 43.088089730694044, 0.0 ], [ -89.279807349666157, 43.088042792036269, 0.0 ], [ -89.279762674122253, 43.087985124542435, 0.0 ], [ -89.279741132631116, 43.087958386271325, 0.0 ], [ -89.279681202023411, 43.087916476755453, 0.0 ], [ -89.279666868969002, 43.087909268318732, 0.0 ], [ -89.279642309992695, 43.087892588331393, 0.0 ], [ -89.27960618399004, 43.087884122609204, 0.0 ], [ -89.279566369949961, 43.087901305510698, 0.0 ], [ -89.279558239503899, 43.087922930820874, 0.0 ], [ -89.279547091572695, 43.08793642568498, 0.0 ], [ -89.279533177613416, 43.087928043781794, 0.0 ], [ -89.279498141258159, 43.087918236955083, 0.0 ], [ -89.279457489027777, 43.087952686577133, 0.0 ], [ -89.279435779898563, 43.087981185047916, 0.0 ], [ -89.279383979736949, 43.088026531144045, 0.0 ], [ -89.27931231446486, 43.088075649096631, 0.0 ], [ -89.279222376643816, 43.088173885001773, 0.0 ], [ -89.27920645102779, 43.088190900265232, 0.0 ], [ -89.279161104931617, 43.088207244976402, 0.0 ], [ -89.279101509600068, 43.088228451191426, 0.0 ], [ -89.279058678074861, 43.088220488383399, 0.0 ], [ -89.279047613962689, 43.088211519746991, 0.0 ], [ -89.27903302945117, 43.088194672121631, 0.0 ], [ -89.27897485904316, 43.088155360995756, 0.0 ], [ -89.278856758027473, 43.088064584984402, 0.0 ], [ -89.278760282321969, 43.087996272473511, 0.0 ], [ -89.27867436781446, 43.087924188106214, 0.0 ], [ -89.278674954547682, 43.087920164792713, 0.0 ], [ -89.278666405006433, 43.087910441785034, 0.0 ], [ -89.278665650635162, 43.087913207813095, 0.0 ], [ -89.278665650635162, 43.087913207813095, 0.0 ], [ -89.278613850473562, 43.08788278150454, 0.0 ], [ -89.278502874075571, 43.087797369911208, 0.0 ], [ -89.278372786938348, 43.087658984689838, 0.0 ], [ -89.278347389771724, 43.087630905314214, 0.0 ], [ -89.278321154414812, 43.087609196185007, 0.0 ], [ -89.278288381173397, 43.087576758219733, 0.0 ], [ -89.278190312906304, 43.087486904217712, 0.0 ], [ -89.278101380913654, 43.087402246995644, 0.0 ], [ -89.27799417637209, 43.087319266154246, 0.0 ], [ -89.277933742850223, 43.08726687925941, 0.0 ], [ -89.277826119213501, 43.087185071884434, 0.0 ], [ -89.27776040509265, 43.087138803778927, 0.0 ], [ -89.277689075096646, 43.08707476603869, 0.0 ], [ -89.277678346260586, 43.087066719411645, 0.0 ], [ -89.277656553312326, 43.087055822937508, 0.0 ], [ -89.277648758142391, 43.087059091879745, 0.0 ], [ -89.277616236358085, 43.08703822094084, 0.0 ], [ -89.277585726230541, 43.087012153222005, 0.0 ], [ -89.277513977139392, 43.086937219007623, 0.0 ], [ -89.277413310482288, 43.086832109941831, 0.0 ], [ -89.2773115541778, 43.086737226797929, 0.0 ], [ -89.277222789823213, 43.08665382686133, 0.0 ], [ -89.27719429135243, 43.086621053619929, 0.0 ], [ -89.277106029912034, 43.086567912353836, 0.0 ], [ -89.277099156751433, 43.086568582906075, 0.0 ], [ -89.27707870490768, 43.086621472715088, 0.0 ], [ -89.277026150374823, 43.086647540433937, 0.0 ], [ -89.276975942774826, 43.086669668658303, 0.0 ], [ -89.27690427750268, 43.086717696963461, 0.0 ], [ -89.276837809010544, 43.08674703362454, 0.0 ], [ -89.276823224499026, 43.086760277031573, 0.0 ], [ -89.276800509541417, 43.086776789380814, 0.0 ], [ -89.276760946958461, 43.0867899489688, 0.0 ], [ -89.276700345798531, 43.086811406640898, 0.0 ], [ -89.27648216485899, 43.086840156568755, 0.0 ], [ -89.27639951929369, 43.08684845465288, 0.0 ], [ -89.276309916748801, 43.08685189123316, 0.0 ], [ -89.276298098265329, 43.086849544300257, 0.0 ], [ -89.276230037211576, 43.086853064699589, 0.0 ], [ -89.276130124925771, 43.086858848212771, 0.0 ], [ -89.276118641718426, 43.086862703888229, 0.0 ], [ -89.276101626454988, 43.086863877354666, 0.0 ], [ -89.276035325600887, 43.086870666696235, 0.0 ], [ -89.275991488247314, 43.086868403582372, 0.0 ], [ -89.275873387231627, 43.086873684181349, 0.0 ], [ -89.275702228768864, 43.086881479351263, 0.0 ], [ -89.275600556283393, 43.086874773828697, 0.0 ], [ -89.275536267086068, 43.08687309744807, 0.0 ], [ -89.275469211860695, 43.086873768000316, 0.0 ], [ -89.275395367293754, 43.086880305884776, 0.0 ], [ -89.275348596274057, 43.086879300056374, 0.0 ], [ -89.275278355925479, 43.086888268692768, 0.0 ], [ -89.275179449468055, 43.086896147681742, 0.0 ], [ -89.2750614322714, 43.086894471301093, 0.0 ], [ -89.275032347067381, 43.08689438748204, 0.0 ], [ -89.274883149190956, 43.086899332804897, 0.0 ], [ -89.274760521947528, 43.086901009185517, 0.0 ], [ -89.274670500307465, 43.086896985872002, 0.0 ], [ -89.274510573594966, 43.086900170995172, 0.0 ], [ -89.274335056542554, 43.086903523756398, 0.0 ], [ -89.274207651614347, 43.086905786870254, 0.0 ], [ -89.274065913631716, 43.086897404967075, 0.0 ], [ -89.273902550338903, 43.08690411048957, 0.0 ], [ -89.273795513435402, 43.086877036942305, 0.0 ], [ -89.273732565342584, 43.08676966476267, 0.0 ], [ -89.273723596706191, 43.086691461606065, 0.0 ], [ -89.273734744637409, 43.086622897638136, 0.0 ], [ -89.273729128762284, 43.086621221257516, 0.0 ], [ -89.273703396319561, 43.08656749325818, 0.0 ], [ -89.273712532594004, 43.086479818551012, 0.0 ], [ -89.273715214803005, 43.086475376142332, 0.0 ], [ -89.273715801536227, 43.086453667013103, 0.0 ], [ -89.273759471251751, 43.086302289841839, 0.0 ], [ -89.273764081298509, 43.086245041443178, 0.0 ], [ -89.273768691345239, 43.086180752245845, 0.0 ], [ -89.27380515262405, 43.086080001769737, 0.0 ], [ -89.273841446264782, 43.085940275443861, 0.0 ], [ -89.27386089228014, 43.085877159712993, 0.0 ], [ -89.273881847038069, 43.085803985698298, 0.0 ], [ -89.273932473733225, 43.085666941581472, 0.0 ], [ -89.273960636927868, 43.085549008203856, 0.0 ], [ -89.273955607785965, 43.085502069546074, 0.0 ], [ -89.273907495661774, 43.085475750370129, 0.0 ], [ -89.273749245329896, 43.085400229422511, 0.0 ], [ -89.273730553685823, 43.085391847519354, 0.0 ], [ -89.273659726604023, 43.085362343220147, 0.0 ], [ -89.273655451833392, 43.085355134783434, 0.0 ], [ -89.273649584501172, 43.085352452574398, 0.0 ], [ -89.273606082423726, 43.085347255794424, 0.0 ], [ -89.27359602413992, 43.085347423432509, 0.0 ], [ -89.273584876208702, 43.085351195288922, 0.0 ], [ -89.273496363311196, 43.085362929953362, 0.0 ], [ -89.273405252023721, 43.085358739001776, 0.0 ], [ -89.273333419113555, 43.085354212774028, 0.0 ], [ -89.27332730032424, 43.085355721516613, 0.0 ], [ -89.273238703607717, 43.085355470059518, 0.0 ], [ -89.273222358896518, 43.08535672734498, 0.0 ], [ -89.273205678909207, 43.085357146440117, 0.0 ], [ -89.2729632742695, 43.085363684324584, 0.0 ], [ -89.272945504634762, 43.085364103419728, 0.0 ], [ -89.272749200462499, 43.085379023207331, 0.0 ], [ -89.272615425287867, 43.085393188623677, 0.0 ], [ -89.272510316222096, 43.085396876661072, 0.0 ], [ -89.272371260448494, 43.085384890539508, 0.0 ], [ -89.272220134734312, 43.085392518071373, 0.0 ], [ -89.272200269623795, 43.085399391231974, 0.0 ], [ -89.272200772537985, 43.085436271605928, 0.0 ], [ -89.272233713417435, 43.085555629907105, 0.0 ], [ -89.272239580749655, 43.085614303229292, 0.0 ], [ -89.272232456131974, 43.085643975166512, 0.0 ], [ -89.272234551607752, 43.085659649325464, 0.0 ], [ -89.272251063957015, 43.085806164992881, 0.0 ], [ -89.272258020936647, 43.085894007338119, 0.0 ], [ -89.272281406446481, 43.086029039798241, 0.0 ], [ -89.272292973472872, 43.086156780002582, 0.0 ], [ -89.272293476387077, 43.0861848593782, 0.0 ], [ -89.272279981522956, 43.086360124973496, 0.0 ], [ -89.272273276000419, 43.086529523236592, 0.0 ], [ -89.27228014916102, 43.086640834910696, 0.0 ], [ -89.272284507750669, 43.086705207927096, 0.0 ], [ -89.272279981522956, 43.086723564295013, 0.0 ], [ -89.272279227151671, 43.086724234847281, 0.0 ], [ -89.272280819713259, 43.086725324494687, 0.0 ], [ -89.272277886047164, 43.086727755246599, 0.0 ], [ -89.272272186353007, 43.086825907332745, 0.0 ], [ -89.272266905754009, 43.086983487112377, 0.0 ], [ -89.272268330677548, 43.087026402456587, 0.0 ], [ -89.272269671782055, 43.087039645863626, 0.0 ], [ -89.272285429760018, 43.087155819041591, 0.0 ], [ -89.272282244636813, 43.087169397724729, 0.0 ], [ -89.272313090040484, 43.087241649730053, 0.0 ], [ -89.272300349547663, 43.087358828736392, 0.0 ], [ -89.272304540499249, 43.087374167619203, 0.0 ], [ -89.272307138889232, 43.08741968135341, 0.0 ], [ -89.272312419488244, 43.08749000552104, 0.0 ], [ -89.272300098090568, 43.087659403784109, 0.0 ], [ -89.27230194210928, 43.087702570585463, 0.0 ], [ -89.272312922402421, 43.087784880874601, 0.0 ], [ -89.272296242415109, 43.087968360735019, 0.0 ], [ -89.272288614883223, 43.088144129244533, 0.0 ], [ -89.272290291263857, 43.088220488382419, 0.0 ], [ -89.272299511357346, 43.088255776194785, 0.0 ], [ -89.272309402003074, 43.088384773684574, 0.0 ], [ -89.272305294870534, 43.088542269645167, 0.0 ], [ -89.272295907138968, 43.088694904101935, 0.0 ], [ -89.27229993045249, 43.088804707033489, 0.0 ], [ -89.272302528842474, 43.088854663176384, 0.0 ], [ -89.272321136667529, 43.088861284879904, 0.0 ], [ -89.272338654845157, 43.088861201060858, 0.0 ], [ -89.2723820731036, 43.088858099756685, 0.0 ], [ -89.272448709233799, 43.088854160262201, 0.0 ], [ -89.272497911005402, 43.088854160262208, 0.0 ], [ -89.272636966779032, 43.088849382577436, 0.0 ], [ -89.272795803844147, 43.088843096150079, 0.0 ], [ -89.272809969260479, 43.088844604892664, 0.0 ], [ -89.272807035594369, 43.0888430961501, 0.0 ], [ -89.272807203232446, 43.088843096150086, 0.0 ], [ -89.272808041422763, 43.088843096150093, 0.0 ], [ -89.272809717803383, 43.088843012331061, 0.0 ], [ -89.272816255687871, 43.088842593235896, 0.0 ], [ -89.272867133840109, 43.088843682883315, 0.0 ], [ -89.272893369197035, 43.08884259323591, 0.0 ], [ -89.27299747243444, 43.088838318465307, 0.0 ], [ -89.273150861262479, 43.088811412556147, 0.0 ], [ -89.27319779992024, 43.088797330958826, 0.0 ], [ -89.273213474079171, 43.088791128350493, 0.0 ], [ -89.273363426326895, 43.088717702878711, 0.0 ], [ -89.273411957546273, 43.088693143902432, 0.0 ], [ -89.273563334717551, 43.088596165282759, 0.0 ], [ -89.273647740482488, 43.088553669033686, 0.0 ], [ -89.273750586434403, 43.088495498625718, 0.0 ], [ -89.273915039374629, 43.088411595774971, 0.0 ], [ -89.273967845364609, 43.088381840018727, 0.0 ], [ -89.274066332726875, 43.088335823370315, 0.0 ], [ -89.274081001057425, 43.088339343769647, 0.0 ], [ -89.274194408207336, 43.088422659887208, 0.0 ], [ -89.274373529478098, 43.088558781994742, 0.0 ], [ -89.274482829495454, 43.088640254093583, 0.0 ], [ -89.27449313923637, 43.088749470291887, 0.0 ], [ -89.274471346288124, 43.088874612106245, 0.0 ], [ -89.274374200030366, 43.088944517178675, 0.0 ], [ -89.274300606920519, 43.088999251006364, 0.0 ], [ -89.274267833679119, 43.089027246562978, 0.0 ], [ -89.27420019172051, 43.089078124715208, 0.0 ], [ -89.274103464557925, 43.089152975110522, 0.0 ], [ -89.273991398512536, 43.089259341461734, 0.0 ], [ -89.273897102101827, 43.089351458577582, 0.0 ], [ -89.273875392972613, 43.089364366708452, 0.0 ], [ -89.2738750576965, 43.089365875451037, 0.0 ], [ -89.273882098495164, 43.089369479669401, 0.0 ], [ -89.273882098495164, 43.089369479669401, 0.0 ], [ -89.27386332303206, 43.089383142171577, 0.0 ], [ -89.273815043269778, 43.089423710582928, 0.0 ], [ -89.273722507058778, 43.089511385290081, 0.0 ], [ -89.273725692181984, 43.089514402775222, 0.0 ], [ -89.27372745238165, 43.089513061670701, 0.0 ], [ -89.273727536200681, 43.089515995336818, 0.0 ], [ -89.273681687190333, 43.089559413595246, 0.0 ], [ -89.273588648065129, 43.089650441063689, 0.0 ], [ -89.27356132306079, 43.089674161849629, 0.0 ], [ -89.273489238693514, 43.089764434946801, 0.0 ], [ -89.273405922575989, 43.089892007513036, 0.0 ], [ -89.273377927019396, 43.08992997753441, 0.0 ], [ -89.273360911755958, 43.089953782139418, 0.0 ], [ -89.273345153777996, 43.089987561209213, 0.0 ], [ -89.273330820723572, 43.090004660291676, 0.0 ], [ -89.273236440493861, 43.090161150423846, 0.0 ], [ -89.273222694172659, 43.090192666379806, 0.0 ], [ -89.273179192095199, 43.090281346915333, 0.0 ], [ -89.273168798535266, 43.090321496231539, 0.0 ], [ -89.273124961181679, 43.09043280790565, 0.0 ], [ -89.273056816308895, 43.090573959155037, 0.0 ], [ -89.273045500739613, 43.090619053794093, 0.0 ], [ -89.273004764690199, 43.090696418760352, 0.0 ], [ -89.272973248734274, 43.090770850060522, 0.0 ], [ -89.272971991448784, 43.090907558901257, 0.0 ], [ -89.272949863224426, 43.091004286063864, 0.0 ], [ -89.272935111074844, 43.091112412614748, 0.0 ], [ -89.272914826869155, 43.091221377356007, 0.0 ], [ -89.272921700029755, 43.091315422309592, 0.0 ], [ -89.27292614243845, 43.09144257578069, 0.0 ], [ -89.272930836304226, 43.091544918818407, 0.0 ], [ -89.272924130781689, 43.09165732013993, 0.0 ], [ -89.272935194893876, 43.091697972370326, 0.0 ], [ -89.272968387230435, 43.091699145836778, 0.0 ], [ -89.273158907889524, 43.091679783640473, 0.0 ], [ -89.273299220948616, 43.091671234099273, 0.0 ], [ -89.273380273952284, 43.091668635709283, 0.0 ], [ -89.273442719130912, 43.091667043147702, 0.0 ], [ -89.273551348596015, 43.091667043147702, 0.0 ], [ -89.273626785724559, 43.091660169987108, 0.0 ], [ -89.273872710763598, 43.091656565768787, 0.0 ], [ -89.273967677726546, 43.091655392302357, 0.0 ], [ -89.274194156750241, 43.091660002349137, 0.0 ], [ -89.27440688945272, 43.091661343453687, 0.0 ], [ -89.274654323234358, 43.091655140845361, 0.0 ], [ -89.2748828139148, 43.091669809175968, 0.0 ], [ -89.274969482793608, 43.091758238254407, 0.0 ], [ -89.274994209407964, 43.091790676219709, 0.0 ], [ -89.275033688171888, 43.091789586572297, 0.0 ], [ -89.275186238809624, 43.09175505313123, 0.0 ], [ -89.275255473329807, 43.091726889936588, 0.0 ], [ -89.275266872718134, 43.091687914086855, 0.0 ], [ -89.275277517735162, 43.091662181644118, 0.0 ], [ -89.275296041741186, 43.091586493058486, 0.0 ], [ -89.27535479888239, 43.091545086456804, 0.0 ], [ -89.275439959018627, 43.091534357620773, 0.0 ], [ -89.27565461955885, 43.091515079243514, 0.0 ], [ -89.275908004491711, 43.091492783381121, 0.0 ], [ -89.275927869602228, 43.091490939362416, 0.0 ], [ -89.276010263710418, 43.091478366507673, 0.0 ], [ -89.276192989199558, 43.091459758682674, 0.0 ], [ -89.276312012224594, 43.09146084833008, 0.0 ], [ -89.276440003886009, 43.091485994039608, 0.0 ], [ -89.276664974167147, 43.091551121427294, 0.0 ], [ -89.276717361061969, 43.091573668746825, 0.0 ], [ -89.276743261142784, 43.091541817514788, 0.0 ], [ -89.27677963860252, 43.09149613614251, 0.0 ], [ -89.276807131244922, 43.091399995713132, 0.0 ], [ -89.276953311636248, 43.09125616225473, 0.0 ], [ -89.276969321071306, 43.091245517237724, 0.0 ], [ -89.277148107065941, 43.091133535011359, 0.0 ], [ -89.277327395974794, 43.091034293277829, 0.0 ], [ -89.277375424279953, 43.09100688445448, 0.0 ], [ -89.277531746774116, 43.090900769560335, 0.0 ], [ -89.277613721787134, 43.090778393774038, 0.0 ], [ -89.277778258546391, 43.090666579185772, 0.0 ], [ -89.277992332353392, 43.090646462618174, 0.0 ], [ -89.278124012052203, 43.090634141220541, 0.0 ], [ -89.278190732001448, 43.090623160927414, 0.0 ], [ -89.278326602651873, 43.090569432928078, 0.0 ], [ -89.278422575443173, 43.090418726309075, 0.0 ], [ -89.278455013408461, 43.090311773224613, 0.0 ], [ -89.278505640103617, 43.090233653887054, 0.0 ], [ -89.278517374768043, 43.090226780726447, 0.0 ], [ -89.278519554062882, 43.090198868988885, 0.0 ], [ -89.278539251535335, 43.090150840683719, 0.0 ], [ -89.27861862815837, 43.090059729396252, 0.0 ], [ -89.278675038366714, 43.090033661677424, 0.0 ], [ -89.27868803031663, 43.090039361371581, 0.0 ], [ -89.278847537933984, 43.090127538992967, 0.0 ], [ -89.278931859879876, 43.090165928109485, 0.0 ], [ -89.279098575933972, 43.090220159023033, 0.0 ], [ -89.279244337230125, 43.090235162629739, 0.0 ], [ -89.279450867324272, 43.090231558411411, 0.0 ], [ -89.279638119041124, 43.090228373288213, 0.0 ], [ -89.279655385761657, 43.090228960021449, 0.0 ], [ -89.279856886713901, 43.090229211478587, 0.0 ], [ -89.280081018804708, 43.090226613088625, 0.0 ], [ -89.280201466753283, 43.090220913394489, 0.0 ], [ -89.280281262471462, 43.090219153194816, 0.0 ], [ -89.28049910813489, 43.090213453500709, 0.0 ], [ -89.280740506946245, 43.090210519834613, 0.0 ], [ -89.280980732291141, 43.090212363853375, 0.0 ], [ -89.28108869120399, 43.090211525663058, 0.0 ], [ -89.281228082253719, 43.090205406873764, 0.0 ], [ -89.281346099450388, 43.09020515541669, 0.0 ], [ -89.281475013121167, 43.09019752788484, 0.0 ], [ -89.281632089986616, 43.09020012627483, 0.0 ], [ -89.281684644519487, 43.090198952808393, 0.0 ], [ -89.281854294239679, 43.090230468764339, 0.0 ], [ -89.282050598411956, 43.090335745468181, 0.0 ], [ -89.282150762154856, 43.090400286122645, 0.0 ], [ -89.282186888157526, 43.090428197860206, 0.0 ], [ -89.282281436025301, 43.090409422397109, 0.0 ], [ -89.282456617801586, 43.090400034665592, 0.0 ], [ -89.28259902633647, 43.090371787651932, 0.0 ] ] } },
{ "type": "Feature", "properties": { "id": 5 }, "geometry": { "type": "LineString", "coordinates": [ [ -89.280070625244761, 43.088209591909418, 0.0 ] ] } },
{ "type": "Feature", "properties": { "id": 6 }, "geometry": { "type": "LineString", "coordinates": [ [ -89.280070625244761, 43.088209591909418, 0.0 ], [ -89.280070625244761, 43.088209591909418, 0.0 ], [ -89.280070625244761, 43.088209591909418, 0.0 ], [ -89.280075151472502, 43.088217554717438, 0.0 ], [ -89.28002268075862, 43.088189642979856, 0.0 ], [ -89.280009018256465, 43.088179919972198, 0.0 ], [ -89.279932407661462, 43.088118815898049, 0.0 ], [ -89.27992134354929, 43.088111858918417, 0.0 ], [ -89.279909189789691, 43.088110685451994, 0.0 ], [ -89.279913548379341, 43.088102974101055, 0.0 ], [ -89.279916482045451, 43.088119821726437, 0.0 ], [ -89.279916482045451, 43.088119821726437, 0.0 ], [ -89.279916482045451, 43.088119821726437, 0.0 ], [ -89.279916482045451, 43.088119570269342, 0.0 ], [ -89.279916482045451, 43.088117726250644, 0.0 ], [ -89.279916482045451, 43.088115127860661, 0.0 ], [ -89.279874656348625, 43.088089730694044, 0.0 ], [ -89.279807349666157, 43.088042792036269, 0.0 ], [ -89.279762674122253, 43.087985124542435, 0.0 ], [ -89.279741132631116, 43.087958386271325, 0.0 ], [ -89.279681202023411, 43.087916476755453, 0.0 ], [ -89.279666868969002, 43.087909268318732, 0.0 ], [ -89.279642309992695, 43.087892588331393, 0.0 ], [ -89.27960618399004, 43.087884122609204, 0.0 ], [ -89.279566369949961, 43.087901305510698, 0.0 ], [ -89.279558239503899, 43.087922930820874, 0.0 ], [ -89.279547091572695, 43.08793642568498, 0.0 ], [ -89.279533177613416, 43.087928043781794, 0.0 ], [ -89.279498141258159, 43.087918236955083, 0.0 ], [ -89.279457489027777, 43.087952686577133, 0.0 ], [ -89.279435779898563, 43.087981185047916, 0.0 ], [ -89.279383979736949, 43.088026531144045, 0.0 ], [ -89.27931231446486, 43.088075649096631, 0.0 ], [ -89.279222376643816, 43.088173885001773, 0.0 ], [ -89.27920645102779, 43.088190900265232, 0.0 ], [ -89.279161104931617, 43.088207244976402, 0.0 ], [ -89.279101509600068, 43.088228451191426, 0.0 ], [ -89.279058678074861, 43.088220488383399, 0.0 ], [ -89.279047613962689, 43.088211519746991, 0.0 ], [ -89.27903302945117, 43.088194672121631, 0.0 ], [ -89.27897485904316, 43.088155360995756, 0.0 ], [ -89.278856758027473, 43.088064584984402, 0.0 ], [ -89.278760282321969, 43.087996272473511, 0.0 ], [ -89.27867436781446, 43.087924188106214, 0.0 ], [ -89.278674954547682, 43.087920164792713, 0.0 ], [ -89.278666405006433, 43.087910441785034, 0.0 ], [ -89.278665650635162, 43.087913207813095, 0.0 ], [ -89.278665650635162, 43.087913207813095, 0.0 ], [ -89.278613850473562, 43.08788278150454, 0.0 ], [ -89.278502874075571, 43.087797369911208, 0.0 ], [ -89.278372786938348, 43.087658984689838, 0.0 ], [ -89.278347389771724, 43.087630905314214, 0.0 ], [ -89.278321154414812, 43.087609196185007, 0.0 ], [ -89.278288381173397, 43.087576758219733, 0.0 ], [ -89.278190312906304, 43.087486904217712, 0.0 ], [ -89.278101380913654, 43.087402246995644, 0.0 ], [ -89.27799417637209, 43.087319266154246, 0.0 ], [ -89.277933742850223, 43.08726687925941, 0.0 ], [ -89.277826119213501, 43.087185071884434, 0.0 ], [ -89.27776040509265, 43.087138803778927, 0.0 ], [ -89.277689075096646, 43.08707476603869, 0.0 ], [ -89.277678346260586, 43.087066719411645, 0.0 ], [ -89.277656553312326, 43.087055822937508, 0.0 ], [ -89.277648758142391, 43.087059091879745, 0.0 ], [ -89.277616236358085, 43.08703822094084, 0.0 ], [ -89.277585726230541, 43.087012153222005, 0.0 ], [ -89.277513977139392, 43.086937219007623, 0.0 ], [ -89.277413310482288, 43.086832109941831, 0.0 ], [ -89.2773115541778, 43.086737226797929, 0.0 ], [ -89.277222789823213, 43.08665382686133, 0.0 ], [ -89.27719429135243, 43.086621053619929, 0.0 ], [ -89.277106029912034, 43.086567912353836, 0.0 ], [ -89.277099156751433, 43.086568582906075, 0.0 ], [ -89.27707870490768, 43.086621472715088, 0.0 ], [ -89.277026150374823, 43.086647540433937, 0.0 ], [ -89.276975942774826, 43.086669668658303, 0.0 ], [ -89.27690427750268, 43.086717696963461, 0.0 ], [ -89.276837809010544, 43.08674703362454, 0.0 ], [ -89.276823224499026, 43.086760277031573, 0.0 ], [ -89.276800509541417, 43.086776789380814, 0.0 ], [ -89.276760946958461, 43.0867899489688, 0.0 ], [ -89.276700345798531, 43.086811406640898, 0.0 ], [ -89.27648216485899, 43.086840156568755, 0.0 ], [ -89.27639951929369, 43.08684845465288, 0.0 ], [ -89.276309916748801, 43.08685189123316, 0.0 ], [ -89.276298098265329, 43.086849544300257, 0.0 ], [ -89.276230037211576, 43.086853064699589, 0.0 ], [ -89.276130124925771, 43.086858848212771, 0.0 ], [ -89.276118641718426, 43.086862703888229, 0.0 ], [ -89.276101626454988, 43.086863877354666, 0.0 ], [ -89.276035325600887, 43.086870666696235, 0.0 ], [ -89.275991488247314, 43.086868403582372, 0.0 ], [ -89.275873387231627, 43.086873684181349, 0.0 ], [ -89.275702228768864, 43.086881479351263, 0.0 ], [ -89.275600556283393, 43.086874773828697, 0.0 ], [ -89.275536267086068, 43.08687309744807, 0.0 ], [ -89.275469211860695, 43.086873768000316, 0.0 ], [ -89.275395367293754, 43.086880305884776, 0.0 ], [ -89.275348596274057, 43.086879300056374, 0.0 ], [ -89.275278355925479, 43.086888268692768, 0.0 ], [ -89.275179449468055, 43.086896147681742, 0.0 ], [ -89.2750614322714, 43.086894471301093, 0.0 ], [ -89.275032347067381, 43.08689438748204, 0.0 ], [ -89.274883149190956, 43.086899332804897, 0.0 ], [ -89.274760521947528, 43.086901009185517, 0.0 ], [ -89.274670500307465, 43.086896985872002, 0.0 ], [ -89.274510573594966, 43.086900170995172, 0.0 ], [ -89.274335056542554, 43.086903523756398, 0.0 ], [ -89.274207651614347, 43.086905786870254, 0.0 ], [ -89.274065913631716, 43.086897404967075, 0.0 ], [ -89.273902550338903, 43.08690411048957, 0.0 ], [ -89.273795513435402, 43.086877036942305, 0.0 ], [ -89.273732565342584, 43.08676966476267, 0.0 ], [ -89.273723596706191, 43.086691461606065, 0.0 ], [ -89.273734744637409, 43.086622897638136, 0.0 ], [ -89.273729128762284, 43.086621221257516, 0.0 ], [ -89.273703396319561, 43.08656749325818, 0.0 ], [ -89.273712532594004, 43.086479818551012, 0.0 ], [ -89.273715214803005, 43.086475376142332, 0.0 ], [ -89.273715801536227, 43.086453667013103, 0.0 ], [ -89.273759471251751, 43.086302289841839, 0.0 ], [ -89.273764081298509, 43.086245041443178, 0.0 ], [ -89.273768691345239, 43.086180752245845, 0.0 ], [ -89.27380515262405, 43.086080001769737, 0.0 ], [ -89.273841446264782, 43.085940275443861, 0.0 ], [ -89.27386089228014, 43.085877159712993, 0.0 ], [ -89.273881847038069, 43.085803985698298, 0.0 ], [ -89.273932473733225, 43.085666941581472, 0.0 ], [ -89.273960636927868, 43.085549008203856, 0.0 ], [ -89.273955607785965, 43.085502069546074, 0.0 ], [ -89.273907495661774, 43.085475750370129, 0.0 ], [ -89.273749245329896, 43.085400229422511, 0.0 ], [ -89.273730553685823, 43.085391847519354, 0.0 ], [ -89.273659726604023, 43.085362343220147, 0.0 ], [ -89.273655451833392, 43.085355134783434, 0.0 ], [ -89.273649584501172, 43.085352452574398, 0.0 ], [ -89.273606082423726, 43.085347255794424, 0.0 ], [ -89.27359602413992, 43.085347423432509, 0.0 ], [ -89.273584876208702, 43.085351195288922, 0.0 ], [ -89.273496363311196, 43.085362929953362, 0.0 ], [ -89.273405252023721, 43.085358739001776, 0.0 ], [ -89.273333419113555, 43.085354212774028, 0.0 ], [ -89.27332730032424, 43.085355721516613, 0.0 ], [ -89.273238703607717, 43.085355470059518, 0.0 ], [ -89.273222358896518, 43.08535672734498, 0.0 ], [ -89.273205678909207, 43.085357146440117, 0.0 ], [ -89.2729632742695, 43.085363684324584, 0.0 ], [ -89.272945504634762, 43.085364103419728, 0.0 ], [ -89.272749200462499, 43.085379023207331, 0.0 ], [ -89.272615425287867, 43.085393188623677, 0.0 ], [ -89.272510316222096, 43.085396876661072, 0.0 ], [ -89.272371260448494, 43.085384890539508, 0.0 ], [ -89.272220134734312, 43.085392518071373, 0.0 ], [ -89.272200269623795, 43.085399391231974, 0.0 ], [ -89.272200772537985, 43.085436271605928, 0.0 ], [ -89.272233713417435, 43.085555629907105, 0.0 ], [ -89.272239580749655, 43.085614303229292, 0.0 ], [ -89.272232456131974, 43.085643975166512, 0.0 ], [ -89.272234551607752, 43.085659649325464, 0.0 ], [ -89.272251063957015, 43.085806164992881, 0.0 ], [ -89.272258020936647, 43.085894007338119, 0.0 ], [ -89.272281406446481, 43.086029039798241, 0.0 ], [ -89.272292973472872, 43.086156780002582, 0.0 ], [ -89.272293476387077, 43.0861848593782, 0.0 ], [ -89.272279981522956, 43.086360124973496, 0.0 ] ] } },
{ "type": "Feature", "properties": { "id": 7 }, "geometry": { "type": "LineString", "coordinates": [ [ -89.280070625244761, 43.088209591909418, 0.0 ], [ -89.280070625244761, 43.088209591909418, 0.0 ], [ -89.280070625244761, 43.088209591909418, 0.0 ], [ -89.280075151472502, 43.088217554717438, 0.0 ], [ -89.28002268075862, 43.088189642979856, 0.0 ], [ -89.280009018256465, 43.088179919972198, 0.0 ], [ -89.279932407661462, 43.088118815898049, 0.0 ], [ -89.27992134354929, 43.088111858918417, 0.0 ], [ -89.279909189789691, 43.088110685451994, 0.0 ], [ -89.279913548379341, 43.088102974101055, 0.0 ], [ -89.279916482045451, 43.088119821726437, 0.0 ], [ -89.279916482045451, 43.088119821726437, 0.0 ], [ -89.279916482045451, 43.088119821726437, 0.0 ], [ -89.279916482045451, 43.088119570269342, 0.0 ], [ -89.279916482045451, 43.088117726250644, 0.0 ], [ -89.279916482045451, 43.088115127860661, 0.0 ], [ -89.279874656348625, 43.088089730694044, 0.0 ], [ -89.279807349666157, 43.088042792036269, 0.0 ], [ -89.279762674122253, 43.087985124542435, 0.0 ], [ -89.279741132631116, 43.087958386271325, 0.0 ], [ -89.279681202023411, 43.087916476755453, 0.0 ], [ -89.279666868969002, 43.087909268318732, 0.0 ], [ -89.279642309992695, 43.087892588331393, 0.0 ], [ -89.27960618399004, 43.087884122609204, 0.0 ], [ -89.279566369949961, 43.087901305510698, 0.0 ], [ -89.279558239503899, 43.087922930820874, 0.0 ], [ -89.279547091572695, 43.08793642568498, 0.0 ], [ -89.279533177613416, 43.087928043781794, 0.0 ], [ -89.279498141258159, 43.087918236955083, 0.0 ], [ -89.279457489027777, 43.087952686577133, 0.0 ], [ -89.279435779898563, 43.087981185047916, 0.0 ], [ -89.279383979736949, 43.088026531144045, 0.0 ], [ -89.27931231446486, 43.088075649096631, 0.0 ], [ -89.279222376643816, 43.088173885001773, 0.0 ], [ -89.27920645102779, 43.088190900265232, 0.0 ], [ -89.279161104931617, 43.088207244976402, 0.0 ], [ -89.279101509600068, 43.088228451191426, 0.0 ], [ -89.279058678074861, 43.088220488383399, 0.0 ], [ -89.279047613962689, 43.088211519746991, 0.0 ], [ -89.27903302945117, 43.088194672121631, 0.0 ], [ -89.27897485904316, 43.088155360995756, 0.0 ], [ -89.278856758027473, 43.088064584984402, 0.0 ], [ -89.278760282321969, 43.087996272473511, 0.0 ], [ -89.27867436781446, 43.087924188106214, 0.0 ], [ -89.278674954547682, 43.087920164792713, 0.0 ], [ -89.278666405006433, 43.087910441785034, 0.0 ], [ -89.278665650635162, 43.087913207813095, 0.0 ], [ -89.278665650635162, 43.087913207813095, 0.0 ], [ -89.278613850473562, 43.08788278150454, 0.0 ], [ -89.278502874075571, 43.087797369911208, 0.0 ], [ -89.278372786938348, 43.087658984689838, 0.0 ], [ -89.278347389771724, 43.087630905314214, 0.0 ], [ -89.278321154414812, 43.087609196185007, 0.0 ], [ -89.278288381173397, 43.087576758219733, 0.0 ], [ -89.278190312906304, 43.087486904217712, 0.0 ], [ -89.278101380913654, 43.087402246995644, 0.0 ], [ -89.27799417637209, 43.087319266154246, 0.0 ], [ -89.277933742850223, 43.08726687925941, 0.0 ], [ -89.277826119213501, 43.087185071884434, 0.0 ], [ -89.27776040509265, 43.087138803778927, 0.0 ], [ -89.277689075096646, 43.08707476603869, 0.0 ], [ -89.277678346260586, 43.087066719411645, 0.0 ], [ -89.277656553312326, 43.087055822937508, 0.0 ], [ -89.277648758142391, 43.087059091879745, 0.0 ], [ -89.277616236358085, 43.08703822094084, 0.0 ], [ -89.277585726230541, 43.087012153222005, 0.0 ], [ -89.277513977139392, 43.086937219007623, 0.0 ], [ -89.277413310482288, 43.086832109941831, 0.0 ], [ -89.2773115541778, 43.086737226797929, 0.0 ], [ -89.277222789823213, 43.08665382686133, 0.0 ], [ -89.27719429135243, 43.086621053619929, 0.0 ], [ -89.277106029912034, 43.086567912353836, 0.0 ], [ -89.277099156751433, 43.086568582906075, 0.0 ], [ -89.27707870490768, 43.086621472715088, 0.0 ], [ -89.277026150374823, 43.086647540433937, 0.0 ], [ -89.276975942774826, 43.086669668658303, 0.0 ], [ -89.27690427750268, 43.086717696963461, 0.0 ], [ -89.276837809010544, 43.08674703362454, 0.0 ], [ -89.276823224499026, 43.086760277031573, 0.0 ], [ -89.276800509541417, 43.086776789380814, 0.0 ], [ -89.276760946958461, 43.0867899489688, 0.0 ], [ -89.276700345798531, 43.086811406640898, 0.0 ], [ -89.27648216485899, 43.086840156568755, 0.0 ], [ -89.27639951929369, 43.08684845465288, 0.0 ], [ -89.276309916748801, 43.08685189123316, 0.0 ], [ -89.276298098265329, 43.086849544300257, 0.0 ], [ -89.276230037211576, 43.086853064699589, 0.0 ], [ -89.276130124925771, 43.086858848212771, 0.0 ], [ -89.276118641718426, 43.086862703888229, 0.0 ], [ -89.276101626454988, 43.086863877354666, 0.0 ], [ -89.276035325600887, 43.086870666696235, 0.0 ], [ -89.275991488247314, 43.086868403582372, 0.0 ], [ -89.275873387231627, 43.086873684181349, 0.0 ], [ -89.275702228768864, 43.086881479351263, 0.0 ], [ -89.275600556283393, 43.086874773828697, 0.0 ], [ -89.275536267086068, 43.08687309744807, 0.0 ], [ -89.275469211860695, 43.086873768000316, 0.0 ], [ -89.275395367293754, 43.086880305884776, 0.0 ], [ -89.275348596274057, 43.086879300056374, 0.0 ], [ -89.275278355925479, 43.086888268692768, 0.0 ], [ -89.275179449468055, 43.086896147681742, 0.0 ], [ -89.2750614322714, 43.086894471301093, 0.0 ], [ -89.275032347067381, 43.08689438748204, 0.0 ], [ -89.274883149190956, 43.086899332804897, 0.0 ], [ -89.274760521947528, 43.086901009185517, 0.0 ], [ -89.274670500307465, 43.086896985872002, 0.0 ], [ -89.274510573594966, 43.086900170995172, 0.0 ], [ -89.274335056542554, 43.086903523756398, 0.0 ], [ -89.274207651614347, 43.086905786870254, 0.0 ], [ -89.274065913631716, 43.086897404967075, 0.0 ], [ -89.273902550338903, 43.08690411048957, 0.0 ], [ -89.273795513435402, 43.086877036942305, 0.0 ], [ -89.273732565342584, 43.08676966476267, 0.0 ], [ -89.273723596706191, 43.086691461606065, 0.0 ], [ -89.273734744637409, 43.086622897638136, 0.0 ], [ -89.273729128762284, 43.086621221257516, 0.0 ], [ -89.273703396319561, 43.08656749325818, 0.0 ], [ -89.273712532594004, 43.086479818551012, 0.0 ], [ -89.273715214803005, 43.086475376142332, 0.0 ], [ -89.273715801536227, 43.086453667013103, 0.0 ], [ -89.273759471251751, 43.086302289841839, 0.0 ], [ -89.273764081298509, 43.086245041443178, 0.0 ], [ -89.273768691345239, 43.086180752245845, 0.0 ], [ -89.27380515262405, 43.086080001769737, 0.0 ], [ -89.273841446264782, 43.085940275443861, 0.0 ], [ -89.27386089228014, 43.085877159712993, 0.0 ], [ -89.273881847038069, 43.085803985698298, 0.0 ], [ -89.273932473733225, 43.085666941581472, 0.0 ], [ -89.273960636927868, 43.085549008203856, 0.0 ], [ -89.273955607785965, 43.085502069546074, 0.0 ], [ -89.273907495661774, 43.085475750370129, 0.0 ], [ -89.273749245329896, 43.085400229422511, 0.0 ], [ -89.273730553685823, 43.085391847519354, 0.0 ], [ -89.273659726604023, 43.085362343220147, 0.0 ], [ -89.273655451833392, 43.085355134783434, 0.0 ], [ -89.273649584501172, 43.085352452574398, 0.0 ], [ -89.273606082423726, 43.085347255794424, 0.0 ], [ -89.27359602413992, 43.085347423432509, 0.0 ], [ -89.273584876208702, 43.085351195288922, 0.0 ], [ -89.273496363311196, 43.085362929953362, 0.0 ], [ -89.273405252023721, 43.085358739001776, 0.0 ], [ -89.273333419113555, 43.085354212774028, 0.0 ], [ -89.27332730032424, 43.085355721516613, 0.0 ], [ -89.273238703607717, 43.085355470059518, 0.0 ], [ -89.273222358896518, 43.08535672734498, 0.0 ], [ -89.273205678909207, 43.085357146440117, 0.0 ], [ -89.2729632742695, 43.085363684324584, 0.0 ], [ -89.272945504634762, 43.085364103419728, 0.0 ], [ -89.272749200462499, 43.085379023207331, 0.0 ], [ -89.272615425287867, 43.085393188623677, 0.0 ], [ -89.272510316222096, 43.085396876661072, 0.0 ], [ -89.272371260448494, 43.085384890539508, 0.0 ], [ -89.272220134734312, 43.085392518071373, 0.0 ], [ -89.272200269623795, 43.085399391231974, 0.0 ], [ -89.272200772537985, 43.085436271605928, 0.0 ], [ -89.272233713417435, 43.085555629907105, 0.0 ], [ -89.272239580749655, 43.085614303229292, 0.0 ], [ -89.272232456131974, 43.085643975166512, 0.0 ], [ -89.272234551607752, 43.085659649325464, 0.0 ], [ -89.272251063957015, 43.085806164992881, 0.0 ], [ -89.272258020936647, 43.085894007338119, 0.0 ], [ -89.272281406446481, 43.086029039798241, 0.0 ], [ -89.272292973472872, 43.086156780002582, 0.0 ], [ -89.272293476387077, 43.0861848593782, 0.0 ], [ -89.272279981522956, 43.086360124973496, 0.0 ], [ -89.272273276000419, 43.086529523236592, 0.0 ], [ -89.27228014916102, 43.086640834910696, 0.0 ], [ -89.272284507750669, 43.086705207927096, 0.0 ], [ -89.272279981522956, 43.086723564295013, 0.0 ], [ -89.272279227151671, 43.086724234847281, 0.0 ], [ -89.272280819713259, 43.086725324494687, 0.0 ], [ -89.272277886047164, 43.086727755246599, 0.0 ], [ -89.272272186353007, 43.086825907332745, 0.0 ], [ -89.272266905754009, 43.086983487112377, 0.0 ], [ -89.272268330677548, 43.087026402456587, 0.0 ], [ -89.272269671782055, 43.087039645863626, 0.0 ], [ -89.272285429760018, 43.087155819041591, 0.0 ], [ -89.272282244636813, 43.087169397724729, 0.0 ], [ -89.272313090040484, 43.087241649730053, 0.0 ], [ -89.272300349547663, 43.087358828736392, 0.0 ], [ -89.272304540499249, 43.087374167619203, 0.0 ], [ -89.272307138889232, 43.08741968135341, 0.0 ], [ -89.272312419488244, 43.08749000552104, 0.0 ], [ -89.272300098090568, 43.087659403784109, 0.0 ], [ -89.27230194210928, 43.087702570585463, 0.0 ], [ -89.272312922402421, 43.087784880874601, 0.0 ], [ -89.272296242415109, 43.087968360735019, 0.0 ], [ -89.272288614883223, 43.088144129244533, 0.0 ], [ -89.272290291263857, 43.088220488382419, 0.0 ], [ -89.272299511357346, 43.088255776194785, 0.0 ], [ -89.272309402003074, 43.088384773684574, 0.0 ], [ -89.272305294870534, 43.088542269645167, 0.0 ], [ -89.272295907138968, 43.088694904101935, 0.0 ], [ -89.27229993045249, 43.088804707033489, 0.0 ], [ -89.272302528842474, 43.088854663176384, 0.0 ], [ -89.272321136667529, 43.088861284879904, 0.0 ], [ -89.272338654845157, 43.088861201060858, 0.0 ], [ -89.2723820731036, 43.088858099756685, 0.0 ], [ -89.272448709233799, 43.088854160262201, 0.0 ], [ -89.272497911005402, 43.088854160262208, 0.0 ], [ -89.272636966779032, 43.088849382577436, 0.0 ], [ -89.272795803844147, 43.088843096150079, 0.0 ], [ -89.272809969260479, 43.088844604892664, 0.0 ], [ -89.272807035594369, 43.0888430961501, 0.0 ], [ -89.272807203232446, 43.088843096150086, 0.0 ], [ -89.272808041422763, 43.088843096150093, 0.0 ], [ -89.272809717803383, 43.088843012331061, 0.0 ], [ -89.272816255687871, 43.088842593235896, 0.0 ], [ -89.272867133840109, 43.088843682883315, 0.0 ], [ -89.272893369197035, 43.08884259323591, 0.0 ], [ -89.27299747243444, 43.088838318465307, 0.0 ], [ -89.273150861262479, 43.088811412556147, 0.0 ], [ -89.27319779992024, 43.088797330958826, 0.0 ], [ -89.273213474079171, 43.088791128350493, 0.0 ], [ -89.273363426326895, 43.088717702878711, 0.0 ], [ -89.273411957546273, 43.088693143902432, 0.0 ], [ -89.273563334717551, 43.088596165282759, 0.0 ], [ -89.273647740482488, 43.088553669033686, 0.0 ], [ -89.273750586434403, 43.088495498625718, 0.0 ], [ -89.273915039374629, 43.088411595774971, 0.0 ], [ -89.273967845364609, 43.088381840018727, 0.0 ], [ -89.274066332726875, 43.088335823370315, 0.0 ], [ -89.274081001057425, 43.088339343769647, 0.0 ], [ -89.274194408207336, 43.088422659887208, 0.0 ], [ -89.274373529478098, 43.088558781994742, 0.0 ], [ -89.274482829495454, 43.088640254093583, 0.0 ], [ -89.27449313923637, 43.088749470291887, 0.0 ], [ -89.274471346288124, 43.088874612106245, 0.0 ], [ -89.274374200030366, 43.088944517178675, 0.0 ], [ -89.274300606920519, 43.088999251006364, 0.0 ], [ -89.274267833679119, 43.089027246562978, 0.0 ], [ -89.27420019172051, 43.089078124715208, 0.0 ], [ -89.274103464557925, 43.089152975110522, 0.0 ], [ -89.273991398512536, 43.089259341461734, 0.0 ], [ -89.273897102101827, 43.089351458577582, 0.0 ], [ -89.273875392972613, 43.089364366708452, 0.0 ], [ -89.2738750576965, 43.089365875451037, 0.0 ], [ -89.273882098495164, 43.089369479669401, 0.0 ], [ -89.273882098495164, 43.089369479669401, 0.0 ], [ -89.27386332303206, 43.089383142171577, 0.0 ], [ -89.273815043269778, 43.089423710582928, 0.0 ], [ -89.273722507058778, 43.089511385290081, 0.0 ], [ -89.273725692181984, 43.089514402775222, 0.0 ], [ -89.27372745238165, 43.089513061670701, 0.0 ], [ -89.273727536200681, 43.089515995336818, 0.0 ], [ -89.273681687190333, 43.089559413595246, 0.0 ], [ -89.273588648065129, 43.089650441063689, 0.0 ], [ -89.27356132306079, 43.089674161849629, 0.0 ], [ -89.273489238693514, 43.089764434946801, 0.0 ], [ -89.273405922575989, 43.089892007513036, 0.0 ], [ -89.273377927019396, 43.08992997753441, 0.0 ], [ -89.273360911755958, 43.089953782139418, 0.0 ], [ -89.273345153777996, 43.089987561209213, 0.0 ], [ -89.273330820723572, 43.090004660291676, 0.0 ], [ -89.273236440493861, 43.090161150423846, 0.0 ], [ -89.273222694172659, 43.090192666379806, 0.0 ], [ -89.273179192095199, 43.090281346915333, 0.0 ], [ -89.273168798535266, 43.090321496231539, 0.0 ], [ -89.273124961181679, 43.09043280790565, 0.0 ], [ -89.273056816308895, 43.090573959155037, 0.0 ], [ -89.273045500739613, 43.090619053794093, 0.0 ], [ -89.273004764690199, 43.090696418760352, 0.0 ], [ -89.272973248734274, 43.090770850060522, 0.0 ], [ -89.272971991448784, 43.090907558901257, 0.0 ], [ -89.272949863224426, 43.091004286063864, 0.0 ], [ -89.272935111074844, 43.091112412614748, 0.0 ], [ -89.272914826869155, 43.091221377356007, 0.0 ], [ -89.272921700029755, 43.091315422309592, 0.0 ], [ -89.27292614243845, 43.09144257578069, 0.0 ], [ -89.272930836304226, 43.091544918818407, 0.0 ], [ -89.272924130781689, 43.09165732013993, 0.0 ], [ -89.272935194893876, 43.091697972370326, 0.0 ], [ -89.272968387230435, 43.091699145836778, 0.0 ], [ -89.273158907889524, 43.091679783640473, 0.0 ], [ -89.273299220948616, 43.091671234099273, 0.0 ], [ -89.273380273952284, 43.091668635709283, 0.0 ], [ -89.273442719130912, 43.091667043147702, 0.0 ], [ -89.273551348596015, 43.091667043147702, 0.0 ], [ -89.273626785724559, 43.091660169987108, 0.0 ], [ -89.273872710763598, 43.091656565768787, 0.0 ], [ -89.273967677726546, 43.091655392302357, 0.0 ], [ -89.274194156750241, 43.091660002349137, 0.0 ], [ -89.27440688945272, 43.091661343453687, 0.0 ], [ -89.274654323234358, 43.091655140845361, 0.0 ], [ -89.2748828139148, 43.091669809175968, 0.0 ], [ -89.274969482793608, 43.091758238254407, 0.0 ], [ -89.274994209407964, 43.091790676219709, 0.0 ], [ -89.275033688171888, 43.091789586572297, 0.0 ], [ -89.275186238809624, 43.09175505313123, 0.0 ], [ -89.275255473329807, 43.091726889936588, 0.0 ], [ -89.275266872718134, 43.091687914086855, 0.0 ], [ -89.275277517735162, 43.091662181644118, 0.0 ], [ -89.275296041741186, 43.091586493058486, 0.0 ], [ -89.27535479888239, 43.091545086456804, 0.0 ], [ -89.275439959018627, 43.091534357620773, 0.0 ], [ -89.27565461955885, 43.091515079243514, 0.0 ], [ -89.275908004491711, 43.091492783381121, 0.0 ], [ -89.275927869602228, 43.091490939362416, 0.0 ], [ -89.276010263710418, 43.091478366507673, 0.0 ], [ -89.276192989199558, 43.091459758682674, 0.0 ], [ -89.276312012224594, 43.09146084833008, 0.0 ], [ -89.276440003886009, 43.091485994039608, 0.0 ], [ -89.276664974167147, 43.091551121427294, 0.0 ], [ -89.276717361061969, 43.091573668746825, 0.0 ], [ -89.276743261142784, 43.091541817514788, 0.0 ], [ -89.27677963860252, 43.09149613614251, 0.0 ], [ -89.276807131244922, 43.091399995713132, 0.0 ], [ -89.276953311636248, 43.09125616225473, 0.0 ], [ -89.276969321071306, 43.091245517237724, 0.0 ], [ -89.277148107065941, 43.091133535011359, 0.0 ], [ -89.277327395974794, 43.091034293277829, 0.0 ], [ -89.277375424279953, 43.09100688445448, 0.0 ], [ -89.277531746774116, 43.090900769560335, 0.0 ], [ -89.277613721787134, 43.090778393774038, 0.0 ], [ -89.277778258546391, 43.090666579185772, 0.0 ], [ -89.277992332353392, 43.090646462618174, 0.0 ], [ -89.278124012052203, 43.090634141220541, 0.0 ], [ -89.278190732001448, 43.090623160927414, 0.0 ], [ -89.278326602651873, 43.090569432928078, 0.0 ], [ -89.278422575443173, 43.090418726309075, 0.0 ], [ -89.278455013408461, 43.090311773224613, 0.0 ], [ -89.278505640103617, 43.090233653887054, 0.0 ], [ -89.278517374768043, 43.090226780726447, 0.0 ], [ -89.278519554062882, 43.090198868988885, 0.0 ], [ -89.278539251535335, 43.090150840683719, 0.0 ], [ -89.27861862815837, 43.090059729396252, 0.0 ], [ -89.278675038366714, 43.090033661677424, 0.0 ], [ -89.27868803031663, 43.090039361371581, 0.0 ], [ -89.278847537933984, 43.090127538992967, 0.0 ], [ -89.278931859879876, 43.090165928109485, 0.0 ], [ -89.279098575933972, 43.090220159023033, 0.0 ], [ -89.279244337230125, 43.090235162629739, 0.0 ], [ -89.279450867324272, 43.090231558411411, 0.0 ], [ -89.279638119041124, 43.090228373288213, 0.0 ], [ -89.279655385761657, 43.090228960021449, 0.0 ], [ -89.279856886713901, 43.090229211478587, 0.0 ], [ -89.280081018804708, 43.090226613088625, 0.0 ], [ -89.280201466753283, 43.090220913394489, 0.0 ], [ -89.280281262471462, 43.090219153194816, 0.0 ], [ -89.28049910813489, 43.090213453500709, 0.0 ], [ -89.280740506946245, 43.090210519834613, 0.0 ], [ -89.280980732291141, 43.090212363853375, 0.0 ], [ -89.28108869120399, 43.090211525663058, 0.0 ], [ -89.281228082253719, 43.090205406873764, 0.0 ], [ -89.281346099450388, 43.09020515541669, 0.0 ], [ -89.281475013121167, 43.09019752788484, 0.0 ], [ -89.281632089986616, 43.09020012627483, 0.0 ], [ -89.281684644519487, 43.090198952808393, 0.0 ], [ -89.281854294239679, 43.090230468764339, 0.0 ], [ -89.282050598411956, 43.090335745468181, 0.0 ], [ -89.282150762154856, 43.090400286122645, 0.0 ], [ -89.282186888157526, 43.090428197860206, 0.0 ], [ -89.282281436025301, 43.090409422397109, 0.0 ], [ -89.282456617801586, 43.090400034665592, 0.0 ], [ -89.28259902633647, 43.090371787651932, 0.0 ], [ -89.282716708256999, 43.090249328046603, 0.0 ], [ -89.28276884369474, 43.090164670824592, 0.0 ], [ -89.282780243083039, 43.090148829027591, 0.0 ], [ -89.28278518840591, 43.090079929783521, 0.0 ], [ -89.282785272224942, 43.089944897323427, 0.0 ], [ -89.282760629429632, 43.089869208737795, 0.0 ], [ -89.2827304545782, 43.089793436333103, 0.0 ], [ -89.282707907258668, 43.089690674200213, 0.0 ], [ -89.2827045544974, 43.089676089688716, 0.0 ], [ -89.282660800962844, 43.089537955924442, 0.0 ], [ -89.282623166217604, 43.089422704755798, 0.0 ], [ -89.282609838991547, 43.089322960108071, 0.0 ], [ -89.282558709382201, 43.089198405026941, 0.0 ], [ -89.282525517045656, 43.089074939593225, 0.0 ], [ -89.282513614743152, 43.088956503301397, 0.0 ], [ -89.282543873413601, 43.08877469982162, 0.0 ], [ -89.282569773494401, 43.088650480016618, 0.0 ], [ -89.282575808464685, 43.088547131150499, 0.0 ], [ -89.282580334692398, 43.088410422309792, 0.0 ], [ -89.282568432389894, 43.088225182249673, 0.0 ], [ -89.282577317207256, 43.088142201408289, 0.0 ], [ -89.282579161225954, 43.088120911374233, 0.0 ], [ -89.282568180932799, 43.088079588591611, 0.0 ], [ -89.282563906162181, 43.088032482295759, 0.0 ], [ -89.282560050486708, 43.087920667707472, 0.0 ], [ -89.282552339135805, 43.087801393225334, 0.0 ], [ -89.282557535915771, 43.087685974418669, 0.0 ], [ -89.282571617513099, 43.087546583368947, 0.0 ], [ -89.282562145962515, 43.087541218950882, 0.0 ], [ -89.282550746574202, 43.08754180568414, 0.0 ], [ -89.282535826786557, 43.08754515844538, 0.0 ], [ -89.282521745189229, 43.08754859502568, 0.0 ], [ -89.282499449326778, 43.087555552005306, 0.0 ], [ -89.282484026624957, 43.087556474014647, 0.0 ], [ -89.282430130987549, 43.087557479843014, 0.0 ], [ -89.282347736879387, 43.087590253084414, 0.0 ], [ -89.282166939227977, 43.08760525669107, 0.0 ], [ -89.28203953429977, 43.087608525633279, 0.0 ], [ -89.281977927311459, 43.087613387137118, 0.0 ], [ -89.28180861286738, 43.08760458613876, 0.0 ], [ -89.281595544888759, 43.087600562825195, 0.0 ], [ -89.281477527692118, 43.087597126244894, 0.0 ], [ -89.281282564624348, 43.087598048254193, 0.0 ] ] } },
{ "type": "Feature", "properties": { "id": 8 }, "geometry": { "type": "LineString", "coordinates": [ [ -89.280070625244761, 43.088209591909418, 0.0 ], [ -89.280070625244761, 43.088209591909418, 0.0 ], [ -89.280070625244761, 43.088209591909418, 0.0 ], [ -89.280075151472502, 43.088217554717438, 0.0 ], [ -89.28002268075862, 43.088189642979856, 0.0 ], [ -89.280009018256465, 43.088179919972198, 0.0 ], [ -89.279932407661462, 43.088118815898049, 0.0 ], [ -89.27992134354929, 43.088111858918417, 0.0 ], [ -89.279909189789691, 43.088110685451994, 0.0 ], [ -89.279913548379341, 43.088102974101055, 0.0 ], [ -89.279916482045451, 43.088119821726437, 0.0 ], [ -89.279916482045451, 43.088119821726437, 0.0 ], [ -89.279916482045451, 43.088119821726437, 0.0 ], [ -89.279916482045451, 43.088119570269342, 0.0 ], [ -89.279916482045451, 43.088117726250644, 0.0 ], [ -89.279916482045451, 43.088115127860661, 0.0 ], [ -89.279874656348625, 43.088089730694044, 0.0 ], [ -89.279807349666157, 43.088042792036269, 0.0 ], [ -89.279762674122253, 43.087985124542435, 0.0 ], [ -89.279741132631116, 43.087958386271325, 0.0 ], [ -89.279681202023411, 43.087916476755453, 0.0 ], [ -89.279666868969002, 43.087909268318732, 0.0 ], [ -89.279642309992695, 43.087892588331393, 0.0 ], [ -89.27960618399004, 43.087884122609204, 0.0 ], [ -89.279566369949961, 43.087901305510698, 0.0 ], [ -89.279558239503899, 43.087922930820874, 0.0 ], [ -89.279547091572695, 43.08793642568498, 0.0 ], [ -89.279533177613416, 43.087928043781794, 0.0 ], [ -89.279498141258159, 43.087918236955083, 0.0 ], [ -89.279457489027777, 43.087952686577133, 0.0 ], [ -89.279435779898563, 43.087981185047916, 0.0 ], [ -89.279383979736949, 43.088026531144045, 0.0 ], [ -89.27931231446486, 43.088075649096631, 0.0 ], [ -89.279222376643816, 43.088173885001773, 0.0 ], [ -89.27920645102779, 43.088190900265232, 0.0 ], [ -89.279161104931617, 43.088207244976402, 0.0 ], [ -89.279101509600068, 43.088228451191426, 0.0 ], [ -89.279058678074861, 43.088220488383399, 0.0 ], [ -89.279047613962689, 43.088211519746991, 0.0 ], [ -89.27903302945117, 43.088194672121631, 0.0 ], [ -89.27897485904316, 43.088155360995756, 0.0 ], [ -89.278856758027473, 43.088064584984402, 0.0 ], [ -89.278760282321969, 43.087996272473511, 0.0 ], [ -89.27867436781446, 43.087924188106214, 0.0 ], [ -89.278674954547682, 43.087920164792713, 0.0 ], [ -89.278666405006433, 43.087910441785034, 0.0 ], [ -89.278665650635162, 43.087913207813095, 0.0 ], [ -89.278665650635162, 43.087913207813095, 0.0 ], [ -89.278613850473562, 43.08788278150454, 0.0 ], [ -89.278502874075571, 43.087797369911208, 0.0 ], [ -89.278372786938348, 43.087658984689838, 0.0 ], [ -89.278347389771724, 43.087630905314214, 0.0 ], [ -89.278321154414812, 43.087609196185007, 0.0 ], [ -89.278288381173397, 43.087576758219733, 0.0 ], [ -89.278190312906304, 43.087486904217712, 0.0 ], [ -89.278101380913654, 43.087402246995644, 0.0 ], [ -89.27799417637209, 43.087319266154246, 0.0 ], [ -89.277933742850223, 43.08726687925941, 0.0 ], [ -89.277826119213501, 43.087185071884434, 0.0 ], [ -89.27776040509265, 43.087138803778927, 0.0 ], [ -89.277689075096646, 43.08707476603869, 0.0 ], [ -89.277678346260586, 43.087066719411645, 0.0 ], [ -89.277656553312326, 43.087055822937508, 0.0 ], [ -89.277648758142391, 43.087059091879745, 0.0 ], [ -89.277616236358085, 43.08703822094084, 0.0 ], [ -89.277585726230541, 43.087012153222005, 0.0 ], [ -89.277513977139392, 43.086937219007623, 0.0 ] ] } },
{ "type": "Feature", "properties": { "id": 9 }, "geometry": { "type": "LineString", "coordinates": [ [ -89.280070625244761, 43.088209591909418, 0.0 ], [ -89.280070625244761, 43.088209591909418, 0.0 ], [ -89.280070625244761, 43.088209591909418, 0.0 ], [ -89.280075151472502, 43.088217554717438, 0.0 ], [ -89.28002268075862, 43.088189642979856, 0.0 ], [ -89.280009018256465, 43.088179919972198, 0.0 ], [ -89.279932407661462, 43.088118815898049, 0.0 ], [ -89.27992134354929, 43.088111858918417, 0.0 ], [ -89.279909189789691, 43.088110685451994, 0.0 ], [ -89.279913548379341, 43.088102974101055, 0.0 ], [ -89.279916482045451, 43.088119821726437, 0.0 ], [ -89.279916482045451, 43.088119821726437, 0.0 ], [ -89.279916482045451, 43.088119821726437, 0.0 ], [ -89.279916482045451, 43.088119570269342, 0.0 ], [ -89.279916482045451, 43.088117726250644, 0.0 ], [ -89.279916482045451, 43.088115127860661, 0.0 ], [ -89.279874656348625, 43.088089730694044, 0.0 ], [ -89.279807349666157, 43.088042792036269, 0.0 ], [ -89.279762674122253, 43.087985124542435, 0.0 ], [ -89.279741132631116, 43.087958386271325, 0.0 ], [ -89.279681202023411, 43.087916476755453, 0.0 ], [ -89.279666868969002, 43.087909268318732, 0.0 ], [ -89.279642309992695, 43.087892588331393, 0.0 ], [ -89.27960618399004, 43.087884122609204, 0.0 ], [ -89.279566369949961, 43.087901305510698, 0.0 ], [ -89.279558239503899, 43.087922930820874, 0.0 ], [ -89.279547091572695, 43.08793642568498, 0.0 ], [ -89.279533177613416, 43.087928043781794, 0.0 ], [ -89.279498141258159, 43.087918236955083, 0.0 ], [ -89.279457489027777, 43.087952686577133, 0.0 ], [ -89.279435779898563, 43.087981185047916, 0.0 ], [ -89.279383979736949, 43.088026531144045, 0.0 ], [ -89.27931231446486, 43.088075649096631, 0.0 ], [ -89.279222376643816, 43.088173885001773, 0.0 ], [ -89.27920645102779, 43.088190900265232, 0.0 ], [ -89.279161104931617, 43.088207244976402, 0.0 ], [ -89.279101509600068, 43.088228451191426, 0.0 ], [ -89.279058678074861, 43.088220488383399, 0.0 ], [ -89.279047613962689, 43.088211519746991, 0.0 ], [ -89.27903302945117, 43.088194672121631, 0.0 ], [ -89.27897485904316, 43.088155360995756, 0.0 ], [ -89.278856758027473, 43.088064584984402, 0.0 ], [ -89.278760282321969, 43.087996272473511, 0.0 ], [ -89.27867436781446, 43.087924188106214, 0.0 ], [ -89.278674954547682, 43.087920164792713, 0.0 ], [ -89.278666405006433, 43.087910441785034, 0.0 ], [ -89.278665650635162, 43.087913207813095, 0.0 ], [ -89.278665650635162, 43.087913207813095, 0.0 ], [ -89.278613850473562, 43.08788278150454, 0.0 ], [ -89.278502874075571, 43.087797369911208, 0.0 ], [ -89.278372786938348, 43.087658984689838, 0.0 ], [ -89.278347389771724, 43.087630905314214, 0.0 ], [ -89.278321154414812, 43.087609196185007, 0.0 ], [ -89.278288381173397, 43.087576758219733, 0.0 ], [ -89.278190312906304, 43.087486904217712, 0.0 ], [ -89.278101380913654, 43.087402246995644, 0.0 ], [ -89.27799417637209, 43.087319266154246, 0.0 ], [ -89.277933742850223, 43.08726687925941, 0.0 ], [ -89.277826119213501, 43.087185071884434, 0.0 ], [ -89.27776040509265, 43.087138803778927, 0.0 ], [ -89.277689075096646, 43.08707476603869, 0.0 ], [ -89.277678346260586, 43.087066719411645, 0.0 ], [ -89.277656553312326, 43.087055822937508, 0.0 ], [ -89.277648758142391, 43.087059091879745, 0.0 ], [ -89.277616236358085, 43.08703822094084, 0.0 ], [ -89.277585726230541, 43.087012153222005, 0.0 ], [ -89.277513977139392, 43.086937219007623, 0.0 ], [ -89.277413310482288, 43.086832109941831, 0.0 ], [ -89.2773115541778, 43.086737226797929, 0.0 ], [ -89.277222789823213, 43.08665382686133, 0.0 ], [ -89.27719429135243, 43.086621053619929, 0.0 ], [ -89.277106029912034, 43.086567912353836, 0.0 ], [ -89.277099156751433, 43.086568582906075, 0.0 ], [ -89.27707870490768, 43.086621472715088, 0.0 ], [ -89.277026150374823, 43.086647540433937, 0.0 ], [ -89.276975942774826, 43.086669668658303, 0.0 ], [ -89.27690427750268, 43.086717696963461, 0.0 ], [ -89.276837809010544, 43.08674703362454, 0.0 ], [ -89.276823224499026, 43.086760277031573, 0.0 ], [ -89.276800509541417, 43.086776789380814, 0.0 ], [ -89.276760946958461, 43.0867899489688, 0.0 ], [ -89.276700345798531, 43.086811406640898, 0.0 ], [ -89.27648216485899, 43.086840156568755, 0.0 ], [ -89.27639951929369, 43.08684845465288, 0.0 ], [ -89.276309916748801, 43.08685189123316, 0.0 ], [ -89.276298098265329, 43.086849544300257, 0.0 ], [ -89.276230037211576, 43.086853064699589, 0.0 ], [ -89.276130124925771, 43.086858848212771, 0.0 ], [ -89.276118641718426, 43.086862703888229, 0.0 ], [ -89.276101626454988, 43.086863877354666, 0.0 ], [ -89.276035325600887, 43.086870666696235, 0.0 ], [ -89.275991488247314, 43.086868403582372, 0.0 ], [ -89.275873387231627, 43.086873684181349, 0.0 ], [ -89.275702228768864, 43.086881479351263, 0.0 ], [ -89.275600556283393, 43.086874773828697, 0.0 ], [ -89.275536267086068, 43.08687309744807, 0.0 ], [ -89.275469211860695, 43.086873768000316, 0.0 ], [ -89.275395367293754, 43.086880305884776, 0.0 ], [ -89.275348596274057, 43.086879300056374, 0.0 ], [ -89.275278355925479, 43.086888268692768, 0.0 ], [ -89.275179449468055, 43.086896147681742, 0.0 ], [ -89.2750614322714, 43.086894471301093, 0.0 ], [ -89.275032347067381, 43.08689438748204, 0.0 ], [ -89.274883149190956, 43.086899332804897, 0.0 ], [ -89.274760521947528, 43.086901009185517, 0.0 ], [ -89.274670500307465, 43.086896985872002, 0.0 ], [ -89.274510573594966, 43.086900170995172, 0.0 ], [ -89.274335056542554, 43.086903523756398, 0.0 ], [ -89.274207651614347, 43.086905786870254, 0.0 ], [ -89.274065913631716, 43.086897404967075, 0.0 ], [ -89.273902550338903, 43.08690411048957, 0.0 ], [ -89.273795513435402, 43.086877036942305, 0.0 ], [ -89.273732565342584, 43.08676966476267, 0.0 ], [ -89.273723596706191, 43.086691461606065, 0.0 ], [ -89.273734744637409, 43.086622897638136, 0.0 ], [ -89.273729128762284, 43.086621221257516, 0.0 ], [ -89.273703396319561, 43.08656749325818, 0.0 ], [ -89.273712532594004, 43.086479818551012, 0.0 ], [ -89.273715214803005, 43.086475376142332, 0.0 ], [ -89.273715801536227, 43.086453667013103, 0.0 ], [ -89.273759471251751, 43.086302289841839, 0.0 ], [ -89.273764081298509, 43.086245041443178, 0.0 ], [ -89.273768691345239, 43.086180752245845, 0.0 ], [ -89.27380515262405, 43.086080001769737, 0.0 ], [ -89.273841446264782, 43.085940275443861, 0.0 ], [ -89.27386089228014, 43.085877159712993, 0.0 ], [ -89.273881847038069, 43.085803985698298, 0.0 ], [ -89.273932473733225, 43.085666941581472, 0.0 ], [ -89.273960636927868, 43.085549008203856, 0.0 ], [ -89.273955607785965, 43.085502069546074, 0.0 ], [ -89.273907495661774, 43.085475750370129, 0.0 ], [ -89.273749245329896, 43.085400229422511, 0.0 ], [ -89.273730553685823, 43.085391847519354, 0.0 ], [ -89.273659726604023, 43.085362343220147, 0.0 ], [ -89.273655451833392, 43.085355134783434, 0.0 ], [ -89.273649584501172, 43.085352452574398, 0.0 ], [ -89.273606082423726, 43.085347255794424, 0.0 ], [ -89.27359602413992, 43.085347423432509, 0.0 ], [ -89.273584876208702, 43.085351195288922, 0.0 ], [ -89.273496363311196, 43.085362929953362, 0.0 ], [ -89.273405252023721, 43.085358739001776, 0.0 ], [ -89.273333419113555, 43.085354212774028, 0.0 ], [ -89.27332730032424, 43.085355721516613, 0.0 ], [ -89.273238703607717, 43.085355470059518, 0.0 ], [ -89.273222358896518, 43.08535672734498, 0.0 ], [ -89.273205678909207, 43.085357146440117, 0.0 ], [ -89.2729632742695, 43.085363684324584, 0.0 ], [ -89.272945504634762, 43.085364103419728, 0.0 ], [ -89.272749200462499, 43.085379023207331, 0.0 ], [ -89.272615425287867, 43.085393188623677, 0.0 ], [ -89.272510316222096, 43.085396876661072, 0.0 ], [ -89.272371260448494, 43.085384890539508, 0.0 ], [ -89.272220134734312, 43.085392518071373, 0.0 ], [ -89.272200269623795, 43.085399391231974, 0.0 ], [ -89.272200772537985, 43.085436271605928, 0.0 ], [ -89.272233713417435, 43.085555629907105, 0.0 ], [ -89.272239580749655, 43.085614303229292, 0.0 ], [ -89.272232456131974, 43.085643975166512, 0.0 ], [ -89.272234551607752, 43.085659649325464, 0.0 ], [ -89.272251063957015, 43.085806164992881, 0.0 ], [ -89.272258020936647, 43.085894007338119, 0.0 ], [ -89.272281406446481, 43.086029039798241, 0.0 ], [ -89.272292973472872, 43.086156780002582, 0.0 ], [ -89.272293476387077, 43.0861848593782, 0.0 ], [ -89.272279981522956, 43.086360124973496, 0.0 ], [ -89.272273276000419, 43.086529523236592, 0.0 ], [ -89.27228014916102, 43.086640834910696, 0.0 ], [ -89.272284507750669, 43.086705207927096, 0.0 ], [ -89.272279981522956, 43.086723564295013, 0.0 ], [ -89.272279227151671, 43.086724234847281, 0.0 ], [ -89.272280819713259, 43.086725324494687, 0.0 ], [ -89.272277886047164, 43.086727755246599, 0.0 ], [ -89.272272186353007, 43.086825907332745, 0.0 ], [ -89.272266905754009, 43.086983487112377, 0.0 ], [ -89.272268330677548, 43.087026402456587, 0.0 ], [ -89.272269671782055, 43.087039645863626, 0.0 ], [ -89.272285429760018, 43.087155819041591, 0.0 ], [ -89.272282244636813, 43.087169397724729, 0.0 ], [ -89.272313090040484, 43.087241649730053, 0.0 ], [ -89.272300349547663, 43.087358828736392, 0.0 ], [ -89.272304540499249, 43.087374167619203, 0.0 ], [ -89.272307138889232, 43.08741968135341, 0.0 ], [ -89.272312419488244, 43.08749000552104, 0.0 ], [ -89.272300098090568, 43.087659403784109, 0.0 ], [ -89.27230194210928, 43.087702570585463, 0.0 ], [ -89.272312922402421, 43.087784880874601, 0.0 ], [ -89.272296242415109, 43.087968360735019, 0.0 ], [ -89.272288614883223, 43.088144129244533, 0.0 ], [ -89.272290291263857, 43.088220488382419, 0.0 ], [ -89.272299511357346, 43.088255776194785, 0.0 ], [ -89.272309402003074, 43.088384773684574, 0.0 ], [ -89.272305294870534, 43.088542269645167, 0.0 ], [ -89.272295907138968, 43.088694904101935, 0.0 ], [ -89.27229993045249, 43.088804707033489, 0.0 ], [ -89.272302528842474, 43.088854663176384, 0.0 ], [ -89.272321136667529, 43.088861284879904, 0.0 ], [ -89.272338654845157, 43.088861201060858, 0.0 ], [ -89.2723820731036, 43.088858099756685, 0.0 ], [ -89.272448709233799, 43.088854160262201, 0.0 ], [ -89.272497911005402, 43.088854160262208, 0.0 ], [ -89.272636966779032, 43.088849382577436, 0.0 ], [ -89.272795803844147, 43.088843096150079, 0.0 ], [ -89.272809969260479, 43.088844604892664, 0.0 ], [ -89.272807035594369, 43.0888430961501, 0.0 ], [ -89.272807203232446, 43.088843096150086, 0.0 ], [ -89.272808041422763, 43.088843096150093, 0.0 ], [ -89.272809717803383, 43.088843012331061, 0.0 ], [ -89.272816255687871, 43.088842593235896, 0.0 ], [ -89.272867133840109, 43.088843682883315, 0.0 ], [ -89.272893369197035, 43.08884259323591, 0.0 ], [ -89.27299747243444, 43.088838318465307, 0.0 ], [ -89.273150861262479, 43.088811412556147, 0.0 ], [ -89.27319779992024, 43.088797330958826, 0.0 ], [ -89.273213474079171, 43.088791128350493, 0.0 ], [ -89.273363426326895, 43.088717702878711, 0.0 ], [ -89.273411957546273, 43.088693143902432, 0.0 ], [ -89.273563334717551, 43.088596165282759, 0.0 ], [ -89.273647740482488, 43.088553669033686, 0.0 ], [ -89.273750586434403, 43.088495498625718, 0.0 ], [ -89.273915039374629, 43.088411595774971, 0.0 ], [ -89.273967845364609, 43.088381840018727, 0.0 ], [ -89.274066332726875, 43.088335823370315, 0.0 ], [ -89.274081001057425, 43.088339343769647, 0.0 ], [ -89.274194408207336, 43.088422659887208, 0.0 ], [ -89.274373529478098, 43.088558781994742, 0.0 ], [ -89.274482829495454, 43.088640254093583, 0.0 ], [ -89.27449313923637, 43.088749470291887, 0.0 ], [ -89.274471346288124, 43.088874612106245, 0.0 ], [ -89.274374200030366, 43.088944517178675, 0.0 ], [ -89.274300606920519, 43.088999251006364, 0.0 ], [ -89.274267833679119, 43.089027246562978, 0.0 ], [ -89.27420019172051, 43.089078124715208, 0.0 ], [ -89.274103464557925, 43.089152975110522, 0.0 ], [ -89.273991398512536, 43.089259341461734, 0.0 ], [ -89.273897102101827, 43.089351458577582, 0.0 ], [ -89.273875392972613, 43.089364366708452, 0.0 ], [ -89.2738750576965, 43.089365875451037, 0.0 ], [ -89.273882098495164, 43.089369479669401, 0.0 ], [ -89.273882098495164, 43.089369479669401, 0.0 ], [ -89.27386332303206, 43.089383142171577, 0.0 ], [ -89.273815043269778, 43.089423710582928, 0.0 ], [ -89.273722507058778, 43.089511385290081, 0.0 ], [ -89.273725692181984, 43.089514402775222, 0.0 ], [ -89.27372745238165, 43.089513061670701, 0.0 ], [ -89.273727536200681, 43.089515995336818, 0.0 ], [ -89.273681687190333, 43.089559413595246, 0.0 ], [ -89.273588648065129, 43.089650441063689, 0.0 ], [ -89.27356132306079, 43.089674161849629, 0.0 ], [ -89.273489238693514, 43.089764434946801, 0.0 ], [ -89.273405922575989, 43.089892007513036, 0.0 ], [ -89.273377927019396, 43.08992997753441, 0.0 ], [ -89.273360911755958, 43.089953782139418, 0.0 ], [ -89.273345153777996, 43.089987561209213, 0.0 ], [ -89.273330820723572, 43.090004660291676, 0.0 ], [ -89.273236440493861, 43.090161150423846, 0.0 ], [ -89.273222694172659, 43.090192666379806, 0.0 ], [ -89.273179192095199, 43.090281346915333, 0.0 ], [ -89.273168798535266, 43.090321496231539, 0.0 ], [ -89.273124961181679, 43.09043280790565, 0.0 ], [ -89.273056816308895, 43.090573959155037, 0.0 ], [ -89.273045500739613, 43.090619053794093, 0.0 ], [ -89.273004764690199, 43.090696418760352, 0.0 ], [ -89.272973248734274, 43.090770850060522, 0.0 ], [ -89.272971991448784, 43.090907558901257, 0.0 ], [ -89.272949863224426, 43.091004286063864, 0.0 ], [ -89.272935111074844, 43.091112412614748, 0.0 ], [ -89.272914826869155, 43.091221377356007, 0.0 ], [ -89.272921700029755, 43.091315422309592, 0.0 ], [ -89.27292614243845, 43.09144257578069, 0.0 ], [ -89.272930836304226, 43.091544918818407, 0.0 ], [ -89.272924130781689, 43.09165732013993, 0.0 ], [ -89.272935194893876, 43.091697972370326, 0.0 ], [ -89.272968387230435, 43.091699145836778, 0.0 ], [ -89.273158907889524, 43.091679783640473, 0.0 ], [ -89.273299220948616, 43.091671234099273, 0.0 ], [ -89.273380273952284, 43.091668635709283, 0.0 ], [ -89.273442719130912, 43.091667043147702, 0.0 ], [ -89.273551348596015, 43.091667043147702, 0.0 ], [ -89.273626785724559, 43.091660169987108, 0.0 ], [ -89.273872710763598, 43.091656565768787, 0.0 ], [ -89.273967677726546, 43.091655392302357, 0.0 ], [ -89.274194156750241, 43.091660002349137, 0.0 ], [ -89.27440688945272, 43.091661343453687, 0.0 ], [ -89.274654323234358, 43.091655140845361, 0.0 ] ] } }
]
}
