{
"type": "FeatureCollection",
"name": "R_5y0p5rV4dCjsSoF_human_GPX_fix",
"crs": { "type": "name", "properties": { "name": "urn:ogc:def:crs:OGC:1.3:CRS84" } },
"features": [
{ "type": "Feature", "properties": { "name": null, "cmt": null, "desc": null, "src": null, "link1_href": null, "link1_text": null, "link1_type": null, "link2_href": null, "link2_text": null, "link2_type": null, "number": null, "type": null }, "geometry": { "type": "MultiLineString", "coordinates": [ [ [ -89.289933443069458, 43.083451520651579, 286.4 ], [ -89.28993059322238, 43.083451353013515, 286.8 ], [ -89.289922965690494, 43.083447748795152, 287.0 ], [ -89.289888264611363, 43.083400810137391, 287.2 ], [ -89.289847947657108, 43.083328558132052, 288.2 ], [ -89.289842918515205, 43.083279188722372, 289.8 ], [ -89.289844175800681, 43.083264771848917, 290.2 ], [ -89.289864376187325, 43.083218168467283, 293.0 ], [ -89.289879128336906, 43.083138708025217, 293.8 ], [ -89.28987342864275, 43.083051620051265, 295.0 ], [ -89.289873344823718, 43.083038376644254, 295.0 ], [ -89.289874769747257, 43.083035107702017, 295.0 ], [ -89.289878709241748, 43.083034520968795, 295.0 ], [ -89.289879631251097, 43.082991857081652, 294.6 ], [ -89.28990519605577, 43.082914156839252, 295.2 ], [ -89.289955822750926, 43.082891441881657, 295.4 ], [ -89.290172997862101, 43.08289747685194, 295.8 ], [ -89.290219601243734, 43.082892531529069, 295.8 ], [ -89.290221109986305, 43.082898734137416, 295.4 ], [ -89.290299145504832, 43.082900578156114, 295.6 ], [ -89.290450857952237, 43.082903595641255, 295.8 ], [ -89.290456306189299, 43.082899153232574, 295.8 ], [ -89.290485056117177, 43.08289697393775, 296.0 ], [ -89.290546495467424, 43.082885909825563, 296.2 ], [ -89.290618412196636, 43.082872163504362, 296.2 ], [ -89.290678845718503, 43.082855818793178, 296.2 ], [ -89.290694016963243, 43.082850035279989, 296.2 ], [ -89.29075101390481, 43.082826649770141, 296.2 ], [ -89.290800299495459, 43.082797229290009, 296.2 ], [ -89.290864169597626, 43.082769820466638, 296.2 ], [ -89.290909934788942, 43.08273964561522, 296.4 ], [ -89.290989646688104, 43.082675775513053, 296.0 ], [ -89.291066760197282, 43.082587430253625, 298.0 ], [ -89.291109926998615, 43.082495564594865, 299.6 ], [ -89.291124092414975, 43.082466647028923, 300.4 ], [ -89.291128618642688, 43.082445692270994, 300.8 ], [ -89.291122583672404, 43.082385929301381, 300.6 ], [ -89.291123421862721, 43.082311162725091, 299.4 ], [ -89.291118560358882, 43.082295404747128, 299.8 ], [ -89.291108837351203, 43.082252908498049, 299.8 ], [ -89.291110262274742, 43.082238240167499, 299.8 ], [ -89.291102886199951, 43.082168502733111, 299.6 ], [ -89.291103640571237, 43.082156432792544, 299.6 ], [ -89.291108250617981, 43.082037745043635, 299.6 ], [ -89.291112860664725, 43.082022154703736, 299.8 ], [ -89.291118141263723, 43.081887541338801, 301.4 ], [ -89.291110849007964, 43.081862479448318, 301.6 ], [ -89.291099701076746, 43.081770362332463, 301.6 ], [ -89.291103053838015, 43.081636922433972, 300.4 ], [ -89.291112022474408, 43.081611860543489, 300.4 ], [ -89.29111797362566, 43.081601886078715, 300.4 ], [ -89.29112677462399, 43.081528712064028, 300.8 ], [ -89.291126690804958, 43.081507589668036, 301.0 ], [ -89.29113264195621, 43.08149853721261, 301.0 ], [ -89.291150663048029, 43.081486718729138, 301.0 ], [ -89.29116734303534, 43.081482946872711, 301.0 ], [ -89.291173461824656, 43.081487473100424, 301.6 ], [ -89.291186453774571, 43.081491747871041, 301.8 ], [ -89.291267087683082, 43.081501889973879, 302.0 ], [ -89.291369933634996, 43.081499459221959, 301.6 ], [ -89.291380913928151, 43.081500381231308, 301.4 ], [ -89.291461547836661, 43.081495435908437, 301.0 ], [ -89.291585683822632, 43.081497950479388, 299.8 ], [ -89.291670005768538, 43.081495016813278, 299.2 ], [ -89.291688529774547, 43.081494765356183, 299.2 ], [ -89.291821718215942, 43.081500884145498, 299.8 ], [ -89.291975107043982, 43.081501135602593, 301.0 ], [ -89.292050041258335, 43.081516474485397, 300.6 ], [ -89.292082143947482, 43.081515049561858, 300.2 ], [ -89.292117431759834, 43.081516977399588, 299.8 ], [ -89.292129585519433, 43.08151756413281, 299.8 ], [ -89.292147103697062, 43.081517396494746, 299.8 ], [ -89.292283728718758, 43.081512115895748, 300.0 ], [ -89.292308790609241, 43.081504069268703, 300.0 ], [ -89.292316921055317, 43.081481857225299, 300.0 ], [ -89.292308539152145, 43.081345735117793, 300.6 ], [ -89.292316669598222, 43.081241128966212, 300.6 ], [ -89.292316250503063, 43.081232830882072, 300.6 ], [ -89.292313819751143, 43.081230148673058, 300.4 ], [ -89.292312311008573, 43.081230148673058, 300.4 ], [ -89.292314238846302, 43.081212127581239, 300.2 ], [ -89.292307114228606, 43.081139037385583, 300.2 ], [ -89.292300827801228, 43.081141216680408, 300.4 ], [ -89.292303258553147, 43.081142976880074, 300.6 ], [ -89.292306276038289, 43.08110810816288, 301.0 ], [ -89.292307533323765, 43.081091260537505, 301.0 ], [ -89.29232438094914, 43.081026971340179, 300.8 ], [ -89.292327230796218, 43.08096737600863, 300.6 ], [ -89.292328404262662, 43.080908870324492, 300.6 ], [ -89.292357238009572, 43.080822369083762, 302.4 ], [ -89.292383557185531, 43.080780627205968, 303.4 ], [ -89.292392861098051, 43.080757828429341, 303.8 ], [ -89.292378108948469, 43.080666214227676, 307.2 ], [ -89.292376851662993, 43.080557165667415, 308.6 ], [ -89.292385904118419, 43.080511819571257, 308.4 ], [ -89.292386323213577, 43.080499581992626, 308.2 ], [ -89.292392609640956, 43.080451050773263, 307.4 ], [ -89.292404595762491, 43.080370249226689, 305.8 ], [ -89.29235665127635, 43.080258686095476, 304.2 ], [ -89.292351370677352, 43.080206047743559, 303.8 ], [ -89.292347095906734, 43.080195235088468, 303.4 ], [ -89.292339133098722, 43.080179393291473, 302.8 ], [ -89.292335193604231, 43.080177549272776, 301.0 ], [ -89.292331421747804, 43.080171095207334, 300.4 ], [ -89.292329326272011, 43.080162378028035, 300.4 ], [ -89.292308455333114, 43.08012155815959, 300.4 ], [ -89.292307365685701, 43.080110158771276, 300.2 ], [ -89.292310886085033, 43.0800502281636, 300.2 ], [ -89.292303677648306, 43.08003019541502, 300.2 ], [ -89.292300995439291, 43.080001110211015, 300.2 ], [ -89.292304767295718, 43.079972108826041, 300.0 ], [ -89.292279621586204, 43.079907819628716, 297.4 ], [ -89.292267132550478, 43.079899018630385, 297.0 ], [ -89.292235365137458, 43.079856690019369, 295.2 ], [ -89.292180715128779, 43.079801956191659, 294.8 ], [ -89.292147858068347, 43.079791478812695, 294.4 ], [ -89.292138470336795, 43.079785443842411, 294.2 ], [ -89.292137213051319, 43.079776223748922, 294.0 ], [ -89.29213872179389, 43.079765327274799, 294.0 ], [ -89.292128495872021, 43.079743199050426, 293.8 ], [ -89.292114581912756, 43.079704055562615, 294.0 ], [ -89.292091866955161, 43.079664073884487, 294.0 ], [ -89.29208692163229, 43.079653009772301, 294.0 ], [ -89.292044090107083, 43.079625349491835, 294.0 ], [ -89.291973765939474, 43.079548068344593, 294.6 ], [ -89.291852144524455, 43.079423094168305, 294.4 ], [ -89.291781820356846, 43.079357631504536, 294.4 ], [ -89.291728343814611, 43.079315973445773, 295.2 ], [ -89.291612338274717, 43.079232154414058, 295.8 ], [ -89.291604878380895, 43.079225867986679, 295.8 ], [ -89.291596245020628, 43.079217318445444, 295.8 ], [ -89.291532291099429, 43.079175995662808, 295.8 ], [ -89.291494991630316, 43.079156801104546, 295.8 ], [ -89.291347051039338, 43.079077675938606, 294.4 ], [ -89.291207240894437, 43.079006345942616, 293.2 ], [ -89.29113213904202, 43.078962424769998, 295.2 ], [ -89.291136413812637, 43.078950941562653, 295.4 ], [ -89.291158793494105, 43.078912049531937, 295.8 ], [ -89.291192321106791, 43.078877851366997, 296.0 ], [ -89.291216041892767, 43.078846503049135, 296.2 ], [ -89.291296172887087, 43.078747512772679, 296.4 ], [ -89.291337160393596, 43.078688085079193, 296.8 ], [ -89.291400611400604, 43.078602841123939, 297.8 ], [ -89.291486106812954, 43.078520447015762, 299.2 ], [ -89.29149666801095, 43.078434113413095, 299.6 ], [ -89.291521478444338, 43.07832095772028, 298.8 ], [ -89.29152449592948, 43.07823546230793, 298.2 ], [ -89.29152600467205, 43.078156085684896, 298.2 ], [ -89.291523154824972, 43.078144937753677, 298.2 ], [ -89.291521478444338, 43.078054245561361, 298.6 ], [ -89.291552072390914, 43.07804980315268, 298.6 ], [ -89.291671430692077, 43.078049132600427, 298.2 ], [ -89.291659612208605, 43.077949555590749, 297.8 ], [ -89.291693223640323, 43.077806811779737, 297.0 ], [ -89.291701773181558, 43.077799351885915, 297.0 ], [ -89.291698504239321, 43.077717544510961, 297.4 ], [ -89.291688110679388, 43.077714275568724, 298.2 ], [ -89.291689787060022, 43.07767940685153, 299.0 ], [ -89.291692636907101, 43.077619140967727, 299.2 ], [ -89.291688781231642, 43.077597934752703, 299.2 ], [ -89.291683081537485, 43.077583266422153, 299.0 ], [ -89.291672687977552, 43.077526018023491, 298.6 ], [ -89.291670676320791, 43.077488215640187, 298.4 ], [ -89.291667407378554, 43.077463489025831, 298.2 ], [ -89.291665479540825, 43.077379418537021, 298.0 ], [ -89.291666317731142, 43.077367935329676, 298.2 ], [ -89.29164276458323, 43.07729140855372, 297.6 ], [ -89.291650056838989, 43.077250504866242, 296.6 ], [ -89.291647961363196, 43.077225107699633, 296.6 ], [ -89.291672352701426, 43.077179677784443, 297.0 ], [ -89.291768660768867, 43.077178336679935, 297.2 ], [ -89.291773689910769, 43.077177247032523, 298.0 ], [ -89.291769498959184, 43.077176157385111, 298.0 ], [ -89.291761787608266, 43.077175235375762, 297.0 ], [ -89.291742844507098, 43.077169451862574, 297.4 ], [ -89.291746532544494, 43.077170709148049, 297.4 ], [ -89.291810067370534, 43.077184958383441, 297.4 ], [ -89.2919344548136, 43.077182359993458, 297.6 ], [ -89.291971838101745, 43.077180767431855, 297.8 ], [ -89.292073426768184, 43.077193005010486, 298.0 ], [ -89.292217511683702, 43.077202225103974, 298.0 ], [ -89.292229078710079, 43.077198956161737, 298.0 ], [ -89.292237125337124, 43.077190909534693, 298.0 ], [ -89.292237879708409, 43.077189652249217, 298.0 ], [ -89.292311891913414, 43.077199039980769, 298.0 ], [ -89.292365536093712, 43.077180851250887, 297.8 ], [ -89.292370984330773, 43.077197279781103, 298.6 ], [ -89.292332092300057, 43.077188730239868, 299.2 ], [ -89.292330499738455, 43.077187556773424, 298.8 ], [ -89.292331505566835, 43.077187556773424, 298.8 ], [ -89.292371571063995, 43.077184287831187, 298.8 ], [ -89.292519511654973, 43.077173391357064, 298.4 ], [ -89.292549937963486, 43.077181102707982, 298.2 ], [ -89.292693184688687, 43.077179677784443, 297.6 ], [ -89.292811788618565, 43.077187724411488, 297.4 ], [ -89.292918993160129, 43.077181689441204, 296.4 ], [ -89.292969284579158, 43.077186634764075, 296.2 ], [ -89.293157709762454, 43.077213959768414, 298.8 ], [ -89.293221412226558, 43.077215552330017, 299.2 ], [ -89.293272290378809, 43.077213121578097, 299.2 ], [ -89.293391313403845, 43.07720541022718, 299.0 ], [ -89.293523747473955, 43.077197782695293, 298.6 ], [ -89.293540259823203, 43.077199542894959, 298.6 ], [ -89.29366179741919, 43.077204655855894, 299.0 ], [ -89.293690044432878, 43.077200297266245, 299.4 ], [ -89.293829603120685, 43.07718931697309, 299.6 ], [ -89.29397645406425, 43.077182695269585, 299.8 ], [ -89.293992714956403, 43.077179342508316, 300.0 ], [ -89.294005874544382, 43.077173475176096, 300.2 ], [ -89.294005539268255, 43.077173726633191, 300.2 ], [ -89.294043425470591, 43.077180264517665, 300.4 ], [ -89.294078964740038, 43.077185126021504, 300.2 ], [ -89.294200837612152, 43.077191328629851, 299.2 ], [ -89.294339893385768, 43.077194597572088, 300.6 ], [ -89.294368894770741, 43.077196190133691, 301.0 ], [ -89.294371241703629, 43.077193927019835, 300.8 ], [ -89.294450702145696, 43.077189233154058, 300.6 ], [ -89.294666703790426, 43.077190658077598, 300.6 ], [ -89.294787822291255, 43.077175654470921, 300.2 ], [ -89.294815566390753, 43.077179510146379, 299.8 ], [ -89.294924447312951, 43.077187892049551, 298.4 ], [ -89.294973229989409, 43.077205242589116, 298.2 ], [ -89.294986221939325, 43.077210187911987, 298.2 ], [ -89.295043218880892, 43.077200381085277, 298.8 ], [ -89.295069621875882, 43.077197028324008, 299.2 ], [ -89.295110441744328, 43.077190993353724, 299.6 ], [ -89.295124439522624, 43.077186970040202, 299.4 ], [ -89.295138772577047, 43.077183114364743, 299.4 ], [ -89.295153357088566, 43.077179091051221, 299.2 ], [ -89.295199373736978, 43.077183868736029, 298.4 ], [ -89.295251928269863, 43.077180935069919, 297.6 ], [ -89.295288724824786, 43.077189652249217, 297.2 ], [ -89.295319905504584, 43.077193088829517, 297.0 ], [ -89.295386122539639, 43.077209936454892, 296.6 ], [ -89.295438174158335, 43.077212115749717, 296.8 ], [ -89.295536745339632, 43.07719711214304, 298.4 ], [ -89.295545630156994, 43.077192166820168, 299.2 ], [ -89.295621067285538, 43.077186467126012, 299.4 ], [ -89.295712765306234, 43.077184790745378, 299.2 ], [ -89.295734390616417, 43.077184371650219, 298.6 ], [ -89.295760039240122, 43.077183114364743, 298.0 ], [ -89.295855760574341, 43.077166182920337, 297.8 ], [ -89.295894233509898, 43.07716928422451, 298.0 ], [ -89.295941758900881, 43.077174732461572, 298.0 ], [ -89.29595198482275, 43.077179677784443, 298.0 ], [ -89.295939328148961, 43.077156627550721, 298.0 ], [ -89.295935304835439, 43.077140618115664, 298.0 ], [ -89.29593974724412, 43.077020421624184, 297.8 ], [ -89.296042928472161, 43.077025031670928, 297.6 ], [ -89.296235125511885, 43.077061325311661, 301.8 ], [ -89.296272760257125, 43.077090410515666, 302.6 ], [ -89.296286087483168, 43.07709158398211, 302.4 ], [ -89.296312993392348, 43.077090159058571, 301.8 ], [ -89.296353980898857, 43.077097702771425, 301.4 ], [ -89.296421622857451, 43.077093176543713, 301.0 ], [ -89.296440901234746, 43.07709988206625, 301.0 ], [ -89.296557074412704, 43.077111532911658, 301.2 ], [ -89.296710547059774, 43.077105917036533, 304.8 ], [ -89.2967489361763, 43.077090410515666, 305.4 ], [ -89.296836527064443, 43.077093092724681, 306.2 ], [ -89.29685203358531, 43.077100049704313, 306.4 ], [ -89.296923195943236, 43.077095691114664, 306.8 ], [ -89.296947754919529, 43.077090829610825, 306.8 ], [ -89.296998884528875, 43.077049255371094, 306.8 ], [ -89.297036854550242, 43.076914222911, 307.8 ], [ -89.297010200098157, 43.076790422201157, 309.2 ], [ -89.297009697183967, 43.076783046126366, 309.2 ], [ -89.297012966126204, 43.076769551262259, 309.2 ], [ -89.297015145421028, 43.076761672273278, 308.8 ], [ -89.296976840123534, 43.076688414439559, 307.6 ], [ -89.296978935599327, 43.076626136898994, 305.6 ], [ -89.296951778233051, 43.076531840488315, 305.6 ], [ -89.296956220641732, 43.076383732259274, 303.2 ], [ -89.29694876074791, 43.076281975954771, 303.4 ], [ -89.296967620030046, 43.076208299025893, 304.4 ], [ -89.296983545646071, 43.076166892424226, 305.0 ], [ -89.29705236107111, 43.0761475302279, 305.2 ], [ -89.297126876190305, 43.076123055070639, 305.2 ], [ -89.297145986929536, 43.076090784743428, 305.0 ], [ -89.297223435714841, 43.07597410865128, 305.0 ], [ -89.297249335795641, 43.075924990698695, 306.0 ], [ -89.297249838709831, 43.075924403965473, 306.2 ], [ -89.297244641929865, 43.075919039547443, 306.2 ], [ -89.297255370765924, 43.075898252427578, 306.4 ], [ -89.297342207282782, 43.07582407258451, 306.8 ], [ -89.297425020486116, 43.07578207924962, 307.8 ], [ -89.297526190057397, 43.07570387609303, 307.0 ], [ -89.297567009925842, 43.075672276318073, 306.4 ], [ -89.297578493133187, 43.075665235519409, 306.4 ], [ -89.297647727653384, 43.075627768412232, 306.2 ], [ -89.297672957181931, 43.075612597167492, 306.2 ], [ -89.297754261642694, 43.075570771470666, 305.2 ], [ -89.297826513648033, 43.075536824762821, 304.2 ], [ -89.297863394021988, 43.075526095926762, 303.8 ], [ -89.297928269952536, 43.075483934953809, 302.6 ], [ -89.297966072335839, 43.075449652969837, 302.0 ], [ -89.297979064285755, 43.075443198904395, 302.0 ], [ -89.298055171966553, 43.075412102043629, 302.0 ], [ -89.298077551648021, 43.075400283560157, 302.0 ], [ -89.298091633245349, 43.075390057638288, 301.8 ], [ -89.298239406198263, 43.075317721813917, 296.6 ], [ -89.298350969329476, 43.075273633003235, 295.0 ], [ -89.298456329852343, 43.075168943032622, 293.4 ], [ -89.298518858850002, 43.075107587501407, 292.8 ], [ -89.298608042299747, 43.074995018541813, 292.2 ], [ -89.298672582954168, 43.07489619590342, 293.4 ], [ -89.298696890473366, 43.074851185083389, 295.4 ], [ -89.298711139708757, 43.074825955554843, 296.4 ], [ -89.29871809668839, 43.074813885614276, 296.6 ], [ -89.298689514398575, 43.074761414900422, 298.8 ], [ -89.298681886866689, 43.074756553396583, 299.0 ], [ -89.298682138323784, 43.074696622788906, 299.2 ], [ -89.298691106960177, 43.074631495401263, 299.4 ], [ -89.298694375902414, 43.074612300843, 299.4 ], [ -89.298715749755502, 43.074519680812955, 297.0 ], [ -89.298699153587222, 43.0744310002774, 293.2 ], [ -89.298689095303416, 43.074364028871059, 288.8 ], [ -89.298692783340812, 43.074251711368561, 289.2 ], [ -89.298682976514101, 43.074159761890769, 292.8 ], [ -89.298679372295737, 43.074099496006966, 292.6 ], [ -89.298675935715437, 43.074018862098455, 291.0 ], [ -89.298703679814935, 43.073966223746538, 290.2 ], [ -89.298690771684051, 43.073936803266406, 290.6 ], [ -89.298683982342482, 43.073834795504808, 291.6 ], [ -89.298696219921112, 43.073808895424008, 291.6 ], [ -89.298706278204918, 43.073768494650722, 291.6 ], [ -89.298701584339142, 43.073736559599638, 291.6 ], [ -89.298690352588892, 43.073694985359907, 291.2 ], [ -89.298703260719776, 43.073644945397973, 290.4 ], [ -89.29870493710041, 43.073637234047055, 289.0 ], [ -89.298696303740144, 43.073641173541546, 288.6 ], [ -89.298691442236304, 43.073588954284787, 288.6 ], [ -89.298685491085052, 43.07350991293788, 289.0 ], [ -89.298690604045987, 43.073505219072104, 289.2 ], [ -89.298679707571864, 43.073458112776279, 289.0 ], [ -89.298675851896405, 43.073439421132207, 289.0 ], [ -89.298645928502083, 43.073330204933882, 287.6 ], [ -89.298632349818945, 43.073273627087474, 286.2 ], [ -89.298615083098412, 43.073264742270112, 285.8 ], [ -89.29857007227838, 43.073260551318526, 285.2 ], [ -89.298523804172873, 43.073263568803668, 285.0 ], [ -89.298521876335144, 43.073265496641397, 285.0 ], [ -89.298499831929803, 43.07326415553689, 285.0 ], [ -89.298463203012943, 43.073266167193651, 285.0 ], [ -89.298389442265034, 43.073263484984636, 284.8 ], [ -89.29837410338223, 43.073260970413685, 284.8 ], [ -89.298201352357864, 43.073256611824036, 284.8 ], [ -89.298182744532824, 43.073254348710179, 284.6 ], [ -89.298131531104445, 43.073237417265773, 283.8 ], [ -89.298127507790923, 43.073228448629379, 283.6 ], [ -89.29814008064568, 43.073235573247075, 283.2 ], [ -89.298059195280075, 43.073263820260763, 283.2 ], [ -89.298028601333499, 43.073264071717858, 283.2 ], [ -89.297959450632334, 43.073260299861431, 282.8 ], [ -89.297850737348199, 43.073267340660095, 281.4 ], [ -89.297832129523158, 43.073267759755254, 281.0 ], [ -89.297800278291106, 43.073268430307508, 280.4 ], [ -89.29770271293819, 43.0732705257833, 279.4 ], [ -89.297688463702798, 43.07327295653522, 279.2 ], [ -89.297673460096121, 43.073274632915854, 279.2 ], [ -89.297658037394285, 43.073276979848742, 279.0 ], [ -89.297587210312486, 43.073282763361931, 278.8 ], [ -89.297464834526181, 43.073282176628709, 278.8 ], [ -89.297451004385948, 43.073283433914185, 278.8 ], [ -89.297402976080775, 43.073277985677123, 278.8 ], [ -89.297328293323517, 43.073273040354252, 279.4 ], [ -89.297100137919188, 43.073276812210679, 284.2 ], [ -89.296959154307842, 43.073285864666104, 285.4 ], [ -89.296949934214354, 43.073285277932882, 285.4 ], [ -89.296876005828381, 43.073280835524201, 285.0 ], [ -89.296739716082811, 43.073268346488476, 285.4 ], [ -89.296694034710526, 43.073266753926873, 285.6 ], [ -89.296690346673131, 43.07327195070684, 285.8 ], [ -89.296643575653434, 43.073267005383968, 286.0 ], [ -89.296565540134907, 43.073269100859761, 285.8 ], [ -89.29650460369885, 43.073270358145237, 284.8 ], [ -89.296468812972307, 43.073241859674454, 284.6 ], [ -89.296468980610371, 43.073210176080465, 284.4 ], [ -89.29647283628583, 43.073170110583305, 284.2 ], [ -89.296489097177982, 43.073148736730218, 283.8 ], [ -89.296533856540918, 43.073049411177635, 285.8 ], [ -89.296540981158614, 43.072972968220711, 287.8 ], [ -89.296538550406694, 43.0729597248137, 287.8 ], [ -89.296537209302187, 43.072949163615704, 287.8 ], [ -89.296541484072804, 43.072898034006357, 285.8 ], [ -89.296550704166293, 43.072829386219382, 285.0 ], [ -89.296550368890166, 43.072822596877813, 285.2 ], [ -89.296541232615709, 43.0727559607476, 286.2 ], [ -89.296537796035409, 43.07269100099802, 286.4 ], [ -89.296517511829734, 43.07259812951088, 285.8 ], [ -89.296513991430402, 43.072531828656793, 284.4 ], [ -89.296514913439751, 43.072504084557295, 284.6 ], [ -89.296472920104861, 43.072410710155964, 286.2 ], [ -89.296458587050438, 43.072402495890856, 286.4 ], [ -89.296406200155616, 43.072385480627418, 287.0 ], [ -89.296367559581995, 43.072371650487185, 286.8 ], [ -89.296310059726238, 43.072349522262812, 286.6 ], [ -89.296261528506875, 43.072348097339272, 286.4 ], [ -89.296192964538932, 43.072335440665483, 286.2 ], [ -89.29614351131022, 43.072334351018071, 286.2 ], [ -89.29608291015029, 43.072345666587353, 285.8 ], [ -89.296050975099206, 43.072349354624748, 285.2 ], [ -89.296049885451794, 43.072351366281509, 285.2 ], [ -89.295975957065821, 43.072347678244114, 285.0 ], [ -89.295832626521587, 43.072346588596702, 284.6 ], [ -89.295814437791705, 43.072345834225416, 284.6 ], [ -89.295689715072513, 43.072334602475166, 284.6 ], [ -89.295633975416422, 43.07232890278101, 284.6 ], [ -89.295602208003402, 43.072332423180342, 284.4 ], [ -89.295464912429452, 43.072335524484515, 284.4 ], [ -89.29536416195333, 43.072322783991694, 284.8 ], [ -89.295223848894238, 43.07232353836298, 284.6 ], [ -89.295190656557679, 43.072323203086853, 284.6 ], [ -89.295116309076548, 43.072319263592362, 284.6 ], [ -89.295071549713612, 43.072319850325584, 284.8 ], [ -89.295067694038153, 43.072321275249124, 284.8 ], [ -89.295059060677886, 43.072317922487855, 285.4 ], [ -89.295059060677886, 43.072317922487855, 285.6 ], [ -89.295059060677886, 43.072318509221077, 285.6 ], [ -89.295055791735649, 43.072319515049458, 285.4 ], [ -89.295055624097586, 43.072319682687521, 285.4 ], [ -89.294975241646171, 43.072319766506553, 285.4 ], [ -89.294784469529986, 43.072317587211728, 286.8 ], [ -89.294736860319972, 43.072313982993364, 287.2 ], [ -89.294722275808454, 43.072314821183681, 287.4 ], [ -89.294600654393435, 43.072315659373999, 288.0 ], [ -89.294463777914643, 43.072317922487855, 288.2 ], [ -89.29430820979178, 43.072311887517571, 287.4 ], [ -89.294186420738697, 43.072305684909225, 287.0 ], [ -89.294163873419166, 43.072306523099542, 288.0 ], [ -89.294164208695292, 43.072308115661144, 290.0 ], [ -89.294151468202472, 43.072305433452129, 290.2 ], [ -89.294133195653558, 43.072304176166654, 290.2 ], [ -89.294081144034863, 43.072298811748624, 290.4 ], [ -89.294064128771424, 43.072296548634768, 290.4 ], [ -89.294016351923347, 43.072284897789359, 290.6 ], [ -89.293951224535704, 43.072285484522581, 290.6 ], [ -89.293908812105656, 43.072290513664484, 290.6 ], [ -89.293756177648902, 43.072324376553297, 288.6 ], [ -89.293658193200827, 43.072303337976336, 287.6 ], [ -89.293480580672622, 43.072299733757973, 287.0 ], [ -89.293476222082973, 43.072300488129258, 286.6 ], [ -89.293407741934061, 43.072302332147956, 285.0 ], [ -89.293235661461949, 43.072280790656805, 285.8 ], [ -89.293197020888329, 43.072271319106221, 285.8 ], [ -89.293158128857613, 43.072268636897206, 285.4 ], [ -89.292979007586837, 43.072260087355971, 284.0 ], [ -89.292895020917058, 43.072258243337274, 282.2 ], [ -89.292873479425907, 43.072272911667824, 281.8 ], [ -89.292859314009547, 43.07228154502809, 281.8 ], [ -89.292782703414559, 43.072281796485186, 283.6 ], [ -89.292642222717404, 43.072284813970327, 285.2 ], [ -89.292467543855309, 43.072287747636437, 286.2 ], [ -89.292318178340793, 43.072291016578674, 286.4 ], [ -89.292302001267672, 43.072289675474167, 286.4 ], [ -89.292173841968179, 43.07227861136198, 285.4 ], [ -89.29199212230742, 43.07230887003243, 285.6 ], [ -89.291934622451663, 43.072308618575335, 284.2 ], [ -89.291763799265027, 43.072309289127588, 285.2 ], [ -89.291630862280726, 43.07230593636632, 287.2 ], [ -89.291452495381236, 43.07231574319303, 287.4 ], [ -89.291323162615299, 43.072311133146286, 288.0 ], [ -89.29111797362566, 43.072314988821745, 289.4 ], [ -89.291071705520153, 43.072318006306887, 289.4 ], [ -89.291048487648368, 43.072316581383348, 289.6 ], [ -89.290913539007306, 43.072303673252463, 289.8 ], [ -89.290877413004637, 43.072293950244784, 290.0 ], [ -89.290859643369913, 43.072296129539609, 290.0 ], [ -89.290858050808311, 43.07229864411056, 290.0 ], [ -89.290862325578928, 43.072306020185351, 289.2 ], [ -89.290870791301131, 43.072308199480176, 290.2 ], [ -89.290825109928846, 43.072352707386017, 290.6 ], [ -89.290674487128854, 43.07243543677032, 290.8 ], [ -89.290639199316502, 43.072451697662473, 291.4 ], [ -89.290501652285457, 43.072516657412052, 291.8 ], [ -89.290428562089801, 43.072517747059464, 292.0 ], [ -89.290415989235044, 43.072519674897194, 292.2 ], [ -89.290348012000322, 43.072522357106209, 292.6 ], [ -89.290323369204998, 43.072521351277828, 292.6 ], [ -89.290115498006344, 43.072536187246442, 292.2 ], [ -89.290049197152257, 43.07255513034761, 292.4 ], [ -89.289990272372961, 43.072568373754621, 292.0 ], [ -89.289910979568958, 43.07255806401372, 293.6 ], [ -89.289886169135571, 43.072551442310214, 293.8 ], [ -89.28981333039701, 43.072587987408042, 293.2 ], [ -89.289803691208363, 43.072595782577991, 291.4 ], [ -89.289768151938915, 43.072583293542266, 287.2 ], [ -89.289640160277486, 43.072570720687509, 286.6 ], [ -89.289507893845439, 43.072543395683169, 286.8 ], [ -89.289419129490852, 43.07249209843576, 286.4 ], [ -89.289382500573993, 43.072457564994693, 285.8 ], [ -89.289313852787018, 43.07238950394094, 285.6 ], [ -89.289287030696869, 43.072366202250123, 285.8 ], [ -89.289256185293198, 43.07236167602241, 285.8 ], [ -89.289238164201379, 43.072357401251793, 285.8 ], [ -89.289150908589363, 43.072322951629758, 286.4 ], [ -89.289126181975007, 43.072310965508223, 286.4 ], [ -89.289085362106562, 43.072279868647456, 286.2 ], [ -89.288952508941293, 43.072231337428093, 284.2 ], [ -89.288915963843465, 43.072242652997375, 283.8 ], [ -89.288827367126942, 43.07229277677834, 284.4 ], [ -89.288806077092886, 43.07231767103076, 284.6 ], [ -89.288678169250488, 43.072436107322574, 287.4 ], [ -89.288629470393062, 43.072509868070483, 290.4 ], [ -89.28852285258472, 43.072617575526237, 288.0 ], [ -89.288507932797074, 43.072625957429409, 288.2 ], [ -89.288487229496241, 43.072676165029407, 288.6 ], [ -89.288379605859518, 43.072761995717883, 289.4 ], [ -89.288370637223125, 43.072770880535245, 289.0 ], [ -89.288367619737983, 43.072774903848767, 288.8 ], [ -89.288367619737983, 43.072774903848767, 288.8 ], [ -89.288357812911272, 43.072831649333239, 288.8 ], [ -89.288310538977385, 43.072955366224051, 289.2 ], [ -89.288311041891575, 43.073013871908188, 288.2 ], [ -89.288291679695249, 43.073067348450422, 287.4 ], [ -89.288292434066534, 43.073105737566948, 287.0 ], [ -89.288252284750342, 43.073200536891818, 286.0 ], [ -89.288299474865198, 43.073283014819026, 286.6 ], [ -89.288310203701258, 43.073302125558257, 287.0 ], [ -89.288330571725965, 43.073362810537219, 288.8 ], [ -89.28834205493331, 43.073477810248733, 288.6 ], [ -89.288321267813444, 43.073556935414672, 285.8 ], [ -89.288303917273879, 43.073562132194638, 285.6 ], [ -89.288149774074554, 43.073551822453737, 283.8 ], [ -89.288078024983406, 43.073557773604989, 283.2 ], [ -89.287989092990756, 43.073568670079112, 281.0 ], [ -89.287857245653868, 43.073565233498812, 276.8 ], [ -89.287721710279584, 43.073548637330532, 275.4 ], [ -89.28761157207191, 43.073560036718845, 275.8 ], [ -89.287497075274587, 43.073543608188629, 275.0 ], [ -89.287351313978434, 43.073544530197978, 275.6 ], [ -89.287230782210827, 43.073548134416342, 275.2 ], [ -89.287184095010161, 43.073548218235373, 275.2 ], [ -89.287037076428533, 43.073554672300816, 276.6 ], [ -89.286837335675955, 43.073576716706157, 278.4 ], [ -89.28669149056077, 43.073588367551565, 279.0 ], [ -89.286538520827889, 43.073582835495472, 278.2 ], [ -89.286480434238911, 43.073601443320513, 278.0 ], [ -89.286474650725722, 43.073619799688458, 278.0 ], [ -89.286476159468293, 43.07373370975256, 278.2 ], [ -89.286465682089329, 43.073829934000969, 279.4 ], [ -89.286415725946426, 43.073911657556891, 281.0 ], [ -89.286389658227563, 43.07399027980864, 282.2 ], [ -89.286391502246261, 43.07399514131248, 282.4 ], [ -89.286403739824891, 43.074036967009306, 283.0 ], [ -89.286413127556443, 43.07405523955822, 283.0 ], [ -89.286435255780816, 43.074160097166896, 282.0 ], [ -89.286430394276977, 43.074208041653037, 281.4 ], [ -89.286433747038245, 43.07422480545938, 281.2 ], [ -89.286442967131734, 43.074256656691432, 280.6 ], [ -89.286425281316042, 43.074300913140178, 278.2 ], [ -89.286388820037246, 43.074403172358871, 277.4 ], [ -89.286366272717714, 43.07450819760561, 278.0 ], [ -89.286369038745761, 43.074593106284738, 278.4 ], [ -89.286367865279317, 43.074696371331811, 281.4 ], [ -89.286378677934408, 43.074728893116117, 282.0 ], [ -89.286386640742421, 43.074758565053344, 282.4 ], [ -89.286386556923389, 43.074773065745831, 282.0 ], [ -89.286384545266628, 43.074779184535146, 281.6 ], [ -89.286388484761119, 43.074787985533476, 281.2 ], [ -89.286388484761119, 43.074795277789235, 281.0 ], [ -89.286387981846929, 43.074821513146162, 280.6 ], [ -89.286396447569132, 43.074927292764187, 283.0 ], [ -89.286409774795175, 43.075023936107755, 282.6 ], [ -89.286434920504689, 43.07505645789206, 284.4 ], [ -89.286451516672969, 43.075075317174196, 285.2 ], [ -89.28643885999918, 43.075100379064679, 285.6 ], [ -89.286426873877645, 43.075104150921106, 286.0 ], [ -89.286427041515708, 43.075103145092726, 286.0 ], [ -89.28644715808332, 43.075107503682375, 286.2 ], [ -89.286493929103017, 43.075198950245976, 286.0 ], [ -89.286485966295004, 43.075259886682034, 283.4 ], [ -89.286474902182817, 43.075406653806567, 280.8 ], [ -89.286457300186157, 43.075498603284359, 281.0 ], [ -89.286414301022887, 43.075620979070663, 285.4 ], [ -89.286438943818212, 43.075733128935099, 286.8 ], [ -89.28643986582756, 43.075787695124745, 285.6 ], [ -89.286448666825891, 43.075856426730752, 284.0 ], [ -89.286431567743421, 43.075937815010548, 284.2 ], [ -89.286414803937078, 43.075966900214553, 284.8 ], [ -89.286415474489331, 43.076002271845937, 285.6 ], [ -89.286371637135744, 43.076106877997518, 289.8 ], [ -89.286357136443257, 43.076120624318719, 291.0 ], [ -89.286359651014209, 43.07619203813374, 293.0 ], [ -89.286364931613207, 43.076215842738748, 293.8 ], [ -89.286389406770468, 43.076320951804519, 295.4 ], [ -89.286404242739081, 43.076379289850593, 296.4 ], [ -89.286436093971133, 43.076493199914694, 295.8 ], [ -89.286433244124055, 43.076502839103341, 295.4 ], [ -89.286431903019547, 43.076630579307675, 291.2 ], [ -89.286434082314372, 43.076740885153413, 292.6 ], [ -89.286438440904021, 43.07675002142787, 292.8 ], [ -89.286462664604187, 43.076866026967764, 291.8 ], [ -89.286469621583819, 43.076895615085959, 291.0 ], [ -89.286458473652601, 43.076948253437877, 289.6 ], [ -89.286449756473303, 43.076945235952735, 289.0 ], [ -89.28648236207664, 43.076978931203485, 286.8 ], [ -89.286486972123384, 43.07700608856976, 286.6 ], [ -89.286484122276306, 43.077059648931026, 286.2 ], [ -89.28648135624826, 43.077069455757737, 286.2 ], [ -89.286487894132733, 43.077105917036533, 285.2 ], [ -89.286524439230561, 43.077137935906649, 284.2 ], [ -89.28651362657547, 43.077191328629851, 284.8 ], [ -89.286527372896671, 43.077226197347045, 286.0 ], [ -89.286523517221212, 43.077228041365743, 286.4 ], [ -89.286535168066621, 43.077231477946043, 287.0 ], [ -89.286540616303682, 43.077262910082936, 288.0 ], [ -89.286529468372464, 43.077276237308979, 288.0 ], [ -89.286526534706354, 43.077284703031182, 288.0 ], [ -89.286535251885653, 43.077298449352384, 288.0 ], [ -89.28651999682188, 43.077371371909976, 288.2 ], [ -89.286523014307022, 43.077403223142028, 288.2 ], [ -89.286538604646921, 43.077427614480257, 288.2 ], [ -89.286532821133733, 43.077435912564397, 288.2 ], [ -89.286521757021546, 43.077482851222157, 288.2 ], [ -89.286512872204185, 43.077551331371069, 286.4 ], [ -89.286513375118375, 43.077568514272571, 286.0 ], [ -89.286487475037575, 43.077611094340682, 285.4 ], [ -89.286469705402851, 43.077640598639846, 285.2 ], [ -89.286469118669629, 43.077663313597441, 285.2 ], [ -89.286476410925388, 43.077674629166722, 285.2 ], [ -89.286497365683317, 43.07777470909059, 289.2 ], [ -89.286488816142082, 43.07779960334301, 289.4 ], [ -89.286492755636573, 43.077842267230153, 289.0 ], [ -89.286490576341748, 43.07784796692431, 288.8 ], [ -89.286488313227892, 43.077856348827481, 287.0 ], [ -89.286490241065621, 43.077894737944007, 286.4 ], [ -89.286491414532065, 43.077919548377395, 286.4 ], [ -89.28649066016078, 43.07798040099442, 286.4 ], [ -89.286473393440247, 43.078091545030475, 287.8 ], [ -89.28648135624826, 43.078141249716282, 289.4 ], [ -89.286477752029896, 43.07817586697638, 289.8 ], [ -89.286501556634903, 43.078297488391399, 287.2 ], [ -89.286496946588159, 43.078325483947992, 286.4 ], [ -89.286486385390162, 43.078389605507255, 285.6 ], [ -89.286484960466623, 43.078402262181044, 285.6 ], [ -89.286494767293334, 43.078415924683213, 285.6 ], [ -89.286502730101347, 43.078427407890558, 285.8 ], [ -89.286512704566121, 43.078446015715599, 285.8 ], [ -89.286499293521047, 43.078506700694561, 286.2 ], [ -89.286495689302683, 43.078516172245145, 286.4 ], [ -89.286498203873634, 43.078526649624109, 288.4 ], [ -89.286509854719043, 43.078565709292889, 289.6 ], [ -89.286524020135403, 43.078652126714587, 290.6 ], [ -89.28652728907764, 43.078702418133616, 291.0 ], [ -89.286523517221212, 43.078743489459157, 291.2 ], [ -89.286521254107356, 43.078811466693878, 292.4 ], [ -89.28653173148632, 43.078819597139955, 292.8 ], [ -89.286535335704684, 43.078827476128936, 293.4 ], [ -89.28656592965126, 43.078857231885195, 294.4 ], [ -89.286580514162779, 43.078864440321922, 294.4 ], [ -89.286610269919038, 43.078872906044126, 294.6 ], [ -89.286654107272625, 43.07890634983778, 294.4 ], [ -89.28665972314775, 43.078918755054474, 294.4 ], [ -89.28673155605793, 43.078960161656141, 294.6 ], [ -89.286821577697992, 43.078961670398712, 295.8 ], [ -89.28696415387094, 43.078960245475173, 298.0 ], [ -89.287066832184792, 43.078967370092869, 296.6 ], [ -89.28721577860415, 43.078974327072501, 295.8 ], [ -89.287292640656233, 43.078976757824421, 295.2 ], [ -89.287372520193458, 43.078981200233102, 294.4 ], [ -89.287490034475923, 43.078986564651132, 294.2 ], [ -89.287509480491281, 43.0789899174124, 294.4 ], [ -89.287540074437857, 43.078989665955305, 294.6 ], [ -89.287579050287604, 43.078991258516908, 294.8 ], [ -89.287624480202794, 43.078995030373335, 295.0 ], [ -89.287730595096946, 43.07899871841073, 295.0 ], [ -89.287781724706292, 43.078995533287525, 295.4 ], [ -89.287852048873901, 43.079011375084519, 296.4 ], [ -89.287873674184084, 43.079013302922249, 296.6 ], [ -89.287987919524312, 43.079002406448126, 296.4 ], [ -89.288083389401436, 43.078993856906891, 295.8 ], [ -89.288216410204768, 43.07898698374629, 295.4 ], [ -89.288307018578053, 43.078998299315572, 295.2 ], [ -89.288317495957017, 43.079007770866156, 295.4 ], [ -89.288317244499922, 43.079109862446785, 299.0 ], [ -89.288333589211106, 43.079211870208383, 300.6 ], [ -89.288317076861858, 43.079286552965641, 301.6 ], [ -89.288316825404763, 43.079292587935925, 301.6 ], [ -89.288312299177051, 43.079382693395019, 302.4 ], [ -89.288313640281558, 43.07946290820837, 302.6 ], [ -89.288325207307935, 43.079480929300189, 302.8 ], [ -89.288334511220455, 43.07951470836997, 303.0 ], [ -89.288331074640155, 43.079608837142587, 303.6 ], [ -89.288303581997752, 43.079760717228055, 299.6 ], [ -89.288297547027469, 43.079816708341241, 298.8 ], [ -89.288312969729304, 43.079819977283478, 298.2 ], [ -89.288309449329972, 43.079852666705847, 297.8 ], [ -89.288306348025799, 43.079900611191988, 298.2 ], [ -89.288306180387735, 43.079915447160602, 298.4 ], [ -89.288287572562695, 43.079973617568612, 300.8 ], [ -89.288266701623797, 43.080045282840729, 302.6 ], [ -89.288247590884566, 43.080136142671108, 303.6 ], [ -89.288252284750342, 43.080168915912509, 304.6 ], [ -89.288250943645835, 43.080208227038383, 305.4 ], [ -89.288262091577053, 43.080224068835378, 305.4 ], [ -89.288296792656183, 43.080300344154239, 304.6 ], [ -89.288315735757351, 43.080384414643049, 304.4 ], [ -89.288337444886565, 43.080473514273763, 302.8 ], [ -89.288310287520289, 43.080550460144877, 301.6 ], [ -89.28833425976336, 43.080596644431353, 302.2 ], [ -89.288338785991073, 43.080673422664404, 302.2 ], [ -89.288327805697918, 43.080791691318154, 301.4 ], [ -89.288308778777719, 43.080861596390605, 303.0 ], [ -89.288274580612779, 43.080956982448697, 305.0 ], [ -89.288296708837152, 43.081082124263048, 306.6 ], [ -89.288290422409773, 43.081176588311791, 305.6 ], [ -89.288276927545667, 43.081261748448014, 306.2 ], [ -89.288277765735984, 43.081296617165208, 306.4 ], [ -89.288276843726635, 43.081327714025974, 306.6 ], [ -89.288297882303596, 43.081395188346505, 308.0 ], [ -89.288293272256851, 43.08142670430243, 308.0 ], [ -89.288279274478555, 43.081476660445333, 306.6 ], [ -89.288287237286568, 43.081518402323127, 306.2 ], [ -89.288306431844831, 43.081558803096414, 307.0 ], [ -89.288311712443829, 43.081640778109431, 308.2 ], [ -89.288302157074213, 43.081660643219948, 308.4 ], [ -89.288282711058855, 43.08176776394248, 308.0 ], [ -89.288274832069874, 43.081903634592891, 308.4 ], [ -89.288303246721625, 43.082000948488712, 309.4 ], [ -89.288303665816784, 43.082011342048645, 309.6 ], [ -89.288306431844831, 43.082057274878025, 309.0 ], [ -89.288328140974045, 43.082163808867335, 307.2 ], [ -89.288339456543326, 43.082249723374844, 307.2 ], [ -89.288341216742992, 43.082265146076679, 307.0 ], [ -89.288344066590071, 43.082276461645961, 307.0 ], [ -89.288349766284227, 43.082308899611235, 307.0 ], [ -89.288341887295246, 43.082364052534103, 307.2 ], [ -89.288326548412442, 43.082491960376501, 307.8 ], [ -89.288317412137985, 43.082567062228918, 306.4 ], [ -89.288330571725965, 43.082621796056628, 306.2 ], [ -89.288337109610438, 43.08266730979085, 305.8 ], [ -89.288342976942658, 43.08280318044126, 304.2 ], [ -89.288329817354679, 43.082906361669302, 303.8 ], [ -89.288348341360688, 43.083048183470964, 304.4 ], [ -89.288358148187399, 43.0831119697541, 303.8 ], [ -89.288359992206097, 43.083170223981142, 303.0 ], [ -89.288355968892574, 43.083272818475962, 301.6 ], [ -89.288358734920621, 43.083297377452254, 301.2 ], [ -89.288381701335311, 43.083312381058931, 301.0 ], [ -89.288387568667531, 43.083327803760767, 300.4 ], [ -89.288401817902923, 43.083363594487309, 299.4 ], [ -89.28840022534132, 43.083432912826538, 298.2 ], [ -89.288387484848499, 43.083489406853914, 298.0 ], [ -89.288379186764359, 43.08350726030767, 298.0 ], [ -89.288379522040486, 43.083533830940723, 298.4 ], [ -89.288372648879886, 43.083560317754745, 299.0 ], [ -89.288379522040486, 43.083641286939383, 302.0 ], [ -89.288426712155342, 43.083660816773772, 302.4 ], [ -89.288435764610767, 43.083673221990466, 302.6 ], [ -89.288511872291565, 43.083760309964418, 302.2 ], [ -89.288678085431457, 43.083853935822845, 296.6 ], [ -89.288908839225769, 43.083909256383777, 291.4 ], [ -89.289154848083854, 43.083917889744043, 290.4 ], [ -89.289213605225086, 43.083918895572424, 290.4 ], [ -89.289228776469827, 43.083917051553726, 290.6 ], [ -89.289246294647455, 43.083918141201138, 290.6 ], [ -89.289280660450459, 43.083919817581773, 290.6 ], [ -89.289296921342611, 43.083920991048217, 290.6 ], [ -89.289312846958637, 43.083922080695629, 290.6 ], [ -89.289363976567984, 43.083919398486614, 290.4 ], [ -89.289460368454456, 43.083912190049887, 290.8 ], [ -89.289490710943937, 43.083919566124678, 291.0 ], [ -89.289651978760958, 43.083929205313325, 290.6 ], [ -89.28968483582139, 43.0839235894382, 291.0 ], [ -89.289733367040753, 43.083922332152724, 291.4 ], [ -89.289750214666128, 43.083924846723676, 291.6 ], [ -89.289841325953603, 43.083923170343041, 291.8 ], [ -89.289860688149929, 43.083811104297638, 291.4 ], [ -89.289863957092166, 43.083750503137708, 291.2 ], [ -89.289866220206022, 43.083708258345723, 290.8 ], [ -89.289869153872132, 43.083682525902987, 290.4 ], [ -89.289870411157608, 43.083570878952742, 290.8 ], [ -89.289894718676805, 43.083537938073277, 291.4 ], [ -89.28991156630218, 43.083526790142059, 291.8 ], [ -89.289911482483149, 43.083526454865932, 291.8 ] ] ] } }
]
}
